STATE,MUNICIPALITY,STREETNAME,MINORGRIDNAME,Street Consequence
IN,FRANCESVILLE,N MORTON ST,GJ04D,0.001524869902
IN,FRANCESVILLE,N MORTON ST,GJ04D,0.001524869902
IN,,N LAKE BREEZE DR,HK22A,0.007091855258
IN,,UNNAMED STREET,HL07B,0.007805881641
IN,FRANCESVILLE,ADA ST,GJ04D,0.001524869902
IN,FRANCESVILLE,ADA ST,GJ04D,0.001524869902
IN,,S 550 W,IP10A,0.002777441607
IN,,COUNTY ROAD 350 S,II36A,0.01207188672
IN,KENTLAND,S 350 W,BL21A,0.001270724918
IN,KENTLAND,N 6TH ST,BL21B,0.001645891323
IN,FOWLER,ALLEY ALY,CN15C,0.1344608496
IN,FOWLER,ALLEY ALY,CN15C,0.1344608496
IN,FOWLER,E 11TH ST,CN15D,0.1344608496
IN,MONTICELLO,S PARK DR,HM04C,0.07279438461
IN,BROOKSTON,STATE HWY 18,GN21B,0.03024325306
IN,BROOKSTON,STATE HWY 18,GN21B,0.03024325306
IN,,UNNAMED STREET,IL35A,0.002589858405
IN,,S TOWNLINE RD,SB25D,0.19497156
IN,OTTERBEIN,E BRIAR ST,EO27C,0.002529347695
IN,MOROCCO,W SUNSHINE DR,BJ21C,0.001198112066
IN,WOLCOTT,HOMER ST,FL30A,0.0009379160111
IN,DELPHI,W MADISON ST,IN30B,0.04138932591
IN,,B RD,HL15C,0.01197506959
IN,,COUNTY ROAD 375 E,HL19D,0.007805881641
IN,,COUNTY ROAD 400 E,HL18B,0.007805881641
IN,BURNETTSVILLE,WEST ST,IL25A,0.002589858405
IN,MONTICELLO,UNNAMED STREET,HL28B,0.1626406874
IN,MONTICELLO,UNNAMED STREET,HL28B,0.1626406874
IN,FOWLER,E 10TH ST,CN15B,0.1344608496
IN,,N STATE HWY 3,UB08D,0.002069466296
IN,,N 800 E,UB05D,0.002069466296
IN,,E CHERRY DR,HK32C,0.01197506959
IN,,E ROUND A BOUT RD,HL22A,0.01197506959
IN,,N ROUND A BOUT RD,HL22A,0.01197506959
IN,,HIGHLAND COVE CT,HL16C,0.01197506959
IN,OXFORD,HAWLEY ST,DO20A,0.00162773811
IN,OXFORD,HAWLEY ST,DO20A,0.00162773811
IN,MONON,N ADAMS ST,GK16C,0.003279680503
IN,,COLONIAL OAK DR,HM21A,0.00285005446
IN,OTTERBEIN,N MEADOW ST,EO27C,0.003969502602
IN,,E WASHINGTON ST,HL34A,0.007581992013
IN,KENTLAND,N 6TH ST,BL21D,0.001645891323
IN,CHALMERS,COUNTY ROAD 600 S,GM28D,0.002856105531
IN,CHALMERS,COUNTY ROAD 600 S,GM28D,0.002856105531
IN,,S US HWY 421,IP14A,0.002777441607
IN,REMINGTON,E HARRISON ST,EL30A,0.005978458187
IN,,W US HIGHWAY 24,DL25A,0.005978458187
IN,WOLCOTT,CHURCH DR,EL25D,0.003479365848
IN,MONON,UNNAMED STREET,GK21D,0.004756141837
IN,KENTLAND,8TH ST,BL22C,0.001645891323
IN,MONTICELLO,MAXWELL AVE,HL28D,0.1626406874
IN,MONTICELLO,MARSHA MNR,HL28B,0.1626406874
IN,MONTICELLO,UNNAMED STREET,HM04B,0.1295715842
IN,FLORA,E CLEM ST,JO10A,0.0891141232
IN,MONTICELLO,GORDON RD,HM04B,0.07279438461
IN,,W 775 S,IP14C,0.002777441607
IN,,HALLSDALE RD,HL22A,0.01197506959
IN,OTTERBEIN,N MADDOX RD,EO28C,0.003969502602
IN,,COUNTY ROAD 400 E,HL07D,0.007805881641
IN,,STATE HWY 39,HL15C,0.01197506959
IN,,LENBACK CT,HK11C,0.001718504175
IN,MONTICELLO,LAMPLIGHTER LN,HL34C,0.007581992013
IN,OXFORD,E JILL LN,DO18B,0.004290209367
IN,,S STATE HWY 75,JO16D,0.004750090766
IN,FLORA,VEGA DR,JO10B,0.004750090766
IN,REMINGTON,FRONTAGE RD,DL24D,0.00471378434
IN,REMINGTON,N NEW YORK ST,EL19C,0.00471378434
IN,,BAILEY RD,HK31B,0.007091855258
IN,OTTERBEIN,MEADOW ST,EO33B,0.003969502602
IN,BROOK,N HWY ST,CK18D,0.001300980274
IN,OTTERBEIN,4TH ST,EO34A,0.002529347695
IN,,COUNTY ROAD 375 N,GL09B,0.002075517367
IN,FRANCESVILLE,LYNN ST,GJ04D,0.001524869902
IN,MOROCCO,W PRAIRIE ST,BJ27B,0.001198112066
IN,REYNOLDS,ALLEY,GL33B,0.002856105531
IN,KENTLAND,N ADE ST,BL21B,0.001645891323
IN,MOROCCO,DEWEY ST,BJ22C,0.001198112066
IN,CHALMERS,WALNUT ST,GM27C,0.002856105531
IN,FRANCESVILLE,S BILL ST,GJ04C,0.001452257049
IN,,S 070 E,TC18D,0.004592762919
IN,MONTICELLO,GRACE CT,HL28B,0.1626406874
IN,,W COUNTY LINE RD S,TI24B,0.03554399129
IN,MONTICELLO,LINDA AVE,HL28D,0.1626406874
IN,FOWLER,E 4TH ST,CN15B,0.1581870991
IN,DELPHI,N WILSON ST,IN29A,0.1520513131
IN,FOWLER,S PARK AVE,CN15D,0.1344608496
IN,FOWLER,S VAN BUREN AVE,CN15A,0.1344608496
IN,FOWLER,9TH ST,CN15A,0.1344608496
IN,MONTICELLO,W FISHER ST,HL28C,0.1230606317
IN,FOWLER,E 10TH ST,CN15C,0.1344608496
IN,FOWLER,E 9TH ST,CN15A,0.1344608496
IN,MONTICELLO,TERRY HO DR,HM03A,0.1295715842
IN,MONTICELLO,FISHER ST,HL28C,0.1031647102
IN,MONTICELLO,W MARION ST,HL33A,0.1031647102
IN,MONTICELLO,REX ST,HL33A,0.1031647102
IN,MONTICELLO,PRIVATE DR,HL33A,0.1031647102
IN,WOLCOTTVILLE,S ALBANY ST,TD03A,0.007981362701
IN,,N STATE HWY 3,UB17B,0.002069466296
IN,MONTICELLO,RAINBOW DR,HM04D,0.07279438461
IN,,W 700 S,RC26D,0.007315744887
IN,MONTICELLO,S RAILROAD ST,HL33D,0.07279438461
IN,,COUNTY ROAD 600 N,HK29D,0.007091855258
IN,,COUNTY ROAD 1250 E,IL27A,0.002589858405
IN,,COUNTY ROAD 50 S,JI18C,0.04532857316
IN,WINAMAC,N FOREST DR,II12D,0.04532857316
IN,DELPHI,SMITH,IN19D,0.04138932591
IN,,E WASHINGTON ST,II13B,0.04532857316
IN,TOPEKA,CR 700 RD S,RC25C,0.009542539029
IN,ROSSVILLE,STINGLEY DR,IP24C,0.03219169793
IN,BROOKSTON,W 8TH ST,GN21B,0.03024325306
IN,BROOKSTON,W 8TH ST,GN21B,0.03024325306
IN,DELPHI,S HAMILTON ST,IN29C,0.02899068135
IN,ROSSVILLE,RAINBOW DR,IP23D,0.005234176449
IN,,N STATE ROAD 9,SA36B,0.008193150188
IN,MONTICELLO,SADDLEBROOKE TRL,HL28B,0.007581992013
IN,,W CREST DR,HM33B,0.00896163621
IN,,W CREST DR,HM33B,0.00896163621
IN,,S ORANGE LOOP,GN26B,0.001470410263
IN,DELPHI,W CRESTWOOD DR,IN32B,0.02899068135
IN,,N N SHORE ACRES CT,HL09C,0.01197506959
IN,,COUNTY ROAD 175 N,HL22B,0.007581992013
IN,,N 1225 W,HM33D,0.00896163621
IN,,E 100 N,HL21D,0.007581992013
IN,,HIGHLAND COVE CT,HL17D,0.01197506959
IN,,E 175 N,HL22A,0.01197506959
IN,,COUNTY ROAD 400 N,HL05D,0.01197506959
IN,,COUNTY ROAD 75 W,II23C,0.01207188672
IN,,MAIN DR,II36A,0.01207188672
IN,,UNNAMED STREET,II36A,0.01207188672
IN,,ROLLING MEADOWS DR,HL22A,0.01197506959
IN,,AIRPORT RD,HM09D,0.004574609706
IN,,COUNTY ROAD 1550 W,GI05A,0.004060268668
IN,,COUNTY ROAD 1550 W,GI05A,0.004060268668
IN,OTTERBEIN,GREGORY LN,EO33B,0.003969502602
IN,GOODLAND,W SOUTH ST,CL26D,0.002892411957
IN,FLORA,W CLARK ST,JO09B,0.004750090766
IN,OXFORD,MCCLURE ST,DO18B,0.004290209367
IN,,COUNTY ROAD 425 N,HL06C,0.007805881641
IN,,COUNTY ROAD 425 N,HL06C,0.007805881641
IN,MONTICELLO,E WOODHAVEN CT,HL27C,0.007581992013
IN,,COUNTY ROAD 175 N,HL23B,0.007581992013
IN,,UNNAMED STREET,HK32C,0.007091855258
IN,,N 235 E,TA33C,0.003709306547
IN,BOSWELL,NORTH ST,BO24B,0.002571705192
IN,OTTERBEIN,E 6TH ST,EO34A,0.002529347695
IN,REMINGTON,W US HIGHWAY 24,DL25B,0.005978458187
IN,REMINGTON,W US HIGHWAY 24,DL25B,0.005978458187
IN,,COUNTY ROAD 300 N,IH29C,0.001155754569
IN,,EAST ST,DL24B,0.00471378434
IN,MONTICELLO,INDIAN HILLS RD,HM04D,0.004574609706
IN,FRANCESVILLE,VIOLET ST,GJ04D,0.001524869902
IN,,W 250 S,IO22A,0.001476461334
IN,FLORA,MANOR DR,JO10B,0.004750090766
IN,,S 25 W,JO16B,0.004750090766
IN,FLORA,S SYCAMORE ST,JO09D,0.004750090766
IN,WOLCOTT,4TH ST,EL25D,0.003479365848
IN,WOLCOTT,E FOX ST,FL30A,0.0009379160111
IN,,UNNAMED STREET,HM16C,0.004574609706
IN,OXFORD,E ENOTA ST,DO18B,0.004290209367
IN,,COUNTY ROAD 375 N,HL07B,0.007805881641
IN,MEDARYVILLE,MADISON ST,GI04A,0.004060268668
IN,MEDARYVILLE,BELL ST,GI05B,0.004060268668
IN,OTTERBEIN,5TH ST,EO33B,0.003969502602
IN,,S CR 650 COR E,HL34A,0.007581992013
IN,WOLCOTT,NORTH ST,FL30A,0.003479365848
IN,CAMDEN,INDIANA ST,JN16C,0.003067893017
IN,CAMDEN,E MAIN ST,JN16D,0.003067893017
IN,CAMDEN,INDIANA ST,JN16A,0.003067893017
IN,CAMDEN,E MAIN ST,JN16D,0.003067893017
IN,CHALMERS,COUNTY ROAD 50 E,GM27C,0.002856105531
IN,CHALMERS,COUNTY ROAD 50 E,GM27C,0.002856105531
IN,CHALMERS,E COLUMBIA ST,GM27C,0.002856105531
IN,BOSWELL,S ADAMS ST,BO24B,0.002571705192
IN,BOSWELL,MCKNIGHT ST,BO24B,0.002571705192
IN,MOROCCO,DEAN ST,BJ21C,0.001198112066
IN,KENTLAND,N HAWKEYE LN,BL21B,0.001645891323
IN,KENTLAND,N 7TH ST,BL22C,0.001645891323
IN,KENTLAND,E DORSEY ST,BL22A,0.001645891323
IN,OXFORD,WATER ST,DO20A,0.00162773811
IN,,COUNTY ROAD 100 E,CO14C,0.00162773811
IN,OXFORD,WATER ST,DO20A,0.00162773811
IN,BROOK,E WASHINGTON ST,CK17C,0.001300980274
IN,,W 1517 S,BL20B,0.001270724918
IN,KENTLAND,N 1ST ST,BL21D,0.001270724918
IN,MONON,UNKNOWN,GK16D,0.003279680503
IN,REMINGTON,S INDIANA ST,EL30C,0.005978458187
IN,REMINGTON,W DIVISION ST,DL25B,0.005978458187
IN,REYNOLDS,COUNTY ROAD 25 E,GL34A,0.002075517367
IN,GOODLAND,MEADOW ST,CL23D,0.001730606317
IN,KENTLAND,W RAILROAD ST,BL21C,0.001270724918
IN,MEDARYVILLE,MAPLE ST,GI05B,0.004060268668
IN,WOLCOTT,COUNTY ROAD 100 N,FL30A,0.003479365848
IN,WOLCOTT,COUNTY ROAD 100 N,FL30A,0.003479365848
IN,MONON,MARKET ST,GK16D,0.003279680503
IN,REYNOLDS,HILLSIDE DR,GL33B,0.002856105531
IN,KENTLAND,S 2ND ST,BL21D,0.001270724918
IN,MOROCCO,N WEST ST,BJ21C,0.001198112066
IN,WARSAW,E CLARK ST,PG08D,0.3126830449
IN,,N 230 E,TA33C,0.003709306547
IN,MONTICELLO,E OHIO ST,HL33D,0.2229638146
IN,KENTLAND,N 3RD ST,BL21B,0.1885392715
IN,KENTLAND,E HOLLEY DR,BL21B,0.1885392715
IN,MONTICELLO,UNKNOWN,HL28A,0.1626406874
IN,MONTICELLO,GRACE CT,HL28D,0.1626406874
IN,FOWLER,ALLEY ALY,CN16B,0.1581870991
IN,MONTICELLO,N BEACH DR,HL28A,0.1626406874
IN,MONTICELLO,QUENTIN AVE,HL28D,0.1626406874
IN,DELPHI,E FRANKLIN ST,IN29A,0.1520513131
IN,MONTICELLO,N MAIN ST,HL28D,0.1230606317
IN,FOWLER,E MAIN ST,CN10D,0.1581870991
IN,FOWLER,N PARK AVE,CN15B,0.1581870991
IN,DELPHI,N MARKET ST,IN29A,0.1520513131
IN,FOWLER,12TH ST,CN15D,0.1344608496
IN,FOWLER,S PARK PL,CN15D,0.1344608496
IN,FOWLER,JAMES ST,CN15D,0.1344608496
IN,FOWLER,9TH ST,CN15B,0.1344608496
IN,MONTICELLO,HIGH ST,HL33A,0.1230606317
IN,MONTICELLO,BEECHWOOD DR,HL34C,0.1295715842
IN,FOWLER,S GRANT AVE,CN15C,0.1344608496
IN,FOWLER,E 7TH ST,CN15B,0.1344608496
IN,MONTICELLO,FAIRWOOD DR,HL28D,0.1230606317
IN,MONTICELLO,TYLER LN,HL34C,0.1295715842
IN,MONTICELLO,REYNOLD BLVD,HL33B,0.1230606317
IN,MONTICELLO,REYNOLDS BLVD,HL33B,0.1230606317
IN,WINAMAC,N EAST ST,II14B,0.04532857316
IN,BROOKSTON,E 12TH ST,GN22C,0.08534430594
IN,MONTICELLO,N 3RD ST,HL33A,0.1031647102
IN,FLORA,S CENTER ST,JO10A,0.0891141232
IN,MONTICELLO,S COUNTRYBROOK DR,HM04D,0.07279438461
IN,,UNNAMED STREET,HL06D,0.007805881641
IN,FLORA,W HOOP ST,JO10A,0.0891141232
IN,OXFORD,S STATE HWY 55,DO18B,0.004290209367
IN,BROOKSTON,HOLDEN DR,GN22A,0.08534430594
IN,MONTICELLO,S 1ST ST,HL33C,0.07279438461
IN,MONTICELLO,MEADOWBROOK DR,HM04D,0.07279438461
IN,BOSWELL,S OLD US HWY 41,CO19A,0.002571705192
IN,WINAMAC,W NARROW ST,II14B,0.04532857316
IN,REYNOLDS,UNNAMED STREET,GL28D,0.002075517367
IN,BROOKSTON,ALLEY ALY,GN16D,0.03024325306
IN,DELPHI,LAKE SHORE DR,IN30B,0.04138932591
IN,DELPHI,KERLIN AVE,IN19D,0.04138932591
IN,,KERLIN AVE,IN19B,0.04138932591
IN,WINAMAC,COUNTY HWY 90 E,II12D,0.04532857316
IN,WINAMAC,E PEARL ST,II14B,0.04532857316
IN,MOUNT AYR,S 500 E,CJ14D,0.001198112066
IN,MONTICELLO,W BROADWAY ST,HL32B,0.007805881641
IN,,US HIGHWAY 24 W,UI31B,0.02755657751
IN,,W WINSOR RD,HM15A,0.03493283311
IN,,S 425 E,HL32C,0.004574609706
IN,DELPHI,W WABASH ST,IN30B,0.04138932591
IN,DELPHI,N WASHINGTON ST,IN19D,0.04138932591
IN,DELPHI,CLAY ST,IN19D,0.04138932591
IN,DELPHI,W ADAMS ST,IN19D,0.04138932591
IN,,N HODGES DR,HN04D,0.00896163621
IN,ROSSVILLE,LOCUST ST,IP24C,0.03219169793
IN,,UNNAMED STREET,HL32A,0.007805881641
IN,,E POTAWOTAMIE DR,HL18B,0.007805881641
IN,,N 1125 W,HM10B,0.001657993465
IN,,S 650 W,IO28C,0.001476461334
IN,,W 1508 S,BL20B,0.001270724918
IN,,UNNAMED STREET,II15A,0.001155754569
IN,BROOKSTON,PRAIRIE ST,GN22C,0.03024325306
IN,,COUNTY ROAD 800 E,HL23B,0.007581992013
IN,,N US HIGHWAY 33,TG24D,0.007515430231
IN,,COUNTY ROAD 775 N,HK22A,0.007091855258
IN,DELPHI,S WABASH ST,IN29C,0.02899068135
IN,DELPHI,S WASHINGTON ST,IN29C,0.02899068135
IN,,W 1154 N,HM10B,0.03493283311
IN,,UNKNOWN,HM15B,0.03493283311
IN,,W US HWY 421,HM15B,0.03493283311
IN,,STATE HWY 119,II35B,0.01207188672
IN,,CRESTVIEW DR,II25C,0.01207188672
IN,WINAMAC,SHADY LN,II13A,0.01207188672
IN,OTTERBEIN,6TH ST,EO33B,0.003969502602
IN,ROSSVILLE,BROWN ST,IP24C,0.03219169793
IN,ROSSVILLE,alley,IP24C,0.03219169793
IN,,COUNTY ROAD 50 E,II25C,0.01207188672
IN,,N EAGLEHOFF CT,HL21B,0.01197506959
IN,,E4.2,HL05A,0.01197506959
IN,,W STATE HWY 218,IN15D,0.002117874864
IN,,RAVINE TWIN PINES,HM33B,0.00896163621
IN,KENTLAND,E GOSS ST,BL21D,0.001645891323
IN,FRANCESVILLE,E MONTGOMERY ST,GJ04D,0.001524869902
IN,,UNNAMED STREET,HL06C,0.007805881641
IN,,E HIAWATHA DR,HL18B,0.007805881641
IN,,COUNTY ROAD 100 N,HL19D,0.007805881641
IN,,W 6.5,HK21C,0.007091855258
IN,,E WALNUT DR,HK21B,0.007091855258
IN,,COUNTY ROAD 800 N,HK15C,0.007091855258
IN,FLORA,SUNSET DR,JO10B,0.004750090766
IN,,COUNTY ROAD 300 S,II25C,0.01207188672
IN,,RAYS RD,II36A,0.01207188672
IN,,JOYCE RD,II25C,0.01207188672
IN,,UNNAMED STREET,II25C,0.01207188672
IN,,UNNAMED STREET,II24B,0.01207188672
IN,,N HUMMINGBIRD DR,HL09C,0.01197506959
IN,,TURNAGAIN RD,HL22A,0.01197506959
IN,,UNNAMED STREET,HL22A,0.01197506959
IN,,E SHAFER DR,HL08A,0.01197506959
IN,,E BLUEBERRY DR,HK32C,0.01197506959
IN,,W STATE ROAD 16,GK17D,0.003279680503
IN,MONON,N ADAMS ST,GK16D,0.003279680503
IN,REMINGTON,S ILLINOIS ST,EL30A,0.005978458187
IN,,US HWY 35,II11B,0.0103836379
IN,REYNOLDS,COUNTY ROAD 100 S,GL33D,0.002856105531
IN,,S REAGAN DR,HM21D,0.00285005446
IN,OTTERBEIN,SECOND,EO34A,0.002529347695
IN,ROSSVILLE,UNNAMED STREET,IP26B,0.005234176449
IN,,N UPPER HAMBRIDGE DR,HM33B,0.00896163621
IN,,W 950 N,HM22B,0.00896163621
IN,,E 300 N,CN03A,0.0008410988745
IN,EARL PARK,6TH ST,BM23C,0.0006716688854
IN,,UNNAMED STREET,HL31B,0.007805881641
IN,MONTICELLO,E SUNNYSIDE TRL,HL34C,0.007581992013
IN,,E LAKESIDE DR,HL34A,0.007581992013
IN,MONTICELLO,BRANDY WINE LN,HL21C,0.007581992013
IN,,COUNTY ROAD 700 N,HK27A,0.007091855258
IN,,UNKNOWN,HK31D,0.007091855258
IN,,W 3.8,HK31D,0.007091855258
IN,,COUNTY ROAD 700 N,HK28B,0.007091855258
IN,,COUNTY ROAD 400 E,HK32A,0.007091855258
IN,,GOLDEN HILLS RD,HM09D,0.004574609706
IN,MONON,4TH ST,GK21A,0.003279680503
IN,BURNETTSVILLE,2ND ST,IL25A,0.002589858405
IN,BOSWELL,MAIN ST,BO24B,0.002571705192
IN,MONON,US HWY 421,GK21D,0.004756141837
IN,FLORA,MONROE ST,JO10A,0.004750090766
IN,FLORA,S 25 W,JO09D,0.004750090766
IN,,UNNAMED STREET,DL24B,0.00471378434
IN,REMINGTON,E DIVISION ST,EL30A,0.00471378434
IN,OXFORD,N DAN PATCH DR,DO18D,0.004290209367
IN,OXFORD,S STATE ROAD 55,DO17C,0.004290209367
IN,OXFORD,DARCY DR,DO18D,0.004290209367
IN,OXFORD,UNKNOWN,DO17C,0.004290209367
IN,OTTERBEIN,BROWN ST,EO33B,0.003969502602
IN,,ALLEY ALY,HN24D,0.0035519787
IN,WOLCOTT,W US HIGHWAY 24,EL24D,0.003479365848
IN,MONON,NORSE LN,GK21A,0.003279680503
IN,MONON,PARK RD,GK21A,0.003279680503
IN,CAMDEN,UNNAMED STREET,JN16D,0.003067893017
IN,,N FALVEY ST,II11B,0.0103836379
IN,GOODLAND,S GARFIELD ST,CL26A,0.002892411957
IN,CHALMERS,UNKNOWN,GM34A,0.002856105531
IN,,UNNAMED STREET,IP10A,0.002777441607
IN,,CENTER ST,IP03D,0.002777441607
IN,,MONROEVILLE RD,XJ08D,0.002650369115
IN,OTTERBEIN,NEW ST,EO34A,0.002529347695
IN,REYNOLDS,LOGAN ST,GL28D,0.002075517367
IN,REYNOLDS,BOONE ST,GL28D,0.002075517367
IN,REMINGTON,N MISSOURI ST,DL24D,0.00471378434
IN,GOODLAND,N BENTON ST,CL23D,0.001730606317
IN,GOODLAND,CONSTABLE ST,CL23D,0.001730606317
IN,YEOMAN,W 825 N,HM26C,0.001657993465
IN,YEOMAN,UNKNOWN,HM26C,0.001657993465
IN,KENTLAND,E DORSEY ST,BL21B,0.001645891323
IN,KENTLAND,E HAWKEYE LN,BL22A,0.001645891323
IN,,ALLEY ALY,DO21B,0.00162773811
IN,,COUNTY ROAD 1150 E,IL28B,0.001597482754
IN,,E COUNTY ROAD 50 N,IL28D,0.001597482754
IN,,COUNTY ROAD 1150 E,IL33B,0.001597482754
IN,,COUNTY ROAD 150 S,GI24B,0.001524869902
IN,,S 625 W,IO21D,0.001476461334
IN,,N BUTTERFIELD LOOP RD,HK30C,0.001307031345
IN,,N BUTTERFIELD LOOP RD,GK25D,0.001307031345
IN,BROOK,N LYONS ST,CK18D,0.001300980274
IN,BROOK,JEFFERSON ST,CK18D,0.001300980274
IN,BROOK,HOLLYBROOK LN,CK18D,0.001300980274
IN,KENTLAND,OAK LN,BL21C,0.001270724918
IN,KENTLAND,W ALLEN ST,BL21C,0.001270724918
IN,,JEANNETTE DR,BL20B,0.001270724918
IN,KENTLAND,LUTZ,BL20D,0.001270724918
IN,MOROCCO,PRIVATE RD,BJ21B,0.001040784219
IN,MOROCCO,WELLS ST,BJ21D,0.001040784219
IN,FOWLER,N CLAY AVE,CN16B,0.0008410988745
IN,,N STATE ROAD 55,CN04B,0.0008410988745
IN,EARL PARK,4TH ST,BM23C,0.0006716688854
IN,EARL PARK,S LOCUST ST,BM23D,0.0006716688854
IN,,UNKNOWN,HL15D,0.007581992013
IN,,CO RD,HL34A,0.007581992013
IN,,UNNAMED STREET,HL22B,0.007581992013
IN,,W 3.6,HK31D,0.007091855258
IN,REMINGTON,S KENTUCKY ST,EL30A,0.005978458187
IN,MONON,HOUSER ST,GK21B,0.004756141837
IN,MONON,PINE ST,GK21B,0.004756141837
IN,,PLATEAU TRL,HL32C,0.004574609706
IN,,WESTERN HTS. LOOP,HL32A,0.004574609706
IN,REYNOLDS,HARRISON ST,GL28D,0.002075517367
IN,REYNOLDS,UNNAMED STREET,GL27C,0.002075517367
IN,OXFORD,N HIGHLAND CT,DO18D,0.004290209367
IN,OXFORD,UNNAMED STREET,DO18D,0.004290209367
IN,MEDARYVILLE,UNKNOWN,GI04C,0.004060268668
IN,MEDARYVILLE,JEFFERSON ST,GI04C,0.004060268668
IN,,COUNTY ROAD 950 W,HN25B,0.0035519787
IN,WOLCOTT,PRIVATE DR,EL25B,0.003479365848
IN,MONON,DOROTHY ST,GK21A,0.003279680503
IN,CHALMERS,1ST ST,GM27C,0.002856105531
IN,REYNOLDS,3RD ST,GL33B,0.002856105531
IN,REYNOLDS,2ND ST,GL33B,0.002856105531
IN,CHALMERS,WALNUT ST,GM28D,0.002856105531
IN,REYNOLDS,US HWY 24,GL33A,0.002075517367
IN,REYNOLDS,N WASHINGTON ST,GL33B,0.002075517367
IN,,CR 1500 RD S,CL24A,0.001730606317
IN,KENTLAND,N 4TH ST,BL21D,0.001645891323
IN,KENTLAND,S 4TH ST,BL21D,0.001645891323
IN,,US HWY 24,IL29D,0.001597482754
IN,,E COUNTY ROAD 50 N,IL29D,0.001597482754
IN,FRANCESVILLE,N BROOKS ST,GJ04D,0.001524869902
IN,FRANCESVILLE,MONCEL DR,GJ04D,0.001524869902
IN,FRANCESVILLE,W LYMAN AVE,GJ09A,0.001524869902
IN,FRANCESVILLE,S MONON AVE,GJ04C,0.001452257049
IN,MOROCCO,SHORT ST,BJ21D,0.001198112066
IN,WOLCOTT,BURK ST,FL30C,0.0009379160111
IN,FOWLER,W 1ST ST,CN16B,0.0008410988745
IN,FOWLER,N HARRISON AVE,CN16B,0.0008410988745
IN,FOWLER,THIRD,CN16B,0.0008410988745
IN,EARL PARK,OAK ST,BM23C,0.0006716688854
IN,SOUTH BEND,EDISON RD,MA31D,0.237819194
IN,,EMS B37 LN,QF29B,0.03281495825
IN,LAGRANGE,ORCHARD HILL DR,TB30A,0.19497156
IN,,E 405 N,TA33C,0.003709306547
IN,MIDDLEBURY,GREENFIELD DR,QB10A,0.03271209004
IN,LAGRANGE,S 100 E,TB30B,0.06423211909
IN,LAGRANGE,S 100 E,TB30B,0.06423211909
IN,,UNNAMED STREET,TC17A,0.004592762919
IN,,E 325 N,UB05D,0.002069466296
IN,,ORCHARD DR,PC21C,0.01909112913
IN,,N STATE HWY 3,UB08B,0.002069466296
IN,,FOREST LAKES DR,QA25B,0.01099479608
IN,WINONA LAKE,STONE CAMP TRL,PG22A,0.09753116302
IN,,N 780 E,UB05D,0.002069466296
IN,BRISTOL,TURNBERRY AVE,PA27C,0.03564080842
IN,LIGONIER,BRIDGE ST,RD28B,0.05318286337
IN,,MAIN ST,TA33C,0.003709306547
IN,GARY,ALLEY,CC33A,0.2909052402
IN,GARY,ALLEY,CC33A,0.2909052402
IN,,W COUNTY LINE RD S,TI36B,0.02755657751
IN,,BARBEE RD,QF28B,0.03281495825
IN,,ASH RD,NB28D,0.02098511437
IN,BRISTOL,BIRDEE BLVD,PA27C,0.03564080842
IN,GOSHEN,W LINCOLN AVE,PC08C,0.1389931018
IN,LAGRANGE,N 030 DR E,TB19A,0.009070555488
IN,KOKOMO,DIXON RD W,MP11C,0.07310298923
IN,KOKOMO,SMITH RD,MO13D,0.2420488927
IN,KOKOMO,SMITH RD,MO13D,0.2420488927
IN,GOSHEN,PARK WEST DR,PC08A,0.1690608738
IN,MONROEVILLE,UNNAMED STREET,YJ18D,0.07106377829
IN,MONROEVILLE,UNNAMED STREET,YJ18D,0.07106377829
IN,,N RAGGEDY ANN RD,QE12D,0.01468594941
IN,SCHERERVILLE,CLINE AVE,BD15D,0.2442393804
IN,,W 450 S,TC18A,0.004592762919
IN,FORT WAYNE,WILLOWIND TRL,VG27C,0.16644076
IN,ROME CITY,BAYVIEW DR E,TD15A,0.007981362701
IN,FORT WAYNE,MAPLECREST RD,WH21D,0.2062689096
IN,BRISTOL,CHESTNUT ST,PA27B,0.03564080842
IN,HOBART,E 10TH ST,DD05A,0.2180079874
IN,,S 800 E-92,UI06A,0.0600084715
IN,,S 800 E-92,UI06A,0.0600084715
IN,KENDALLVILLE,N RILEY ST,UD33A,0.3614667796
IN,SOUTH BEND,N MAYFLOWER RD,LB05C,0.1047077333
IN,SOUTH BEND,N MAYFLOWER RD,LB05C,0.1047077333
IN,,EMS B73 LN,QF28B,0.008882972286
IN,EAST CHICAGO,WHITE OAK AVE,BB32C,0.4877042236
IN,EAST CHICAGO,WHITE OAK AVE,BB32C,0.4877042236
IN,OCEOLA,ASH RD,NB16B,0.1104380975
IN,,THOMPSON ST,HE08B,0.003309935859
IN,,EMS B31 LN,QF28A,0.008882972286
IN,GOSHEN,N GREENE RD,PC08A,0.2016579935
IN,SOUTH BEND,STATE ROAD 2,LB08A,0.2322582597
IN,SOUTH BEND,STATE ROAD 2,LB08A,0.2322582597
IN,BRISTOL,BUTTERNUT LN,PA27C,0.03564080842
IN,,RAVINE RD,PC21C,0.01909112913
IN,VALPARAISO,THORNAPPLE WAY,ED26C,0.05473798862
IN,COLUMBIA CITY,ALLEY ALY,SH10D,0.1506232603
IN,,N ARBUTUS,PA32C,0.02450078664
IN,,COUNTY ROAD 925 E,UC15C,0.005149461455
IN,,WOODLAND TRL,WF30C,0.004465690427
IN,DYER,SHEFFIELD AVE,AD24A,0.2314776715
IN,DYER,SHEFFIELD AVE,AD24A,0.2314776715
IN,FORT WAYNE,LAKE AVE,WI06B,0.244808181
IN,GOSHEN,FOREST CT,PC28B,0.01909112913
IN,,E COUNTY LINE RD,QA13D,0.01099479608
IN,ELKHART,ALLEY,OB05A,0.4601052886
IN,SOUTH BEND,SUGAR MAPLE LN,LA27A,0.4013917463
IN,MISHAWAKA,ALLEY,MB10D,0.2619327121
IN,FORT WAYNE,RUNNION AVE,VI03A,0.4305700109
IN,SOUTH BEND,LINCOLN WAY W,LB02C,0.3186494009
IN,BRISTOL,HILBISH BLVD,PA27A,0.03564080842
IN,PORTAGE,ROBBINS RD,DC24B,0.1588406148
IN,SOUTH BEND,W SAMPLE ST,LB08D,0.5528803098
IN,DECATUR,N 2ND ST,XK34D,0.3232603171
IN,AUBURN,S GRANDSTAFF DR,WE31A,0.1235749728
IN,,THREE OAKS DR N,PB22C,0.01919399734
IN,MISHAWAKA,GRAPE RD,MA28A,0.1764008229
IN,KOKOMO,WESTERN,MO35B,0.3096696115
IN,SOUTH BEND,N LOGAN ST,MB08B,0.3913167131
IN,SOUTH BEND,N LOGAN ST,MB08B,0.3913167131
IN,LIGONIER,ALLEY,RD27A,0.1201682198
IN,FORT WAYNE,HATFIELD RD,VH21A,0.2146133366
IN,,COUNTY ROAD 42,PC36C,0.006026866755
IN,,COUNTY ROAD 42,PC36C,0.006026866755
IN,SOUTH BEND,CROSS CREEK DR,LA22B,0.07146314898
IN,,S ARBUTUS,PA32C,0.02450078664
IN,NAPPANEE,E RANDOLPH ST,OD31C,0.04849328331
IN,FORT WAYNE,BARR ST,VI02D,0.5494735568
IN,ELKHART,COUNTY ROAD 17,OA36D,0.02895437492
IN,ELKHART,COUNTY ROAD 17,OA36D,0.02895437492
IN,ELKHART,BENHAM AVE,OB17B,0.2659385211
IN,MISHAWAKA,GRAPE RD,MA33C,0.4668703861
IN,,CLEVELAND RD,MA19D,0.2590705555
IN,,STATE ROAD 205,VF19C,0.004405179717
IN,,STATE ROAD 205,VF19C,0.004405179717
IN,,E 450 N,QF19A,0.008429141958
IN,,E 450 N,QF19A,0.008429141958
IN,MICHIGAN CITY,TILDEN AVE,GA33C,0.2394711364
IN,,CR 930 E,UC15C,0.005149461455
IN,,UNNAMED STREET,WF07A,0.01499455404
IN,FORT WAYNE,WINTER ST,VI12D,0.4091310662
IN,SOUTH BEND,ARDMORE TRL,LB04A,0.1541812901
IN,SOUTH BEND,ARDMORE TRL,LB04A,0.1541812901
IN,SOUTH BEND,CARROLL ST,LB24A,0.4746581145
IN,GARY,GRANT ST,CC17D,0.3744644802
IN,LIGONIER,W US HIGHWAY 6,RD28D,0.1201682198
IN,LIGONIER,W US HIGHWAY 6,RD28D,0.1201682198
IN,MERRILLVILLE,S COUNTY LINE RD,DD15A,0.01751785066
IN,MERRILLVILLE,S COUNTY LINE RD,DD15A,0.01751785066
IN,ELKHART,PROSPECT ST,OB05A,0.4523417645
IN,,VILLAGER PKWY,MA17C,0.1261103715
IN,,N 700 E,QF21D,0.03281495825
IN,,BULLA RD,MA31B,0.237819194
IN,KOKOMO,GANO,MO24D,0.2420488927
IN,,S 895 E,UC16D,0.005149461455
IN,,N 215 E,TA33C,0.003709306547
IN,GARY,S COUNTY LINE RD,DB33D,0.06158780104
IN,GARY,S COUNTY LINE RD,DB33D,0.06158780104
IN,,COUNTY ROAD 10,QA35C,0.01117027714
IN,NAPPANEE,E VAN BUREN ST,OD31A,0.2658174997
IN,,CR 010 W,SB24D,0.009070555488
IN,MICHIGAN CITY,WASHINGTON ST,GA32B,0.3010044778
IN,,ASH RD,NA28D,0.08348057606
IN,FORT WAYNE,S CALHOUN ST,VI14B,0.5339949171
IN,BRISTOL,FAIRWAY AVE,PA27A,0.03564080842
IN,SOUTH BEND,ALLEY ALY,MB06C,0.3572007745
IN,KENDALLVILLE,GRANADA DR,UD35A,0.01379644197
IN,KENDALLVILLE,GRANADA DR,UD35A,0.01379644197
IN,,EMS B33 A1 LN,QF28A,0.03281495825
IN,FORT WAYNE,MINER ST,VI11C,0.481175118
IN,SOUTH BEND,ALLEY,MB07C,0.2646738473
IN,OSSIAN,YOUNG ST,VK16D,0.09759167373
IN,HEBRON,PARKPLACE DR,DF10B,0.08355318891
IN,GOSHEN,PARKWOOD CT,PC08A,0.1690608738
IN,,W STATE ROAD 120,WA22C,0.02069466296
IN,,E 485 S,TC18D,0.004592762919
IN,PORTAGE,WILLOWCREEK RD,DC23D,0.1474040905
IN,FORT WAYNE,TRADERS XING,VG34D,0.1445237807
IN,,W COUNTY LINE RD,TI25D,0.02755657751
IN,CROWN POINT,W 93RD AVE,CD33A,0.1543083626
IN,CROWN POINT,W 93RD AVE,CD33A,0.1543083626
IN,LIGONIER,E UNION ST,RD27B,0.1285913107
IN,LIGONIER,E UNION ST,RD27B,0.1285913107
IN,HAMMOND,ALLEY,BB31D,0.5341643471
IN,FORT WAYNE,GRISWOLD DR,VH36C,0.2223224011
IN,FORT WAYNE,S CALHOUN ST,VI11B,0.2120597846
IN,FORT WAYNE,S HARRISON ST,VI11D,0.4396829239
IN,,THOMPSON RD,WJ04D,0.007007140264
IN,FORT WAYNE,HANNA ST,VI12A,0.341740288
IN,FORT WAYNE,S WAYNE AVE,VI14A,0.5286820767
IN,FORT WAYNE,BEAVER AVE,VI14A,0.5286820767
IN,HAMMOND,ALLEY,AB24D,0.0482028319
IN,FORT WAYNE,STONEFIELD DR,VH14C,0.05449594578
IN,DECATUR,NUTTMAN AVE,XK34C,0.3232603171
IN,FORT WAYNE,VERMONT AVE,VH36D,0.4274779136
IN,KOKOMO,WEBSTER ST,MP13D,0.1876134576
IN,HUDSON,E RAILROAD ST,WC31C,0.006529105652
IN,,S COUNTY LINE RD,GC07A,0.01656178144
IN,,S COUNTY LINE RD,GC07A,0.01656178144
IN,ROME CITY,PRIVATE DR,TD15A,0.007981362701
IN,ROME CITY,PRIVATE DR,TD15A,0.007981362701
IN,DYER,CALUMET AVE,AD01B,0.2636512163
IN,DYER,CALUMET AVE,AD01B,0.2636512163
IN,HOBART,W 41ST AVE,CC26C,0.2087801041
IN,HOBART,W 41ST AVE,CC26C,0.2087801041
IN,SOUTH BEND,RIDGEDALE RD,MB19B,0.2541389326
IN,HOBART,BRACKEN PKWY,DD05C,0.0561841946
IN,FORT WAYNE,N HARRISON ST,VI02B,0.3538908387
IN,HAMILTON,LANE 201 BALL LK,XC32B,0.004447537214
IN,MUNSTER,SOMERSET DR,BC32C,0.2393198596
IN,,ASH RD,NA16D,0.05094396708
IN,GOSHEN,W WILDEN AVE,PC05C,0.120609948
IN,,ASH RD,NA33B,0.08348057606
IN,,ASH RD,NA33B,0.08348057606
IN,ST. JOHN,W 93RD AVE,BD34A,0.04454798499
IN,ST. JOHN,W 93RD AVE,BD34A,0.04454798499
IN,SCHERERVILLE,PLUM CREEK DR,BD05B,0.2282645528
IN,,EMS B34 LN,QF28A,0.008882972286
IN,FORT WAYNE,GRISWOLD DR,VI01A,0.2223224011
IN,MICHIGAN CITY,OAK ST,GA33A,0.4240348542
IN,,SEQUOIA DR,OB13A,0.128536851
IN,NEW HAVEN,MAUMEE RD,WI09A,0.0208943483
IN,NEW HAVEN,MAUMEE RD,WI09A,0.0208943483
IN,KOKOMO,FOSTER ST,MP01A,0.2768728065
IN,FREEMONT,E 550 N,XA28C,0.01729396103
IN,FREEMONT,E 550 N,XA28C,0.01729396103
IN,FORT WAYNE,LANGWOOD BLVD,WH15A,0.1936403243
IN,GARY,S COUNTY LINE RD,DC04D,0.1107467022
IN,GARY,S COUNTY LINE RD,DC04D,0.1107467022
IN,GARY,S COUNTY LINE RD,DC04D,0.1107467022
IN,SOUTH BEND,PLEASANT ST,MB17A,0.3325124047
IN,,E OLDFIELD DR,QF07C,0.008429141958
IN,,E OLDFIELD DR,QF07C,0.008429141958
IN,GOSHEN,HAMPTON CIR,PC15D,0.2315623865
IN,HAMMOND,ALLEY,AC13A,0.2780951228
IN,HAMMOND,ALLEY,AC13A,0.2780951228
IN,BRISTOL,PAR BLVD,PA27C,0.03564080842
IN,GOSHEN,E LINCOLN AVE,PC09D,0.4976461334
IN,FORT WAYNE,OLIVER ST,VI12D,0.3712211061
IN,,CLEVELAND RD,MA19C,0.2590705555
IN,WINONA LAKE,S OAK DR,PG21B,0.04762798015
IN,WINONA LAKE,S OAK DR,PG21B,0.04762798015
IN,GOSHEN,HARVEST DR,PC17D,0.01909112913
IN,GOSHEN,HARVEST DR,PC17D,0.01909112913
IN,ANGOLA,REDDING RD,WB36A,0.007854290209
IN,ANGOLA,REDDING RD,WB36A,0.007854290209
IN,,COUNTY ROAD 10,QA34D,0.01117027714
IN,FORT WAYNE,PIPER DR,VJ05D,0.00273508411
IN,FORT WAYNE,E MAPLEGROVE AVE,VI24A,0.441740288
IN,PLYMOUTH,OAKHILL AVE,LF08B,0.1307757473
IN,PLYMOUTH,OAKHILL AVE,LF08B,0.1307757473
IN,MILLERSBURG,LARIMER DR,QC34D,0.02748396466
IN,FORT WAYNE,N ANTHONY BLVD,VH36D,0.4274779136
IN,HAMMOND,ALLEY,BC05A,0.1200653516
IN,,HARTER DR,QA14C,0.007575940942
IN,,LIBERTY MILLS RD,UI19C,0.02755657751
IN,,LIBERTY MILLS RD,UI19C,0.02755657751
IN,FORT WAYNE,BROADWAY,VI02C,0.1954980031
IN,BURLINGTON,MICHIGAN ST,KO34D,0.002777441607
IN,HAMMOND,CALUMET AVE,AC01D,0.5498184679
IN,,COUNTY ROAD 40,OC27C,0.009475977248
IN,AUBURN,SUPERIOR DR,WE28C,0.1052402275
IN,PLYMOUTH,N MICHIGAN ST,LE32B,0.03060631732
IN,KOKOMO,ALTO RD,MP13A,0.1876134576
IN,KOKOMO,ALTO RD,MP13A,0.1876134576
IN,,SAGEWOOD DR,MA35B,0.02650369115
IN,FORT WAYNE,FULTON ST,VI02C,0.1605470168
IN,KOKOMO,SANTA FE BLVD,MO34C,0.1295171245
IN,GOSHEN,S 8TH ST,PC10C,0.4976461334
IN,,TUMBLEWEED BLVD,WH04B,0.08658477551
IN,SOUTH BEND,SANDLEWOOD DR,LA21B,0.01286457703
IN,SOUTH BEND,SANDLEWOOD DR,LA21B,0.01286457703
IN,,COUNTY ROAD 42,PC35D,0.04177659446
IN,GOSHEN,EISENHOWER DR N,PC23D,0.01457703013
IN,SOUTH BEND,ALLEY,MB08C,0.3997882125
IN,,W 725 N,HM34C,0.00896163621
IN,BRISTOL,MAPLE ST,PA27B,0.03564080842
IN,BRISTOL,ALLEY,PA27B,0.03564080842
IN,SOUTH BEND,ALLEY,LA35C,0.3992073097
IN,KOKOMO,LOCKE ST,NO30C,0.157067651
IN,SOUTH BEND,N LOGAN ST,MB08D,0.4304308363
IN,SOUTH BEND,N LOGAN ST,MB08D,0.4304308363
IN,MICHIGAN CITY,ALLEY,GA32A,0.248547743
IN,MICHIGAN CITY,OAK ST,GA28C,0.4240348542
IN,BRISTOL,EAGLE BLVD,PA27C,0.03564080842
IN,SCHERERVILLE,CLINE AVE,BD15B,0.2442393804
IN,,COUNTY ROAD 4,QA14D,0.01099479608
IN,KOKOMO,WASHINGTON ST,MO24B,0.2420488927
IN,KOKOMO,WASHINGTON ST,MO24B,0.2420488927
IN,KOKOMO,GANO,NO19C,0.2420488927
IN,ANGOLA,N STATE ROAD 127,WB11C,0.002686675542
IN,ANGOLA,N STATE ROAD 127,WB11C,0.002686675542
IN,PORTER,DUNE MEADOWS DR,EB26B,0.01773568922
IN,GRIFFITH,COLFAX ST,BC23D,0.2340796321
IN,GRIFFITH,COLFAX ST,BC23D,0.2340796321
IN,FORT WAYNE,E COLISEUM BLVD,WI05B,0.2326878858
IN,MICHIGAN CITY,HOLLIDAY ST,GA28D,0.2322885151
IN,ELKHART,PLEASANT PLAIN AVE,OB21B,0.1370628101
IN,ELKHART,PLEASANT PLAIN AVE,OB21B,0.1370628101
IN,SOUTH BEND,LILAC RD,LA22D,0.2307031345
IN,SOUTH BEND,LILAC RD,LA22D,0.2307031345
IN,MIDDLEBURY,GREENFIELD DR,QB10C,0.03271209004
IN,,BLUFF CREST DR,OB14B,0.128536851
IN,WAKARUSA,UNKNOWN,NC26D,0.02215902215
IN,FORT WAYNE,INDIANA AVE,VI14A,0.5286820767
IN,WINONA LAKE,WESTERN DR,PG22C,0.09753116302
IN,SOUTH BEND,ELWOOD AVE,LA33D,0.2173907782
IN,GOSHEN,SUNDOWN LN,PC27C,0.04177659446
IN,TOPEKA,SHERIDAN DR,RC36A,0.009542539029
IN,,E STATE ROAD 120,RA23C,0.005748517488
IN,SOUTH BEND,S MAIN ST,LB13A,0.2071100085
IN,,E 450 N,PF22B,0.02882730243
IN,ELKHART,COUNTY ROAD 14,OB12B,0.02756262859
IN,FORT WAYNE,DEER LODGE DR,VG32A,0.164909839
IN,PORTAGE,PAN AM BLVD,EC19C,0.1040179112
IN,SOUTH BEND,ST VINCENT ST,LB01B,0.3060934285
IN,,KETILL TRACE,DE03B,0.01455282585
IN,MISHAWAKA,DRAGOON TRL,MB22C,0.1897252814
IN,MISHAWAKA,DRAGOON TRL,MB22C,0.1897252814
IN,FORT WAYNE,KENTUCKY AVE,VH36D,0.4274779136
IN,LEO-CEDARVILLE,GRABILL RD,WG23A,0.01897615878
IN,LEO-CEDARVILLE,GRABILL RD,WG23A,0.01897615878
IN,GARY,N MONTGOMERY ST,DB32A,0.1834079632
IN,GARY,W 39TH AVE,CC28B,0.2727943846
IN,SOUTH BEND,W NORTH SHORE DR,LB02B,0.2836681593
IN,CROWN POINT,MADISON ST,CE09B,0.1747549316
IN,KOKOMO,BAGLEY DR,MP11D,0.1761345758
IN,,HARTER DR,QA14D,0.007575940942
IN,,W US HWY 6,GD01A,0.002626164831
IN,,NIPSCO RD,KK06A,0.001355439913
IN,,NIPSCO RD,KK06A,0.001355439913
IN,,STATE ROAD 120,QA26B,0.01117027714
IN,GARY,W 40TH AVE,CC28A,0.2727943846
IN,GARY,W 40TH AVE,CC28A,0.2727943846
IN,FORT WAYNE,MONET DR,VG34B,0.16644076
IN,FORT WAYNE,BLUFFTON RD,VI34C,0.1660413893
IN,,COUNTY ROAD 420 N,TA33C,0.003709306547
IN,,GLENWOOD DR,JC20A,0.02286094639
IN,,COUNTY ROAD 22,PB25B,0.01919399734
IN,SOUTH BEND,E JEFFERSON BLVD,MB08A,0.3913167131
IN,VALPARAISO,VALE PARK RD,ED11D,0.158429142
IN,AUBURN,COUNTY ROAD 48,WF05A,0.06550889507
IN,KOKOMO,300 RD S,MP13D,0.1674210335
IN,KOKOMO,300 RD S,MP13D,0.1674210335
IN,COLUMBIA CITY,N MAIN ST,SH02C,0.2996429868
IN,WARSAW,E CENTER ST,PG10D,0.04359191577
IN,ROSELAND,LILY RD,LA24C,0.1125559724
IN,ROSELAND,LILY RD,LA24C,0.1125559724
IN,FORT WAYNE,GRIER ST,VI13D,0.4947900278
IN,EAST CHICAGO,ALLEY ALY,BB28D,0.1714449958
IN,MICHIGAN CITY,E BARKER AVE,GA33B,0.2806970834
IN,NEW HAVEN,SHERIDAN RD,WI09C,0.0484327726
IN,,CAMPBELL ST,ED01A,0.130406632
IN,,CAMPBELL ST,ED01A,0.130406632
IN,WARSAW,N BUFFALO ST,PG08C,0.2444753721
IN,FORT WAYNE,FAIRFIELD AVE,VI14A,0.481175118
IN,SCHERERVILLE,BURR ST,BD13B,0.1256928476
IN,SCHERERVILLE,BURR ST,BD13B,0.1256928476
IN,FORT WAYNE,BLUFFTON RD,VI33D,0.1237928113
IN,FORT WAYNE,LILLIE ST,VI13B,0.4586711848
IN,,S 600 W,SB31C,0.005724313203
IN,ELKHART,MODRELL BLVD,OA32B,0.2189761588
IN,ELKHART,MODRELL BLVD,OA32B,0.2189761588
IN,,CARROLL RD,VG29D,0.1173907782
IN,HOBART,BEACON DR,DC32C,0.2180079874
IN,,S SOUTH HILL DR,OH25D,0.002123925935
IN,AUBURN,20TH ST,WE31D,0.3109100811
IN,FORT WAYNE,FAIRFIELD AVE,VI11C,0.481175118
IN,HOBART,HIGH ST,DC29D,0.1583020695
IN,AUBURN,PORTAGE PASS,WE28B,0.1052402275
IN,SOUTH BEND,MOSS RD,LA32D,0.1047077333
IN,,ARDMORE TRL,LB05B,0.1047077333
IN,SOUTH BEND,MOSS RD,LA32D,0.1047077333
IN,GOSHEN,COUNTY ROAD 19,PC18B,0.01909112913
IN,GOSHEN,COUNTY ROAD 19,PC18B,0.01909112913
IN,HIGHLAND,MARTHA ST,BC29B,0.3223405543
IN,GOSHEN,APPLEBLOSSOM LN,PC21D,0.01909112913
IN,FORT WAYNE,COLD SPRINGS BLVD,VH11D,0.1975009077
IN,,US HIGHWAY 20,KA27C,0.01246520634
IN,PORTAGE,COUNTY LINE RD,DC21D,0.1955524628
IN,FORT WAYNE,WRANGLER TRL,WH16B,0.1936403243
IN,PORTAGE,VALLEYVIEW AVE,DC12B,0.1920125862
IN,FORT WAYNE,REED RD,WH32D,0.2326878858
IN,ROANOKE,ROANOKE RD,TJ14A,0.006613820646
IN,ROANOKE,ROANOKE RD,TJ14A,0.006613820646
IN,GARY,MELTON RD,DC04C,0.06158780104
IN,,WATSON RD,JD36D,0.003648795837
IN,GARY,UNKNOWN,CC27A,0.3159022147
IN,,E 480 S,UC16D,0.005149461455
IN,,N BARBEE RD,QF28B,0.03281495825
IN,MISHAWAKA,GRAPE RD,MA21C,0.08119932228
IN,MISHAWAKA,GRAPE RD,MA21C,0.08119932228
IN,,E 430 S,UC16B,0.005149461455
IN,WARSAW,S BUFFALO ST,PG08C,0.2444753721
IN,KOKOMO,SYCAMORE RD,MO35B,0.3096696115
IN,,E 500 S,UC16D,0.005149461455
IN,AUBURN,S GRANDSTAFF DR,WE31C,0.06550889507
IN,HIGHLAND,ALLEY,BC21C,0.3369417887
IN,HUNTERTOWN,W CEDAR CANYONS RD,VG17A,0.05987534794
IN,,BIG VALLEY CT,VG09B,0.05987534794
IN,HUNTERTOWN,W CEDAR CANYONS RD,VG17A,0.05987534794
IN,AUBURN,AUBURN DR,WE33C,0.1550405422
IN,AUBURN,AUBURN DR,WE33C,0.1550405422
IN,,STATE ROAD 19,OA17D,0.09014885635
IN,HOBART,S COUNTY LINE RD,DD04B,0.0561841946
IN,FORT WAYNE,W WASHINGTON CENTER RD,VH15D,0.05449594578
IN,SOUTH BEND,S TWYCKENHAM DR,MB07A,0.2646738473
IN,,ASH RD,NA16B,0.05094396708
IN,SCHERERVILLE,BURR ST,BD12D,0.04888660293
IN,SCHERERVILLE,BURR ST,BD12D,0.04888660293
IN,BRISTOL,W SAINT JOSEPH ST,PA27B,0.03564080842
IN,BRISTOL,ELM ST,PA27B,0.03564080842
IN,BRISTOL,E VISTULA ST,PA27B,0.03564080842
IN,BRISTOL,W MICHIGAN ST,PA27B,0.03564080842
IN,,ASH RD,NB09D,0.1104380975
IN,,WHISPERING HILLS DR,LB35C,0.04660534915
IN,SOUTH BEND,LINDEN RD,LB27D,0.04660534915
IN,SOUTH BEND,LINDEN RD,LB27D,0.04660534915
IN,CEDAR LAKE,RAVEN WAY,BE22B,0.04454798499
IN,MISHAWAKA,E 4TH ST,MB14B,0.1393743193
IN,GARY,W 21ST PL,CC16A,0.3744644802
IN,WARSAW,COMMERCE DR,PG14A,0.04359191577
IN,WARSAW,COMMERCE DR,PG14A,0.04359191577
IN,FORT WAYNE,MERLIN DR,VH17C,0.04331961757
IN,ELKHART,COUNTY ROAD 6,NA25B,0.03968897495
IN,ELKHART,COUNTY ROAD 6,NA25B,0.03968897495
IN,EAST CHICAGO,ALLEY ALY,BB32B,0.5770180322
IN,FORT WAYNE,BEACON ST,WH31D,0.2672213482
IN,ELKHART,SILVER ST,OA32A,0.184926782
IN,ELKHART,SILVER ST,OA32A,0.184926782
IN,SOUTH BEND,E IRELAND RD,MB30D,0.1843821856
IN,SOUTH BEND,E IRELAND RD,MB30D,0.1843821856
IN,GARY,ALLEY,CC34C,0.2433740772
IN,FORT WAYNE,OLD TRAIL RD,VI28B,0.1654241801
IN,,N 850 E,QF14D,0.01253176812
IN,MISHAWAKA,DIVISION ST,MB03C,0.1793961031
IN,MISHAWAKA,DIVISION ST,MB03C,0.1793961031
IN,GOSHEN,E LINCOLN AVE,PC10A,0.01888539271
IN,,BULLA RD,MA32A,0.237819194
IN,,S COUNTY ROAD 1100 E,MN34D,0.03027955948
IN,,S COUNTY ROAD 1100 E,MN34D,0.03027955948
IN,HAMMOND,HOWARD AVE,BC07A,0.3336258018
IN,NEW CARLISLE,ALLEY,JA34B,0.1216930897
IN,,W COUNTY LINE RD S,TI36D,0.02755657751
IN,LAPORTE,OHIO ST,HB36D,0.3677538424
IN,FORT WAYNE,HICKORY TREE RD,VG33C,0.1173907782
IN,,N 300 W,WA29D,0.03101173908
IN,,S STATE ROAD 327,VC32C,0.004338617935
IN,,E 400 N,QF22D,0.01638630038
IN,LIGONIER,STATE HWY 5,RD22B,0.02819193997
IN,LIGONIER,STATE HWY 5,RD22B,0.02819193997
IN,,GRAND WILLOW BLVD,VG17B,0.05987534794
IN,,S WOOD SAGE ST,PA32C,0.02450078664
IN,AVILLA,E ALBION ST,UE27D,0.01444995764
IN,,S 890 E,UC16B,0.005149461455
IN,AUBURN,VIRGINIA LN,WE28B,0.1052402275
IN,AUBURN,VIRGINIA LN,WE28B,0.1052402275
IN,VALPARAISO,BEECH ST,FD19B,0.2621626528
IN,PORTAGE,UNKNOWN,EC19C,0.1040179112
IN,MISHAWAKA,UNIVERSITY DR,MA28B,0.1004840857
IN,,COUNTY LINE RD,GC06A,0.008465448384
IN,FORT WAYNE,COLDWATER RD,VH12C,0.209451773
IN,KENDALLVILLE,GARDEN ST,UE04B,0.2069768849
IN,SOUTH BEND,FINCH DR,LB36B,0.0961757231
IN,,N 1200 E,VA30A,0.004562507564
IN,HAMMOND,ALLEY,AC12C,0.3920609948
IN,SOUTH WHITLEY,UNNAMED ST,RI03C,0.04610311025
IN,GOSHEN,N MAIN ST,PC04B,0.120609948
IN,GOSHEN,N MAIN ST,PC04B,0.120609948
IN,ANGOLA,WILLIAMS ST,WB26B,0.2700774537
IN,,N 600 E,TA25B,0.002190487716
IN,SOUTH BEND,LINCOLN WAY E,MB18A,0.32785308
IN,,E 125 N,TB18D,0.007557787728
IN,FORT WAYNE,MAPLE CREST RD,WH15A,0.1936403243
IN,,N 600 W,RA13D,0.005748517488
IN,SCHERERVILLE,HARVEST DR,BD23B,0.1899370689
IN,FORT WAYNE,COVINGTON RD,VI16B,0.1312961394
IN,KOKOMO,JAMES DR,MP12A,0.1876134576
IN,FORT WAYNE,SPRING ST,VI03B,0.3762434951
IN,FORT WAYNE,E PONTIAC ST,VI12D,0.4834866271
IN,MERRILLVILLE,BROADWAY,CD28B,0.03043688733
IN,CROWN POINT,STILLWATER PKWY,CE16D,0.01740288031
IN,ELKHART,GRANT ST,OA33C,0.2105833232
IN,ELKHART,PENNSYLVANIA AVE,NB12B,0.1829843882
IN,ELKHART,PENNSYLVANIA AVE,NB12B,0.1829843882
IN,,US HIGHWAY 27 S,XL15A,0.0254084473
IN,DYER,GREAT LAKES DR,BD18A,0.1786881278
IN,DYER,KNIGHTHOOD DR,BD18D,0.1786881278
IN,HAMMOND,ALLEY,BB06C,0.6181350599
IN,MISHAWAKA,INDIAN RIDGE BLVD,MA28D,0.1764008229
IN,,CLEVELAND RD,LA24D,0.1188732906
IN,FORT WAYNE,WINNSBORO PASS,VG32D,0.1173907782
IN,FORT WAYNE,WINNSBORO PASS,VG32D,0.1173907782
IN,,SANDY HILL LN,LA16B,0.06260438098
IN,FORT WAYNE,FOX ORCHARD RUN,VH11A,0.1130037517
IN,LAPORTE,PINE LAKE AVE,HB27D,0.1492799225
IN,MISHAWAKA,ALLEY,MB09D,0.4304308363
IN,WATERLOO,COUNTY ROAD 31,WE05B,0.04111097664
IN,WATERLOO,COUNTY ROAD 31,WE05B,0.04111097664
IN,HIGHLAND,SANDALWOOD DR,BC22D,0.1622050103
IN,ELKHART,PLUM ST,OB06B,0.4523417645
IN,FORT WAYNE,E WASHINGTON BLVD,WI06C,0.1605107104
IN,KOKOMO,LORDEMAN ST,MO25B,0.2495401186
IN,,N 100 E,TA31D,0.008193150188
IN,SOUTH BEND,UNKNOWN,MB07C,0.2623986446
IN,ELKHART,OSOLO RD,OA33B,0.219417887
IN,HOBART,LIVERPOOL RD,CC25A,0.1524325306
IN,GOSHEN,S 11TH ST,PC10C,0.1805700109
IN,GOSHEN,S COTTAGE AVE,PC16B,0.4976461334
IN,,W CRYSTAL LAKE RD,OG11D,0.01269514704
IN,,W CRYSTAL LAKE RD,OG11D,0.01269514704
IN,ELKHART,COUNTY ROAD 6,OA30A,0.04299285974
IN,ELKHART,MISHAWAKA ST,OA31C,0.04299285974
IN,GARY,W 13TH AVE,CC09B,0.466186615
IN,FORT WAYNE,WESTMORE DR,VG35C,0.1445237807
IN,FORT WAYNE,BAXTER ST,VI13C,0.4643712937
IN,WARSAW,E WINONA AVE,PG08C,0.1718625197
IN,FORT WAYNE,UNKNOWN,VI14B,0.5339949171
IN,,WILLOWBEND BLVD,PB04C,0.02114244221
IN,HAMMOND,ALLEY,BB07C,0.6287183832
IN,FORT WAYNE,N ANTHONY BLVD,VH36B,0.4161987172
IN,,N 100 E,PF22C,0.02882730243
IN,FORT WAYNE,CRESCENT AVE,WH30B,0.02656420186
IN,SOUTH BEND,WALL ST,MB08D,0.4304308363
IN,,SWANSON DR,MA20A,0.1261103715
IN,VALPARAISO,N STATE ROAD 2,FD20D,0.02185646859
IN,VALPARAISO,N STATE ROAD 2,FD20D,0.02185646859
IN,MICHIGAN CITY,WABASH ST,GA29A,0.248547743
IN,FORT WAYNE,LEXINGTON AVE,VI14C,0.4661321554
IN,,COUNTY ROAD 900 E,UC16B,0.005149461455
IN,FORT WAYNE,E LEITH ST,VI14B,0.5339949171
IN,FORT WAYNE,TAYLOR ST,VI09D,0.06839525596
IN,NEW CHICAGO,INDIANA ST,DC19C,0.2457521481
IN,NEW CHICAGO,INDIANA ST,DC19C,0.2457521481
IN,FREEMONT,COLDWATER ST,XA20D,0.01729396103
IN,,UNKNOWN,PG28D,0.01567832506
IN,SOUTH BEND,S WALNUT ST,LB14C,0.2406934527
IN,,E STATE HWY 120,UA30C,0.002190487716
IN,MISHAWAKA,ROOSEVELT AVE,MB14B,0.2388902336
IN,SOUTH BEND,JEWELL AVE,LB35B,0.04660534915
IN,SOUTH BEND,JEWELL AVE,LB35B,0.04660534915
IN,GARY,N COUNTY LINE RD,DB33B,0.2321735447
IN,ELKHART,PRIVATE RD,OA28D,0.1668219775
IN,,LAFAYETTE CENTER RD,UJ15C,0.00750937916
IN,FORT WAYNE,S ANTHONY BLVD,VI24B,0.3838073339
IN,SCHERERVILLE,DEER CREEK DR,BD08C,0.1068074549
IN,GOSHEN,WOODLAWN DR,PC28B,0.01909112913
IN,,COUNTY ROAD 40,WE21D,0.1052402275
IN,,W 600 N,OF09D,0.003951349389
IN,PORTAGE,MCCOOL RD,EC17C,0.1040179112
IN,,UNNAMED STREET,HK21C,0.007091855258
IN,,UNNAMED STREET,HK21C,0.007091855258
IN,WATERLOO,MILL ST,WE03A,0.06202952923
IN,MERRILLVILLE,E 61ST AVE,CD10A,0.09901972649
IN,FORT WAYNE,BARR ST,VI11B,0.1869417887
IN,FORT WAYNE,WEBSTER ST,VI11D,0.4396829239
IN,FORT WAYNE,SINCLAIR ST,VI03B,0.4661503086
IN,SOUTH BEND,JACKSON RD,LB25D,0.0961757231
IN,SOUTH BEND,JACKSON RD,LB25D,0.0961757231
IN,,EMS B74 LN,QF28B,0.008882972286
IN,GARRETT,W QUINCY ST,VF04A,0.007503328089
IN,GARRETT,W QUINCY ST,VF04A,0.007503328089
IN,,COUNTY ROAD 500 E,TC26D,0.007878494494
IN,WINONA LAKE,BUNTING LN,PG14D,0.006159990318
IN,PORTAGE,WILLOWCREEK RD,DC11D,0.1472407116
IN,ELKHART,STRONG AVE,OB06D,0.4523417645
IN,LAPORTE,SAGAMORE PKWY,HC06A,0.04471136391
IN,HOBART,E LINCOLN HWY,CD23B,0.03556819557
IN,GOSHEN,N GREENE RD,PC05C,0.1729819678
IN,NAPPANEE,REED ST,ND36D,0.04849328331
IN,ELKHART,CASSOPOLIS ST,OA32D,0.184926782
IN,GARY,RAMP,CC11D,0.03295413288
IN,,CR 050 RD W,SB24D,0.009070555488
IN,CROWN POINT,CENTER ROSS RD,CE04B,0.08148977369
IN,,4TH ST,TA30C,0.008193150188
IN,,DUNKELBERG RD,VJ02A,0.08009197628
IN,,DUNKELBERG RD,VJ02A,0.08009197628
IN,,BITTERSWEET RD,NB07A,0.2000423575
IN,MISHAWAKA,E JEFFERSON BLVD,MB10A,0.1793961031
IN,SOUTH BEND,BOLAND DR,LA28B,0.01286457703
IN,,PRIVATE DR,UC33C,0.005155512526
IN,,STATE HWY 3,UC33C,0.005155512526
IN,FORT WAYNE,ONEIDA ST,VI01A,0.472231635
IN,PORTAGE,TULIP AVE,DC22A,0.1955524628
IN,AUBURN,WESLEY RD,WE28C,0.1952075517
IN,FORT WAYNE,SANDPOINT RD,VI21C,0.1311085562
IN,LOWELL,WILLOW ST,BF27B,0.07164468111
IN,MONROEVILLE,MCARDLE RD,YJ18C,0.07106377829
IN,,S TAYLOR RD,JC18B,0.004707733269
IN,,E DUPONT RD,WH04B,0.06998668764
IN,,N 400 W,WB07D,0.0184920731
IN,SOUTH BEND,IRONWOOD RD,MA31D,0.237819194
IN,SOUTH BEND,IRONWOOD RD,MA31D,0.237819194
IN,,E 450 N,PF23A,0.008429141958
IN,SOUTH BEND,S 28TH ST,MB17A,0.3325124047
IN,AUBURN,PHILLIP ST,WE31D,0.06550889507
IN,GOSHEN,JOHNSTON ST,PC04D,0.120609948
IN,GARY,MAPLE AVE,DB33B,0.2321735447
IN,EAST CHICAGO,E 140TH ST,BB22D,1
IN,SCHERERVILLE,W US HIGHWAY 30,BD17A,0.17734479
IN,FORT WAYNE,N CLINTON ST,VH26D,0.246333051
IN,KOKOMO,WHITEHOUSE DR,MP11C,0.1761345758
IN,SOUTH BEND,W EWING AVE,LB23A,0.3211363911
IN,ASHLEY,H L THOMPSON DR,WD05A,0.006529105652
IN,BLUFFTON,W SOUTH ST,VM04A,0.2683892049
IN,GOSHEN,N 9TH ST,PC10A,0.3548711122
IN,,TOWER RD,ED33C,0.05537940215
IN,WAKARUSA,COUNTY ROAD 40,OC30C,0.004689580056
IN,WAKARUSA,COUNTY ROAD 40,OC30C,0.004689580056
IN,GOSHEN,alley ALY,PC10B,0.01888539271
IN,ELKHART,E JACKSON BLVD,OB02A,0.177598935
IN,ELKHART,E JACKSON BLVD,OB02A,0.177598935
IN,,MONTCLAIR DR,UI01C,0.1684739199
IN,MIDDLEBURY,US HIGHWAY 20,QB16B,0.03271209004
IN,FORT WAYNE,RIVER RUN TRL,WH19A,0.2352474888
IN,,STILL HOLLOW RUN,VG31D,0.164909839
IN,FORT WAYNE,HAMILTON AVE,VI13C,0.4643712937
IN,CHESTERTON,N MERIDIAN RD,EC12A,0.1642079148
IN,CHESTERTON,N MERIDIAN RD,EC12A,0.1642079148
IN,CHESTERTON,W 1100 N,EC12A,0.1642079148
IN,MICHIGAN CITY,HOLLIDAY ST,GA27C,0.2322885151
IN,GARY,OAK AVE,DB33B,0.2321735447
IN,SOUTH BEND,LINDEN AVE,LB02C,0.2404756142
IN,HIGHLAND,38TH ST,BC27B,0.1622050103
IN,MISHAWAKA,DELAWARE ST,MB17C,0.4284823914
IN,MISHAWAKA,DELAWARE ST,MB17C,0.4284823914
IN,,SHADY LANE DR,TB18D,0.007557787728
IN,,E ARMSTRONG RD,QF20A,0.02543265158
IN,ELKHART,S MICHIGAN ST,OB06D,0.227338739
IN,WOLCOTTVILLE,JAMES ST,TD03A,0.007981362701
IN,GOSHEN,REGENT ST,PC27C,0.04177659446
IN,GOSHEN,REGENT ST,PC27C,0.04177659446
IN,,COUNTY ROAD 44,QD06D,0.006329420307
IN,,E 430 S,UC15B,0.005149461455
IN,,ADAMS RD,MA08C,0.09415466538
IN,,LANE 840 SNOW LK,WA22C,0.02069466296
IN,SCHERERVILLE,72ND AVE,BD13B,0.04888660293
IN,SCHERERVILLE,72ND AVE,BD13B,0.04888660293
IN,,PRIVATE RD,PF25C,0.01516398403
IN,SYRACUSE,INWOOD CIR,QE08B,0.01984751301
IN,LAKE STATION,ALLEY,CC23D,0.1524325306
IN,,N 775 E,UB05D,0.002069466296
IN,,PRIVATE DR,UB09A,0.002069466296
IN,COLUMBIA CITY,S LINE ST,SH11C,0.1506232603
IN,,W COUNTY LINE RD S,TI13D,0.03554399129
IN,FORT WAYNE,E SUTTENFIELD ST,VI11D,0.4396829239
IN,FORT WAYNE,LELAND ST,VI10D,0.4356105531
IN,MIDDLEBURY,REDBUD LN,QB15A,0.03271209004
IN,BLUFFTON,W DUSTMAN RD,VL33A,0.03259711969
IN,BLUFFTON,W DUSTMAN RD,VL33A,0.03259711969
IN,MISHAWAKA,STATE ROAD 23,MA28A,0.1470591795
IN,MISHAWAKA,STATE ROAD 23,MA28A,0.1470591795
IN,DYER,BRIARWOOD DR,BD06A,0.2636512163
IN,FORT WAYNE,VALDOSTA DR,VH12C,0.209451773
IN,FORT WAYNE,BARR ST,VI11D,0.3701379644
IN,FORT WAYNE,LEO RD,WH05D,0.1406208399
IN,FORT WAYNE,LEO RD,WH05D,0.1406208399
IN,,EMS B61 LN,QF28B,0.008882972286
IN,,US HWY 31,MP25D,0.02542660051
IN,,US HWY 31,MP25D,0.02542660051
IN,,US HWY 31,MP25D,0.02542660051
IN,,US HWY 31,MP25D,0.02542660051
IN,MICHIGAN CITY,BUTLER ST,GA33B,0.2806970834
IN,ROSELAND,UNKNOWN,LA25C,0.06236233813
IN,,LARWICK CIR,ED33C,0.05537940215
IN,,LARWICK CIR,ED33C,0.05537940215
IN,,E WILDWOOD DR,SH01A,0.01567227399
IN,,E WILDWOOD DR,SH01A,0.01567227399
IN,FORT WAYNE,HANNA ST,VI13C,0.4643712937
IN,FORT WAYNE,E STATE BLVD,VH36C,0.4173605228
IN,KENDALLVILLE,RILEY RD,UD28D,0.01379644197
IN,KENDALLVILLE,RILEY RD,UD28D,0.01379644197
IN,LAPORTE,B ST,HC02B,0.3845153092
IN,SOUTH BEND,MISHAWAKA AVE,MB07C,0.2646738473
IN,MISHAWAKA,FIR RD,MB22D,0.1897252814
IN,MISHAWAKA,S MERRIFIELD AVE,MB22B,0.1897252814
IN,WARSAW,WINONA AVE,PG16B,0.2623683892
IN,WARSAW,WINONA AVE,PG16B,0.2623683892
IN,MISHAWAKA,N MERRIFIELD AVE,MB10D,0.2619327121
IN,MISHAWAKA,JOSEPH ST,MB10D,0.2619327121
IN,NEW CARLISLE,BRAY ST,JA34B,0.1216930897
IN,KOKOMO,ELK DR,MP12C,0.1876134576
IN,KOKOMO,ALTO RD,MP13B,0.1876134576
IN,MUNSTER,WHITE OAK AVE,BC31D,0.1214510468
IN,FORT WAYNE,SENATE AVE,VI24A,0.441740288
IN,FORT WAYNE,SMITH RD,VI17C,0.009076606559
IN,FORT WAYNE,SMITH RD,VI17C,0.009076606559
IN,,W 100 N,RB24B,0.008967687281
IN,GOSHEN,MICHIGAN AVE,PC04C,0.120609948
IN,,E OLDFIELD DR,PF12D,0.008429141958
IN,,COUNTY ROAD 117,PB18A,0.008386784461
IN,GARY,GRANT ST,CC08B,0.1861309452
IN,,US HWY 231,EG31C,0.007061599903
IN,FORT WAYNE,NEW HAVEN AVE,WI08A,0.05912501513
IN,,S RABER RD,SH13D,0.00588164105
IN,FORT WAYNE,W STATE BLVD,VH33D,0.3135967566
IN,CEDAR LAKE,W 137TH AVE,BE27A,0.11661019
IN,VALPARAISO,VALPARAISO ST,ED24C,0.2601294929
IN,WABASH,W DIVISION RD,PL03A,0.003691153334
IN,WABASH,W DIVISION RD,PL03A,0.003691153334
IN,,W COUNTY LINE RD,KD31A,0.003648795837
IN,,COUNTY HWY 450 N,HB12B,0.009439670822
IN,,COUNTY HWY 450 N,HB12B,0.009439670822
IN,FORT WAYNE,STELLHORN RD,WH21D,0.2062689096
IN,BURLINGTON,JACKSON ST,KO34D,0.002777441607
IN,BURLINGTON,5TH ST,KO34D,0.002777441607
IN,,S 150 E,SI01A,0.002729033039
IN,,S 150 E,SI01A,0.002729033039
IN,SOUTH BEND,LAUREL RD,LA14C,0.1791722135
IN,,ANN ST,GG20D,0.002027108798
IN,,DARDEN RD,LA24B,0.177598935
IN,FORT WAYNE,VANCE AVE,WH28D,0.2481483723
IN,,ASHLEY DR,NA16B,0.05094396708
IN,,S 325 E,PG13C,0.009185525838
IN,AUBURN,COUNTY ROAD 35,WE28B,0.1052402275
IN,,1ST ST,OG25C,0.01773568922
IN,,COUNTY ROAD 68,XF28C,0.003334140143
IN,,DOGWOOD RD,MB01D,0.04775505264
IN,LOGANSPORT,15TH ST,LL30C,0.4544717415
IN,,COLLEGE POINT PATH,PC21C,0.01909112913
IN,FORT WAYNE,W WALLEN RD,VH02C,0.1130037517
IN,MISHAWAKA,GUMWOOD RD,MA28B,0.1004840857
IN,KINGSFORD HEIGHTS,HAMILTON RD,ID18D,0.09975795716
IN,VALPARAISO,THORNAPPLE WAY,ED26A,0.09543144137
IN,VALPARAISO,THORNAPPLE WAY,ED26A,0.09543144137
IN,FORT WAYNE,MARGARET AVE,VH34D,0.3762434951
IN,SYRACUSE,N SYRACUSE WEBSTER RD,QE07B,0.01233208278
IN,SYRACUSE,N SYRACUSE WEBSTER RD,QE07B,0.01233208278
IN,MERRILLVILLE,LOUISIANA ST,CD27D,0.03556819557
IN,VALPARAISO,CHICAGO ST,FD19B,0.2621626528
IN,KOKOMO,NORTH ST,MO26B,0.2819193997
IN,TOPEKA,E PINE ST,SC31A,0.009542539029
IN,SOUTH BEND,STRIPED MAPLE CT,LA27A,0.4013917463
IN,SCHERERVILLE,PINE ISLAND DR,BD24D,0.3073096938
IN,DYER,HOWARD CASTLE DR,BD18D,0.1786881278
IN,SOUTH BEND,PRAIRIE AVE,LB15D,0.3394590342
IN,ST. JOHN,HEDWIG DR,BD32D,0.08807333898
IN,,DRAKES BAY RUN,WH13C,0.08666343943
IN,,MILL ST,UC32D,0.005155512526
IN,GALVESTON,SYCAMORE ST,MN33B,0.03027955948
IN,HAMMOND,UNKNOWN,BC18A,0.4609463875
IN,FORT WAYNE,PARNELL AVE,VH36A,0.226231393
IN,CHESTERTON,SNEAD AVE,FC06D,0.04382185647
IN,CHESTERTON,SNEAD AVE,FC06D,0.04382185647
IN,,DUNKELBERG RD,VJ02B,0.08009197628
IN,,DUNKELBERG RD,VJ02B,0.08009197628
IN,FORT WAYNE,ALLEY ALY,VI02C,0.1954980031
IN,GOSHEN,S SILVERWOOD LN,PC08C,0.1389931018
IN,,EMS T5 LN,QF16C,0.02543265158
IN,FORT WAYNE,MECHANIC ST,VI03D,0.09609705918
IN,FORT WAYNE,ALLEY ALY,VI02A,0.5296986567
IN,WABASH,ALLEY,PL10D,0.1357920852
IN,NAPPANEE,PARK DR,ND36B,0.2044475372
IN,GARY,W 24TH AVE,CC17B,0.3744644802
IN,FORT WAYNE,SANDPOINT RD,VI21B,0.1311085562
IN,MISHAWAKA,BITTERSWEET RD,NB07C,0.2000423575
IN,MISHAWAKA,BITTERSWEET RD,NB07C,0.2000423575
IN,,SANDYBROOK DR,LA15A,0.06260438098
IN,MISHAWAKA,NORMANDY DR,MB04D,0.36593247
IN,GARY,E 5TH AVE,DC04B,0.06158780104
IN,SOUTH BEND,MARINE ST,MB19A,0.361497035
IN,SOUTH BEND,W CALVERT ST,LB16D,0.05842914196
IN,LIGONIER,W NORTHWOOD ST,RD22A,0.02819193997
IN,MISHAWAKA,DRAGOON TRL,MB22D,0.1897252814
IN,MISHAWAKA,DRAGOON TRL,MB22D,0.1897252814
IN,,CROWNHILL DR,MA19B,0.1188732906
IN,FORT WAYNE,OLD TRAIL RD,VI28D,0.1654241801
IN,SOUTH BEND,W BROADWAY ST,LB13A,0.1867360523
IN,OCEOLA,PRICE ST,NB08C,0.163203437
IN,SOUTH BEND,AUTEN RD,LA14B,0.05406026867
IN,SOUTH BEND,AUTEN RD,LA14B,0.05406026867
IN,GARY,UNKNOWN,CC22C,0.3159022147
IN,SOUTH BEND,THORNHILL DR,MB30D,0.1843821856
IN,,LANE 273 LAKE JAMES,WB10A,0.02380491347
IN,LAPORTE,LAKE ST,HB35C,0.1573399492
IN,WARSAW,E 250 N,PF32B,0.02882730243
IN,WARSAW,E 250 N,PF32B,0.02882730243
IN,KOKOMO,OHIO ST,NO30D,0.157067651
IN,SHARPSVILLE,WASHINGTON ST,NQ04C,0.01223526564
IN,SHARPSVILLE,WASHINGTON ST,NQ04C,0.01223526564
IN,ELKHART,COUNTY ROAD 13,OA27D,0.04710758804
IN,ELKHART,COUNTY ROAD 13,OA27D,0.04710758804
IN,SOUTH BEND,E MONROE ST,LB12D,0.1779680503
IN,ELKHART,MADISON ST,OB04C,0.2346847392
IN,WINAMAC,E WASHINGTON ST,II13A,0.04532857316
IN,WINAMAC,ALLEY,II13A,0.04532857316
IN,WINAMAC,E WASHINGTON ST,II13A,0.04532857316
IN,CROWN POINT,ALLEY,CE09B,0.1747549316
IN,CROMWELL,N 900 W,RE16B,0.00675299528
IN,ELKHART,W BRISTOL ST,OA31B,0.04299285974
IN,,E COUNTY LINE RD,RA18C,0.01099479608
IN,ORLAND,STATE HWY 120,VA20D,0.004562507564
IN,ORLAND,STATE HWY 120,VA20D,0.004562507564
IN,,MYRTLE AVE,LA13C,0.177598935
IN,AUBURN,BRANDON ST,WE30D,0.1235749728
IN,ROME CITY,SHADY LN,TD15A,0.007981362701
IN,ROME CITY,SHADY LN,TD15A,0.007981362701
IN,LIGONIER,LINCOLNWAY W,RD28B,0.05318286337
IN,LIGONIER,LINCOLNWAY W,RD28B,0.05318286337
IN,,CROOKED CREEK PKWY,VG27B,0.16644076
IN,,N 400 E,CH15B,0.001258622776
IN,,FIRETHORNE PATH,UI18A,0.03554399129
IN,,FIRETHORNE PATH,UI18A,0.03554399129
IN,FORT WAYNE,PERRY LAKE DR,VG27A,0.09535277744
IN,,700 RD N,LQ04B,0.00582113034
IN,,700 RD N,LQ04B,0.00582113034
IN,,CROOKED OAK DR,NA17A,0.0949231514
IN,COLUMBIA CITY,W NORTH ST,SH03D,0.3127254024
IN,MONTICELLO,N NORWAY RD,HL21C,0.1626406874
IN,MONTICELLO,N NORWAY RD,HL21C,0.1626406874
IN,,WHISPERING WOODS DR,UI02A,0.2396405664
IN,SOUTH BEND,UNKNOWN,MB07D,0.2709609101
IN,,POWDERHORN RD,UI19C,0.02755657751
IN,,POWDERHORN RD,UI19C,0.02755657751
IN,FORT WAYNE,TRIER RD,WH26A,0.15587559
IN,,N 600 W,GB01B,0.02701198112
IN,,N 600 W,GB01B,0.02701198112
IN,FORT WAYNE,HANNA ST,VI24A,0.441740288
IN,,SUNRISE TRL,MA10C,0.09108677236
IN,AUBURN,ASHWOOD DR,WE33C,0.1550405422
IN,HAMMOND,171ST ST,BC09D,0.3879583686
IN,GOSHEN,COLLEGE AVE,PC15C,0.2315623865
IN,CROWN POINT,W 93RD AVE,CD32B,0.1543083626
IN,CROWN POINT,W 93RD AVE,CD32B,0.1543083626
IN,MERRILLVILLE,JOHNSON ST,CD21C,0.1543083626
IN,,W 900 S,PH30D,0.006444390657
IN,PORTAGE,OLD PORTER RD,DC02D,0.1541691879
IN,PORTAGE,NORTH BLVD,DC11B,0.1541691879
IN,FORT WAYNE,HICKORY TREE RD,VG32B,0.1173907782
IN,,LANE 201BA LAKE GEORGE,WA15D,0.005978458187
IN,,LANE 160C TURKEY LK,VC07D,0.004986082537
IN,LAPORTE,I ST,HC02A,0.316694905
IN,,W 650 S,VC30C,0.005633547138
IN,PLYMOUTH,W LAPORTE ST,LF05D,0.2255718262
IN,CHESTERTON,PRIVATE DR,FC07C,0.02075517367
IN,SOUTH WHITLEY,W 500 S,RH33C,0.02003509621
IN,SOUTH WHITLEY,W 500 S,RH33C,0.02003509621
IN,,STONEBRIDGE DR,MA11D,0.1465266852
IN,FORT WAYNE,INDIANA AVE,VI14C,0.5286820767
IN,GOSHEN,FAIRVIEW DR,PC11C,0.01888539271
IN,GOSHEN,FAIRVIEW DR,PC11C,0.01888539271
IN,,N 100 E,TB18D,0.009070555488
IN,VALPARAISO,VALPARAISO ST,ED24A,0.2601294929
IN,,N WESTLAKES DR,UI15C,0.1423756505
IN,,W HAWTHORN ST,PA32A,0.02450078664
IN,FORT WAYNE,SHEARWATER PASS,WH07A,0.1388236718
IN,SOUTH BEND,LA PORTE AVE,LB02C,0.2442756868
IN,GOSHEN,WESTFIELD AVE,PC09A,0.1582415588
IN,,E PIERCETON RD,PG25B,0.009185525838
IN,FORT WAYNE,NUTTMAN AVE,VI15C,0.06839525596
IN,ELKHART,FRANCES AVE,OB16C,0.2963148977
IN,ELKHART,FRANCES AVE,OB16C,0.2963148977
IN,HOBART,E 83RD AVE,DD20C,0.007981362701
IN,HOBART,E 83RD AVE,DD20C,0.007981362701
IN,LAPORTE,W 18TH ST,HC10B,0.1381217475
IN,LAPORTE,W 18TH ST,HC10B,0.1381217475
IN,,LADUE LN,UI12C,0.1046956311
IN,,COUNTY ROAD 35,QA16C,0.007575940942
IN,,INDIANAPOLIS RD,UJ13B,0.00750937916
IN,GREENTOWN,MAIN ST,OP03A,0.007321795958
IN,GREENTOWN,MAIN ST,OP03A,0.007321795958
IN,KOKOMO,CRICKET HILL DR,NP08C,0.06482512405
IN,KOKOMO,SHERWOOD DR,NP08C,0.06482512405
IN,,E ARMSTRONG RD,QF18D,0.03281495825
IN,FORT WAYNE,ARDMORE AVE,VI21C,0.1311085562
IN,,W STATE HWY 120,VA30B,0.004562507564
IN,,N 1200 E,VA19C,0.004562507564
IN,GARY,W 46TH AVE,CC32B,0.2909052402
IN,GARY,W 46TH AVE,CC32B,0.2909052402
IN,,LINCOLNWAY S,RD34C,0.003618540482
IN,,LINCOLNWAY S,RD34C,0.003618540482
IN,MISHAWAKA,E 11TH ST,MB15C,0.5046411715
IN,FORT WAYNE,SMITH RD,VJ07B,0.00273508411
IN,,WATERFORD LN,MA17C,0.1261103715
IN,WAKARUSA,INDIANA AVE,NC36A,0.02437976522
IN,SOUTH BEND,SAMPSON ST,MB30B,0.178621566
IN,SOUTH BEND,W HAMILTON ST,LA34B,0.254344669
IN,,COUNTY ROAD 1150 W,RA18C,0.006432288515
IN,OSSIAN,W LAFEVER ST,VK16D,0.09759167373
IN,MUNSTER,COLUMBIA AVE,AC36B,0.1214510468
IN,,ABOITE CENTER RD,UI17C,0.03554399129
IN,SCHERERVILLE,KENNEDY AVE,BC33C,0.1199080237
IN,SCHERERVILLE,KENNEDY AVE,BC33C,0.1199080237
IN,,E MCKENNA RD,QF29B,0.03281495825
IN,,SANDALWOOD DR,ED05C,0.03522933559
IN,ROSELAND,S DIXIE WAY,LA25C,0.287141474
IN,ROSELAND,S DIXIE WAY,LA25C,0.287141474
IN,,COPPER HILL RUN,UI14A,0.191056517
IN,WOLCOTTVILLE,COUNTY ROAD 1150 N,TD04B,0.007981362701
IN,MISHAWAKA,BLAIR HILLS AVE,MB22D,0.1897252814
IN,EAST CHICAGO,INDIANAPOLIS BLVD,BB32A,0.5770180322
IN,,EMS B12 LN,QF26C,0.01638630038
IN,,OZARK ST,WC15C,0.004822703619
IN,FORT WAYNE,CLAY ST,VI12A,0.1869417887
IN,NEW HAVEN,CENTERSTONE PKWY,WI13D,0.2707309694
IN,NEW HAVEN,CENTERSTONE PKWY,WI13D,0.2707309694
IN,ELKHART,ALLEY,OB09A,0.4888599782
IN,,ASH RD,NB09B,0.1104380975
IN,EAST CHICAGO,E 149TH ST,BB33B,0.04488684497
IN,BLUFFTON,N MORGAN ST,VM04A,0.2683892049
IN,FORT WAYNE,NW PASSAGE TRL,VH01A,0.1095727944
IN,,JUNIPER RD,LA25D,0.06236233813
IN,GARY,ALLEY,CC21D,0.4832445843
IN,FORT WAYNE,E BERRY ST,VI01C,0.1605107104
IN,SOUTH BEND,S SAINT JOSEPH ST,LB24A,0.4746581145
IN,DYER,MAIN ST,AD01B,0.2636512163
IN,DYER,MAIN ST,AD01B,0.2636512163
IN,AUBURN,PORTAGE PASS,WE28A,0.1052402275
IN,SOUTH BEND,E JEFFERSON BLVD,MB07B,0.2087982573
IN,FORT WAYNE,SANDPOINT RD,VI21D,0.1311085562
IN,,MIAMI DR,NA27C,0.08348057606
IN,PORTAGE,US HWY 6,EC30A,0.1040179112
IN,WOLCOTTVILLE,E 700 S,TC34A,0.007878494494
IN,MICHIGAN CITY,SPRINGLAND AVE,GA27C,0.2322885151
IN,PIERCETON,ARNOLT DR,QG28B,0.006159990318
IN,,COUNTY ROAD 75 E,PG28D,0.01567832506
IN,MISHAWAKA,SAINT ANDREWS CIR,MA33C,0.4668703861
IN,MISHAWAKA,SAINT ANDREWS CIR,MA33C,0.4668703861
IN,SCHERERVILLE,80TH PL,BD20B,0.09960668038
IN,ST. JOHN,KELLY DR,BD29B,0.09960668038
IN,SCHERERVILLE,80TH PL,BD20B,0.09960668038
IN,HIGHLAND,INDIANAPOLIS BLVD,BC32B,0.5992496672
IN,MERRILLVILLE,ALLEY,CD03C,0.09901972649
IN,,N STATE ROAD 1,WG12B,0.01897615878
IN,,N HAWTHORN ST,PA32A,0.02450078664
IN,,S WILDFLOWER ST,PA32C,0.02450078664
IN,HAMMOND,137TH ST,AB24A,0.2600205736
IN,WINONA LAKE,E PIERCETON RD,PG23D,0.09753116302
IN,,E 540 N,UA30C,0.002069466296
IN,CROWN POINT,W 105TH AVE,CE06B,0.09330146436
IN,CROWN POINT,W 105TH AVE,CE06B,0.09330146436
IN,,DURHAM WAY E,MA15B,0.1630763645
IN,,STATE HWY 4,IC10C,0.007073702045
IN,,WATER WHEEL RUN,VG31A,0.2452075517
IN,,CHERRY CREEK RD,VG31C,0.2452075517
IN,,W US HWY 6,GD03A,0.006492799225
IN,,N 400 W,EG33A,0.005966356045
IN,,LANE 250 WEST OTTER LK,VB29A,0.00384243011
IN,GARY,E 51ST AVE,CC34C,0.2433740772
IN,FORT WAYNE,SAINT JOE RD,WH19D,0.4500665618
IN,VALPARAISO,CAMPBELL ST,ED01C,0.158429142
IN,VALPARAISO,CAMPBELL ST,ED01C,0.158429142
IN,FORT WAYNE,ARDMORE AVE,VI29D,0.08565896164
IN,ELKHART,HUDSON ST,OB07B,0.4471257413
IN,PLYMOUTH,HILLCREST AVE,LF06D,0.08291177538
IN,FORT WAYNE,ILLINOIS RD,VI08B,0.08162289725
IN,FORT WAYNE,LAFAYETTE ST,VI14B,0.3701379644
IN,,COUNTRY ACRES DR,OA19B,0.03968897495
IN,FORT WAYNE,HOLLY AVE,WI08C,0.05912501513
IN,SCHERERVILLE,ALEXANDER ST,BD21A,0.07895437492
IN,NAPPANEE,ROBIN ST,ND36A,0.0898463028
IN,NAPPANEE,HUMMINGBIRD ST,ND36A,0.0898463028
IN,GARRETT,MAPLE LN,VF02A,0.01499455404
IN,GOSHEN,MOSSBERG LN,PC07A,0.2016579935
IN,GOSHEN,S 14TH ST,PC15A,0.2315623865
IN,,ELDER RD,MB26D,0.07566864335
IN,SCHERERVILLE,US HIGHWAY 41,BD05D,0.2282645528
IN,FORT WAYNE,OAKLEY ST,VI11C,0.4394953407
IN,,N 750 E,UB08A,0.002069466296
IN,,WEST BOULEVARD RD,MP03C,0.07310298923
IN,,WEST BOULEVARD RD,MP03C,0.07310298923
IN,KNOX,COUNTY ROAD 500 E,IF24C,0.07266126104
IN,KNOX,COUNTY ROAD 500 E,IF24C,0.07266126104
IN,ELKHART,E GARFIELD AVE,OB09C,0.4299406995
IN,MERRILLVILLE,CONNECTICUT DR,CD27C,0.03043688733
IN,FORT WAYNE,KENSINGTON BLVD,WH31C,0.4274779136
IN,,E STATE HWY 4,IC15B,0.007073702045
IN,BLUFFTON,LANCASTER ST,VL33C,0.2683892049
IN,REMINGTON,WILBUR ST,DL24D,0.00471378434
IN,REMINGTON,WILBUR ST,DL24D,0.00471378434
IN,ELKHART,ROSE ST,OA33C,0.2189761588
IN,,LAKEVIEW DR,QF28B,0.03281495825
IN,FORT WAYNE,HUESTIS AVE,VI10D,0.4356105531
IN,ELKHART,CLAYTON AVE,OB15C,0.1370628101
IN,ELKHART,CLAYTON AVE,OB15C,0.1370628101
IN,,W JEFFERSON BLVD,UI24A,0.06515793295
IN,FORT WAYNE,QUAIL RIDGE LN,UI13B,0.06515793295
IN,AUBURN,S CEDAR ST,WE32A,0.3109100811
IN,GOSHEN,WINCHESTER TRL S,PC27C,0.04177659446
IN,GOSHEN,WINCHESTER TRL S,PC27C,0.04177659446
IN,DYER,KILLARNEY DR,BD06D,0.06415950623
IN,FORT WAYNE,MCKINNIE AVE,VI13C,0.4643712937
IN,FORT WAYNE,FOREST AVE,VH36D,0.4173605228
IN,,4TH ST,PF34D,0.02882730243
IN,GOSHEN,E LINCOLN AVE,PC10C,0.4976461334
IN,FORT WAYNE,CURDES AVE,WH31A,0.4161987172
IN,MONTICELLO,STATE HWY 39 N,HM04D,0.1295715842
IN,MONTICELLO,STATE HWY 39 N,HM04D,0.1295715842
IN,KOKOMO,SANTA FE BLVD,MO34D,0.1295171245
IN,KOKOMO,CARTER ST,MO34B,0.1295171245
IN,GOSHEN,S 10TH ST,PC10C,0.1805700109
IN,MISHAWAKA,PANAMA ST,MB17D,0.4112247368
IN,FORT WAYNE,E COOK RD,VH12C,0.209451773
IN,,N WILDFLOWER ST,PA32A,0.02450078664
IN,LOGANSPORT,14TH ST,LL30C,0.4544717415
IN,HOBART,E 10TH ST,DD04B,0.0561841946
IN,,FARMINGTON SQUARE RD,MA20B,0.1261103715
IN,SCHERERVILLE,W 75TH AVE,BD13D,0.1256928476
IN,SCHERERVILLE,W 75TH AVE,BD14D,0.1256928476
IN,,LANE 405A JIMMERSON LK,WA32B,0.03101173908
IN,AUBURN,N INDIANA AVE,WE30D,0.1235749728
IN,ELKHART,E HIVELY AVE,OB16D,0.2963148977
IN,GARY,UNKNOWN,CC15A,0.5313748033
IN,LAKE STATION,RIVER WALK ST,DC20B,0.0542841583
IN,,E PIXIE PKWY,QE13B,0.01468594941
IN,SOUTH BEND,W NAVARRE ST,LB01C,0.2017245552
IN,GOSHEN,TANGLEWOOD DR,PC07B,0.2016579935
IN,WARSAW,W BELL DR,PF32D,0.02882730243
IN,WARSAW,W BELL DR,PF32D,0.02882730243
IN,FORT WAYNE,E RUDISILL BLVD,VI14D,0.5272842793
IN,SOUTH BEND,KELLER ST,LA34D,0.3992073097
IN,GARY,ALLEY ALY,CC33B,0.2909052402
IN,NEW HAVEN,UNKNOWN,WI09B,0.0484327726
IN,MISHAWAKA,ESTHER AVE,MB11B,0.04775505264
IN,MISHAWAKA,ESTHER AVE,MB11B,0.04775505264
IN,HOBART,E LINCOLN HWY,CD24B,0.007981362701
IN,SOUTH BEND,HOKE ST,MB18D,0.3959457824
IN,,DEER CREEK AVE,MN36C,0.007249183105
IN,,DEER CREEK AVE,MN36C,0.007249183105
IN,SOUTH BEND,INWOOD RD,MB29A,0.1961273145
IN,,UNION ST,TA30A,0.008193150188
IN,FORT WAYNE,MAPLECREST RD,WH15A,0.1936403243
IN,MERRILLVILLE,W 85TH AVE,CD26A,0.04413046109
IN,VALPARAISO,UNKNOWN,ED24B,0.2601294929
IN,,FRITZ RD,VH18B,0.04331961757
IN,,E 1300 N,FB28D,0.003860583323
IN,,E 1300 N,FB28D,0.003860583323
IN,FORT WAYNE,BUELL DR,VI23A,0.3905905845
IN,SCHERERVILLE,W US HIGHWAY 30,BD17B,0.1915587559
IN,,RIDGE VALLEY DR,UI14B,0.191056517
IN,,COUNTY ROAD 36,PC18C,0.01909112913
IN,,COUNTY ROAD 36,PC18C,0.01909112913
IN,KOKOMO,S LAFOUNTAIN ST,MP13D,0.1674210335
IN,HAMILTON,E BELLEFONTAINE RD,XC32B,0.03801887934
IN,HAMILTON,E BELLEFONTAINE RD,XC32B,0.03801887934
IN,MENTONE,S STATE ROAD 19,NH02D,0.01569042721
IN,MENTONE,S STATE ROAD 19,NH02D,0.01569042721
IN,GRABILL,MAPLE DR,WG24D,0.03761345758
IN,KOKOMO,WOODLAND,MP01B,0.2768728065
IN,,ARROWWOOD DR,OA25C,0.1855318891
IN,,DARDEN RD,MA20A,0.1346726371
IN,ELKHART,WILLOWDALE AVE,OA32C,0.184926782
IN,VALPARAISO,GOODRICH RD,ED11B,0.03633668159
IN,VALPARAISO,GOODRICH RD,ED11B,0.03633668159
IN,,UNKNOWN,WB28C,0.02469442091
IN,ELKHART,14TH ST,OB07D,0.03338981
IN,BLUFFTON,CEDAR RD,VL34C,0.03303884788
IN,PLYMOUTH,HILLSIDE DR,LF09C,0.03253055791
IN,,NUTMEG RD,LF08C,0.03253055791
IN,FORT WAYNE,MEADOWS PARK WAY,WH07D,0.03250030255
IN,,CLARENDON HILLS DR,MA22A,0.1004840857
IN,MISHAWAKA,E UNIVERSITY DR,MA27A,0.1004840857
IN,HAMMOND,175TH ST,BC17A,0.2751422002
IN,KNOX,HENRY DR,IF26A,0.03070918553
IN,PLYMOUTH,BRIARWOOD AVE,LE29C,0.03060631732
IN,PLYMOUTH,BRIARWOOD AVE,LE29C,0.03060631732
IN,,MUSCATATUCK DR,ED27D,0.05473798862
IN,FORT WAYNE,COLLEGE ST,VI10B,0.417378676
IN,BLUFFTON,ELM GROVE RD,VM03B,0.02941425632
IN,BLUFFTON,ELM GROVE RD,VM03B,0.02941425632
IN,MISHAWAKA,COTTAGE CIR,MA27C,0.1764008229
IN,GARY,W 51ST AVE,CC33D,0.2662350236
IN,FORT WAYNE,INDUSTRIAL RD,VH23A,0.2363608859
IN,CROWN POINT,E 113TH AVE,CE09D,0.1747549316
IN,,S 600 W,SB31A,0.005724313203
IN,,W COUNTY LINE RD,TI25B,0.02755657751
IN,,LANE 201A BALL LK,XC32A,0.004447537214
IN,LIGONIER,GERBER ST,RD22C,0.05318286337
IN,,MAIN AVE,QG26C,0.00372745976
IN,,E ENGLE LAKE RD W,RE03B,0.003618540482
IN,,OAK HILL BLVD,MA16B,0.07532978337
IN,WARSAW,N WEST ST,PG07B,0.2444753721
IN,,S STATE ROAD 19,NH26B,0.002353866634
IN,,W 275 N,WB11A,0.02380491347
IN,,US HIGHWAY 33,PC25C,0.04177659446
IN,LAPORTE,UNNAMED STREET,HB36A,0.4877707854
IN,LAKE STATION,STATE ST,CC24B,0.1682621324
IN,KENDALLVILLE,MOTT ST,UD33D,0.3614667796
IN,ANGOLA,NORTH CREST ST,WB14D,0.0195570616
IN,BLUFFTON,E POPLAR ST,VM04B,0.2683892049
IN,,SUNSET PASS,XG32B,0.01945419339
IN,,RIVER RAPIDS RUN,WG31D,0.08658477551
IN,,RIVERVIEW RD,NL31C,0.01833474525
IN,HOBART,BRACKEN PKWY,DD08A,0.01751785066
IN,HOBART,BRACKEN PKWY,DD08A,0.01751785066
IN,,KROEMER RD,VH19D,0.01736657388
IN,MONTICELLO,N MAIN ST,HL28A,0.1626406874
IN,WOODBURN,FAHLSING RD,YH21C,0.01714268426
IN,WOODBURN,FAHLSING RD,YH21C,0.01714268426
IN,SOUTH BEND,S SCOTT ST,LB11D,0.3555306789
IN,DECATUR,N 10TH ST,XK34C,0.06610795111
IN,PORTAGE,PORTAGE AVE,EC07B,0.1596030497
IN,CHESTERTON,LAUREL CREEK DR,EC12B,0.02075517367
IN,PORTAGE,MILL RUN AVE,DC24A,0.1588406148
IN,LAPORTE,WELLER AVE,HB35A,0.1573399492
IN,HOBART,E CLEVELAND AVE,DC33B,0.1568558635
IN,GARY,N LAKE ST,DB31D,0.111158175
IN,FORT WAYNE,BRIAN DR,WH28B,0.2443422486
IN,SCHERERVILLE,E JOLIET ST,BD15B,0.2442393804
IN,SCHERERVILLE,NEWCASTLE DR,BD15D,0.2442393804
IN,DYER,FLAGSTONE DR,BD07C,0.1058150793
IN,AUBURN,ALLISON BLVD,WE33A,0.1550405422
IN,MISHAWAKA,ALLEY ALY,MB17C,0.4284823914
IN,KENDALLVILLE,ASHTON DR,UD29D,0.009760377587
IN,,N 600 E,TD25D,0.009760377587
IN,,UNNAMED STREET,LD32B,0.0095485901
IN,GOSHEN,S WHEATLAND DR,PC08C,0.1389931018
IN,,WOODLAND HILLS DR S,MA16C,0.07532978337
IN,GOSHEN,DIERDORFF RD,PC23C,0.1240832627
IN,HOBART,E LINCOLN HWY,DD20A,0.007981362701
IN,HOBART,E LINCOLN HWY,DD20A,0.007981362701
IN,HOBART,E 38TH AVE,CC26A,0.1518153213
IN,GOSHEN,MIDWAY RD,OB35B,0.06011739078
IN,KEWANNA,STATE HWY 17,KI28B,0.006250756384
IN,KEWANNA,STATE HWY 17,KI28B,0.006250756384
IN,,N 400 W,EG28C,0.005966356045
IN,VALPARAISO,COUNTRY CLUB RD,FD07A,0.225384243
IN,,SURREY HILL LN,ED19C,0.06307636452
IN,FORT WAYNE,W TABER ST,VI11D,0.4396829239
IN,,LIVE OAK BLVD,UI15D,0.2374258744
IN,FORT WAYNE,N WELLS ST,VI02A,0.3538908387
IN,,E STATE HWY 4,IC13A,0.004707733269
IN,,COUNTY HWY 800 N,HA19C,0.004429384001
IN,,COUNTY HWY 800 N,HA19C,0.004429384001
IN,PORTAGE,WILLOW CREEK RD,DC26B,0.1474040905
IN,NEW CARLISLE,MERIDIAN ST,JA34A,0.1216930897
IN,HAMMOND,MICHIGAN ST,AB36B,0.6052886361
IN,GOSHEN,US HIGHWAY 33,OB25C,0.070016943
IN,GOSHEN,US HIGHWAY 33,OB25C,0.070016943
IN,BURLINGTON,7TH ST,KO35A,0.002777441607
IN,FORT WAYNE,AVIONICS DR,VJ05B,0.00273508411
IN,,COUNTY ROAD 850 E,JE04C,0.00255960305
IN,ELKHART,COUNTY ROAD 13,OA27B,0.04710758804
IN,MISHAWAKA,SARAH ST,MB09D,0.4166767518
IN,,STATE ROAD 19,NB13D,0.046593247
IN,,S COUNTY ROAD 150 RD E,LN31C,0.001567227399
IN,,W 615 N,VA19C,0.004562507564
IN,,W 615 N,VA19C,0.004562507564
IN,SCHERERVILLE,OLD LINCOLN HWY,BD14A,0.1256928476
IN,WINONA LAKE,WOOSTER RD,PG15A,0.09753116302
IN,WAKARUSA,COUNTY ROAD 3,NC35D,0.02437976522
IN,ARGOS,17TH RD,LG11D,0.06407479124
IN,ARGOS,17TH RD,LG11D,0.06407479124
IN,ARGOS,17TH RD,LG11D,0.06407479124
IN,WARSAW,TIPPECANOE DR,PG07A,0.06381459518
IN,WARSAW,TIPPECANOE DR,PG07A,0.06381459518
IN,LAKE STATION,WARREN ST,DC16D,0.3279014886
IN,PLYMOUTH,W HARRISON ST,LF05B,0.2255718262
IN,ELKHART,COUNTY ROAD 20,OB21B,0.1370628101
IN,ELKHART,COUNTY ROAD 20,OB21B,0.1370628101
IN,ELKHART,WOOD ST,OB04B,0.2238835774
IN,VALPARAISO,POWDERLY RD,FD19B,0.2621626528
IN,WARSAW,3RD ST,PG05B,0.1075033281
IN,FORT WAYNE,E RUDISILL BLVD,VI13D,0.4947900278
IN,FORT WAYNE,STRATHDON DR,WI29D,0.2216809875
IN,DECATUR,N 5TH ST,XK34D,0.3232603171
IN,HIGHLAND,SOUTHMOOR AVE,BC29B,0.3223405543
IN,PLYMOUTH,W GARRO ST,LF05A,0.3223284521
IN,WINONA LAKE,LEXINGTON DR,PG23A,0.09753116302
IN,,E MCKENNA RD,QF28A,0.03281495825
IN,FORT WAYNE,BLUFFTON RD,VI15D,0.1312961394
IN,,COUNTY ROAD 43,QA25A,0.01099479608
IN,ELKHART,LANE AVE,OB09C,0.4067650974
IN,ELKHART,E CARLTON AVE,OB16A,0.398807939
IN,FORT WAYNE,W PACKARD AVE,VI14A,0.5339949171
IN,GOSHEN,ALLEY,PC11A,0.01888539271
IN,,COUNTY ROAD 805 E,UC33C,0.005155512526
IN,SOUTH BEND,ALLEY,MB07A,0.2511678567
IN,,CHESTNUT RIDGE DR,UI04D,0.05261406269
IN,INDIAN VILLAGE,WELWORTH AVE,MA30C,0.05240832627
IN,MICHIGAN CITY,W COOLSPRING AVE,GB05B,0.315248699
IN,,FAIRWIND DR,OB28A,0.03423090887
IN,FORT WAYNE,E TILLMAN RD,WI30D,0.1260256565
IN,,CR 030 N,SB24D,0.009070555488
IN,,E 075 N,TB20B,0.007557787728
IN,MUNSTER,DRIFTWOOD DR,BC31B,0.1214510468
IN,,STAGECOACH DR,UI11C,0.2075638388
IN,SOUTH BEND,ARDMORE TRL,LB04B,0.2173907782
IN,MISHAWAKA,W LOWELL AVE,MB09A,0.2733208278
IN,ELKHART,LIBERTY ST,OB05A,0.3063959821
IN,GARY,RAMP,BB35A,0.04488684497
IN,MICHIGAN CITY,E MICHIGAN BLVD,GA29B,0.1194541934
IN,LAPORTE,COUNTRY LANE DR,IC06B,0.04471136391
IN,ELKHART,TOLEDO RD,OB11A,0.1192242527
IN,ELKHART,TOLEDO RD,OB11A,0.1192242527
IN,MISHAWAKA,E MCKINLEY AVE,MB03D,0.1190306184
IN,MICHIGAN CITY,ALLEY,GA33B,0.4240348542
IN,,PRIVATE LN,QF28A,0.008882972286
IN,FORT WAYNE,PARNELL AVE,VH25C,0.1754023962
IN,FORT WAYNE,ROLLING WOOD LN,VG32D,0.1173907782
IN,FORT WAYNE,E DUPONT RD,VG33D,0.1173907782
IN,LEESBURG,N STATE ROAD 15,PF08C,0.007648553794
IN,GOSHEN,COLORADO ST,PC27B,0.04177659446
IN,GOSHEN,COLORADO ST,PC27B,0.04177659446
IN,,SKYVIEW RD,PC25C,0.04177659446
IN,,W DIVISION RD,DD35D,0.01990197265
IN,,S 295 PIKE W,UC16D,0.005149461455
IN,LAPORTE,SCOTT ST,HB36C,0.417124531
IN,KENDALLVILLE,E WAITS RD,UE04C,0.1119206099
IN,KENDALLVILLE,S STATE ST,UE04C,0.1119206099
IN,KENDALLVILLE,E WAITS RD,UE04C,0.1119206099
IN,,E 315 RD N,UB05D,0.002069466296
IN,,COUNTY ROAD 750 E,UB08B,0.002069466296
IN,DYER,JOLIET ST,AD13B,0.196163621
IN,GARY,W 7TH AVE,CC05D,0.5544233329
IN,,300 RD S,MP14C,0.03395861067
IN,ELKHART,S 4TH ST,OB05C,0.4326878858
IN,GARY,W 2ND PL,CC05B,0.4581870991
IN,WATERLOO,W MARION ST,WE03C,0.06202952923
IN,,WILLOW GROVE DR,UI14C,0.191056517
IN,EAST CHICAGO,UNKNOWN,BB29D,0.6074791238
IN,ANGOLA,N WAYNE ST,WB14A,0.0195570616
IN,GOSHEN,MIDDLEBURY ST,PC03D,0.1049679293
IN,GOSHEN,MIDDLEBURY ST,PC03D,0.1049679293
IN,,N 450 W,EC30B,0.1040179112
IN,,ST JOSEPH DR,LA25D,0.287141474
IN,ROSELAND,DOUGLAS RD,LA25C,0.287141474
IN,SOUTH BEND,HOLY CROSS DR,LA36D,0.287141474
IN,GOSHEN,E JACKSON ST,PC16B,0.3601294929
IN,,E 350 S,UC11C,0.005633547138
IN,ELKHART,MYRTLE ST,OB06B,0.4523417645
IN,FORT WAYNE,SAINT MARYS AVE,VH34B,0.1584230909
IN,GARY,GRANT ST,CC08D,0.1861309452
IN,SOUTH BEND,IROQUOIS ST,LB02B,0.2836681593
IN,ELKHART,E DINEHART AVE,OB16A,0.398807939
IN,LOGANSPORT,23RD ST,LL29C,0.2822219533
IN,FORT WAYNE,THOMPSON AVE,VI15B,0.4907721167
IN,WARSAW,S HIGH ST,PG08C,0.2444753721
IN,,BARRY KNOLL WAY,VG26C,0.16644076
IN,PORTAGE,SUN DR,EB30C,0.0001210214208
IN,,50 RD E,NO07B,0.003279680503
IN,FORT WAYNE,ANDREW ST,VI02A,0.5296986567
IN,MISHAWAKA,W JEFFERSON BLVD,MB09A,0.2733208278
IN,FORT WAYNE,E COOK RD,VH12D,0.209451773
IN,DECATUR,WASHINGTON ST,XK34A,0.06610795111
IN,ST. JOHN,101ST AVE,BD31D,0.08807333898
IN,ST. JOHN,101ST AVE,BD31D,0.08807333898
IN,FORT WAYNE,CAPITOL AVE,VI24B,0.3838073339
IN,MERRILLVILLE,GRANT ST,CD16C,0.08717778047
IN,GOSHEN,SPRING BROOKE DR,PC14D,0.01457703013
IN,,FAIRFIELD DR,MA14C,0.1704889265
IN,,ARAPAHO TRL,WH04B,0.08658477551
IN,,RIVER RAPIDS RUN,WH03A,0.08658477551
IN,MICHIGAN CITY,CLEVELAND AVE,GA33B,0.1696115212
IN,FORT WAYNE,NUTTMAN AVE,VI14A,0.5286820767
IN,HAMILTON,LANE 150 HAMILTON LK,XC27C,0.03801887934
IN,FORT WAYNE,E SUTTENFIELD ST,VI12C,0.3701379644
IN,AUBURN,E 12TH ST,WE32A,0.2287546896
IN,DYER,WELLINGTON DR,BD06A,0.2636512163
IN,DYER,WELLINGTON DR,BD06A,0.2636512163
IN,SOUTH BEND,E SAMPLE ST,LB12D,0.2623986446
IN,MISHAWAKA,EAGLE TRL,MA33A,0.4668703861
IN,FORT WAYNE,BUELL DR,VI14C,0.4661321554
IN,,WEXFORD DR,MA15D,0.1630763645
IN,GARRETT,N PETERS ST,VE33D,0.007503328089
IN,GARY,E 15TH AVE,CC11C,0.03295413288
IN,BRISTOL,INDIANA ST,PA27C,0.03564080842
IN,BERNE,WESTLICHSTRASSE,XN05A,0.006268909597
IN,BERNE,WESTLICHSTRASSE,XN05A,0.006268909597
IN,FORT WAYNE,S HARRISON ST,VI02D,0.1605470168
IN,,W US HWY 6,HD05A,0.00564564928
IN,TRAIL CREEK,PINETREE DR,GB03B,0.07583202227
IN,FORT WAYNE,COVINGTON RD,VI15A,0.1312961394
IN,,S 1175 E,UC12D,0.005633547138
IN,,S 700 E,TI11B,0.003981604744
IN,ROCHESTER,E 18TH ST,MI09D,0.1921094034
IN,UNIONDALE,N MERIDIAN RD,UL02B,0.003279680503
IN,UNIONDALE,N MERIDIAN RD,UL02B,0.003279680503
IN,WALKERTON,STATE HWY 23,JD24A,0.0748638509
IN,WALKERTON,STATE HWY 23,JD24A,0.0748638509
IN,GARY,W 11TH AVE,CC09B,0.466186615
IN,,N OLD STATE ROAD 15,QL19A,0.002045262011
IN,KOKOMO,ARROW ST,NP19A,0.2523357134
IN,KOKOMO,ARROW ST,NP19A,0.2523357134
IN,KOKOMO,DIXON RD,MP02C,0.07310298923
IN,,N 400 W,HB08B,0.02701198112
IN,,N 400 W,HB08B,0.02701198112
IN,BREMEN,WOODIES LN,MD35B,0.1550950018
IN,PORTAGE,LENBURG RD,EC08B,0.07199564323
IN,FORT WAYNE,LAKESIDE DR,VI36C,0.07047077333
IN,FORT WAYNE,LAKESIDE DR,VI36C,0.07047077333
IN,MICHIGAN CITY,W 9TH ST,GA29C,0.248547743
IN,,CLIFFSIDE PASS,WG31D,0.06998668764
IN,SOUTH BEND,ALLEY,MB19A,0.361497035
IN,KENDALLVILLE,S SHERIDAN ST,UD33D,0.3614667796
IN,GARY,GRANT ST,CC21C,0.3611037154
IN,GARRETT,W DENNIS ST,VF04B,0.2475977248
IN,LIGONIER,W 2ND ST,RD28B,0.1201682198
IN,,POPP RD,WG30C,0.0679474767
IN,,POPP RD,WG30C,0.0679474767
IN,ELKHART,DECAMP AVE,OB09C,0.4067650974
IN,,BETHEL RD,UG36D,0.2452075517
IN,,27TH ST,MA32A,0.1470591795
IN,GOSHEN,MIDDLEBURY ST,PC03C,0.3548711122
IN,WARSAW,W CENTER ST,PG07C,0.06381459518
IN,,COUNTY ROAD 26,NB36A,0.02098511437
IN,,W SKYLINE DR,HB19A,0.01778409779
IN,,W VAN GOGH TRL,HB19A,0.01778409779
IN,,W VAN GOGH TRL,HB19A,0.01778409779
IN,,W SKYLINE DR,HB19A,0.01778409779
IN,VALPARAISO,QUAIL COVEY DR,FD07B,0.1179837831
IN,LAPORTE,ROSE ST,HB36C,0.4877707854
IN,WOODBURN,WOODBURN MOBILE HOME CT,YH20C,0.01714268426
IN,WOODBURN,WOODBURN MOBILE HOME CT,YH20C,0.01714268426
IN,SOUTH BEND,N IRONWOOD DR,MB06B,0.2398039453
IN,,SANDY HILL LN,LA15A,0.06260438098
IN,,WHITE FIELD DR,UI03D,0.2396405664
IN,MUNSTER,45TH AVE,BC32A,0.2393198596
IN,TOPEKA,MORROW ST,RC36B,0.009542539029
IN,,MEADOW RIDGE DR,PC21C,0.01909112913
IN,MISHAWAKA,DUGDALE DR,MA29D,0.1470591795
IN,,N STATE ROAD 9,SA36D,0.008193150188
IN,,SHORE OAKS PASS,UI07D,0.0600084715
IN,MERRILLVILLE,W 73RD AVE,CD17B,0.1399673242
IN,SILVER LAKE,E MAIN ST,PI05C,0.006444390657
IN,SOUTH BEND,AMERITECH DR,LA19B,0.01286457703
IN,DYER,HILLCREST DR,AD13C,0.2314776715
IN,,LOCKERBIE DR,ED33C,0.05537940215
IN,WARSAW,E WINONA AVE,PG08D,0.2127314535
IN,HIGHLAND,PRAIRIE AVE,BC32D,0.2282645528
IN,HIGHLAND,PRAIRIE AVE,BC32D,0.2282645528
IN,SOUTH BEND,W DUBAIL ST,LB15D,0.3394590342
IN,SOUTH BEND,N SAINT JOSEPH ST,LB01C,0.2017245552
IN,,CR 050 RD W,SB24C,0.009070555488
IN,VALPARAISO,GLENEAGLES BLVD,FD07D,0.225384243
IN,NORTH WEBSTER,PANORAMA DR,QF10B,0.05015127678
IN,NORTH WEBSTER,PANORAMA DR,QF10B,0.05015127678
IN,WOLCOTTVILLE,W CEMETERY ST,TC33D,0.007878494494
IN,WOLCOTTVILLE,ALLEY,TC33D,0.007878494494
IN,FORT WAYNE,LOFTON WAY,WI04B,0.2245612973
IN,SCHERERVILLE,65TH AVE,BD12C,0.04888660293
IN,KOKOMO,SANTA FE BLVD,MO34B,0.1295171245
IN,NAPPANEE,E INDIANA AVE,OD31C,0.04849328331
IN,NAPPANEE,S JACKSON ST,OE06A,0.04849328331
IN,NAPPANEE,S JACKSON ST,OE06A,0.04849328331
IN,,PRIVATE DR,OB12C,0.128536851
IN,SOUTH BEND,S 29TH ST,MB17B,0.3325124047
IN,GARY,MASSACHUSETTS ST,CC22C,0.3159022147
IN,GARY,BIRCH AVE,DB31D,0.1265399976
IN,,MORNING MIST TRL,UI27C,0.1263100569
IN,,BURTON DR,MA18D,0.1261103715
IN,,N STATE ROAD 19,NE25B,0.00349146799
IN,CEDAR LAKE,HAVENWOOD PASS,BE22B,0.04454798499
IN,ST. JOHN,W 93RD AVE,BD34B,0.04454798499
IN,ST. JOHN,W 93RD AVE,BD34B,0.04454798499
IN,ELKHART,E JACKSON BLVD,OB03A,0.2238835774
IN,AUBURN,N CEDAR ST,WE29C,0.1235749728
IN,KENDALLVILLE,S OAK ST,UD33C,0.3614667796
IN,FREEMONT,RENEE DR,XA29B,0.01729396103
IN,MERRILLVILLE,E 60TH DR,CD03C,0.09901972649
IN,LONG BEACH,INDIANAPOLIS AVE,GA22A,0.03970712816
IN,LONG BEACH,INDIANAPOLIS AVE,GA22A,0.03970712816
IN,,COUNTY LINE RD,KH06B,0.003279680503
IN,,WEMBLEY DR,MA19A,0.1188732906
IN,ELKHART,N RIVERSIDE DR,OB05A,0.4523417645
IN,FORT WAYNE,GENEVA ST,VI09C,0.09554641171
IN,NEW HAVEN,BIRCHWOOD DR,WI15B,0.03676025657
IN,,CEDAR LAKE RD,CE19B,0.03597361733
IN,,W SHIPPING LN,JE11D,0.0355621445
IN,FORT WAYNE,PHENIE ST,VI10B,0.2813082416
IN,,TALLOW DR,UI10D,0.2075638388
IN,,RED OAK RUN,UI10B,0.2075638388
IN,,COUNTY ROAD 18,QB18D,0.009899552221
IN,,COUNTY ROAD 20,OB25B,0.03486627133
IN,,COUNTY ROAD 20,OB25B,0.03486627133
IN,FORT WAYNE,SCHILLING AVE,VI03B,0.4661503086
IN,FORT WAYNE,STRATFORD RD,VI22B,0.3169732543
IN,TOPEKA,W 700 S,SC30D,0.009542539029
IN,TOPEKA,W 700 S,SC30D,0.009542539029
IN,FORT WAYNE,UNKNOWN,VI07D,0.2064443907
IN,WARSAW,E PRAIRIE ST,PG17A,0.1718625197
IN,,E ARMSTRONG RD,PF09D,0.008429141958
IN,ELKHART,DORAL LN,OB20C,0.03312356287
IN,,NUTMEG RIDGE DR,LF08D,0.03253055791
IN,COLUMBIA CITY,W PARK ST,SH10B,0.3127254024
IN,,OLD US HWY 27,WA23C,0.008707491226
IN,MERRILLVILLE,W 87TH AVE,CD28B,0.03043688733
IN,,S SOUTHWOOD DR,PG30D,0.01773568922
IN,,LANE 160A TURKEY LK,VC07D,0.004986082537
IN,,COUNTY ROAD 19,PD06D,0.004737988624
IN,FORT WAYNE,HOLTON AVE,VI13B,0.4586711848
IN,MIDDLEBURY,SPRING VALLEY RD,QB16A,0.02859736173
IN,SCHERERVILLE,DEER CREEK DR,BD08D,0.1068074549
IN,,LIBERTY MILLS RD,UI20C,0.02755657751
IN,MISHAWAKA,CLOVER RD,MB11A,0.02733268789
IN,,W 900 S,OH28D,0.002353866634
IN,FORT WAYNE,E STATE BLVD,WH33C,0.1980939126
IN,DECATUR,W 450 N,XL09D,0.0254084473
IN,DECATUR,W 450 N,XL09D,0.0254084473
IN,BLUFFTON,W WALNUT ST,VM04B,0.2683892049
IN,,ASH RD,NC33B,0.02437976522
IN,SOUTH BEND,FASSNACHT AVE,LB02C,0.2442756868
IN,LAPAZ,US HWY 31,LD27A,0.02219532857
IN,LAPAZ,MAIN ST,LD27A,0.02219532857
IN,,HUBBARD HILL LN,NB24D,0.02098511437
IN,,E 1300 N,PE02C,0.007872443422
IN,,CURRANT RD,MB01C,0.04775505264
IN,MISHAWAKA,S MERRIFIELD AVE,MB22D,0.1897252814
IN,WINONA LAKE,WESTWOOD RD,PG21D,0.09753116302
IN,,MCKINLEY HWY,NB06C,0.09730727339
IN,FORT WAYNE,N CLINTON ST,VH24C,0.1884787607
IN,,OLD US HWY 27,WA23A,0.005978458187
IN,DECATUR,MADISON ST,XL03A,0.1880914922
IN,LAPORTE,FOX ST,HC01A,0.01793537456
IN,FORT WAYNE,SPATZ AVE,VI24A,0.441740288
IN,FREEMONT,WATER ST,XA29B,0.01729396103
IN,WOODBURN,WOODBURN RD,YH20C,0.01714268426
IN,WOODBURN,WOODBURN RD,YH20C,0.01714268426
IN,,PENNYROYAL LN,NA18D,0.0949231514
IN,,CIRCLE DR,QG26C,0.00372745976
IN,,ADAMS RD,MA09C,0.09415466538
IN,ELKHART,LOCUST ST,OA32A,0.184926782
IN,ELKHART,LOCUST ST,OA32A,0.184926782
IN,SOUTH BEND,IRONWOOD RD,MB30D,0.1843821856
IN,SOUTH BEND,IRONWOOD RD,MB30D,0.1843821856
IN,VALPARAISO,TOWNE COMMONS DR,ED11D,0.158429142
IN,FORT WAYNE,BROADWAY,VI11C,0.4356105531
IN,BLUFFTON,DRUMMOND ST,VL33D,0.2683892049
IN,MISHAWAKA,CHRISTYANN ST,MB09D,0.4166767518
IN,FORT WAYNE,E STATE BLVD,VH36D,0.4161987172
IN,FORT WAYNE,DODGE AVE,WH31A,0.4161987172
IN,ROANOKE,BRANSON BLVD,TJ22B,0.01148493283
IN,ROANOKE,BRANSON BLVD,TJ22B,0.01148493283
IN,,N STATE ROAD 39,HB10D,0.0113034007
IN,,US HWY 131,QA14B,0.01099479608
IN,MISHAWAKA,E LOWELL AVE,MB10A,0.1793961031
IN,ELKHART,ALLEY,OB08C,0.3619145589
IN,,LAKEWOOD ST,CF07C,0.01057122111
IN,MISHAWAKA,N MAIN ST,MA28D,0.1764008229
IN,KOKOMO,EXECUTIVE DR,MP11C,0.1761345758
IN,SOUTH BEND,JACKSON RD,MB28C,0.007594094155
IN,,WINTERS RD,UJ11D,0.00750937916
IN,KENDALLVILLE,MARION DR,UD35D,0.007400459881
IN,KENDALLVILLE,MARION DR,UD35D,0.007400459881
IN,CROWN POINT,BROADWAY,CE09D,0.1747549316
IN,CROWN POINT,BROADWAY,CE09D,0.1747549316
IN,,W US HWY 6,HD06A,0.006492799225
IN,,COUNTY ROAD 29,PD03D,0.006026866755
IN,,E KEISER RD,SH24D,0.00588164105
IN,,GALENA RIV,IA07C,0.005675904635
IN,,CHERYL DR,NA19A,0.009669611521
IN,NAPPANEE,STONEWALL CT,OE06A,0.005191818952
IN,NAPPANEE,STONEWALL CT,OE06A,0.005191818952
IN,WATERLOO,COUNTY ROAD 35,WE09B,0.005082899673
IN,WATERLOO,COUNTY ROAD 35,WE09B,0.005082899673
IN,,S COUNTY ROAD 700 E,LM13D,0.004683528985
IN,CROWN POINT,W 100TH AVE,CD33C,0.08148977369
IN,,US HWY 224,VL04A,0.004078421881
IN,PLYMOUTH,W GARRO ST,LF05B,0.3223284521
IN,,N STATE HWY 3 RD,UD05D,0.003673000121
IN,,SWEETBRIER RD,KD18B,0.003648795837
IN,,N QUEEN RD,KD23D,0.003582234055
IN,,N QUINCE RD,KD25C,0.003582234055
IN,BUTLER,W LIBERTY ST,XE02D,0.07811932712
IN,,AUTUMN TREE DR,VG35A,0.16644076
IN,SOUTH BEND,E EWING AVE,MB18D,0.3959457824
IN,OCEOLA,BASSWOOD RD,NB17B,0.163203437
IN,OCEOLA,BASSWOOD RD,NB17B,0.163203437
IN,LIGONIER,E 3RD ST,RD27B,0.1285913107
IN,FORT WAYNE,E BRACKENRIDGE ST,VI11B,0.1605470168
IN,FORT WAYNE,BRIDGEWAY CIR,VI36C,0.07047077333
IN,GOSHEN,LAUREL BAY,PC27B,0.04177659446
IN,PORTAGE,SARAH ST,DC24B,0.1588406148
IN,PORTAGE,MACON ST,DC24B,0.1588406148
IN,FORT WAYNE,UNKNOWN,VI23B,0.3905905845
IN,FORT WAYNE,BUTLER RD,VH33B,0.06749364638
IN,,HOMESTEAD RD,UI28B,0.1263100569
IN,,LEE PL,BD26C,0.1549860825
IN,MERRILLVILLE,GRANT ST,CD20B,0.1543083626
IN,,IRONWOOD RD,MA19D,0.2590705555
IN,KOKOMO,MATTHEW DR,NP08C,0.06482512405
IN,FORT WAYNE,BEACON ST,WH31B,0.3842188067
IN,GOSHEN,COUNTY ROAD 19,PC05B,0.120609948
IN,FORT WAYNE,E WALLACE ST,VI12A,0.341740288
IN,,CR 770 S,TC32D,0.007878494494
IN,,WANDERING WAY,VG30C,0.06060752753
IN,,STONEGATE CIR,OB35C,0.06011739078
IN,,SHALLOWBROOK DR,UI18A,0.0600084715
IN,PORTAGE,MULBERRY AVE,DC13C,0.1472407116
IN,FORT WAYNE,OAKLAND ST,VI03B,0.3762434951
IN,FORT WAYNE,W OAKDALE DR,VI14C,0.5286820767
IN,,ANCHORAGE RD,PF33C,0.02882730243
IN,,1ST AVE,OG25C,0.004187341159
IN,ELKHART,W MARION ST,OB05C,0.4326878858
IN,FORT WAYNE,THAMESFORD DR,WH15A,0.141734237
IN,SCHERERVILLE,W 75TH AVE,BD14C,0.2442393804
IN,SOUTH BEND,ALLEY ALY,LB14B,0.264226068
IN,WARSAW,4TH ST,PG05B,0.1075033281
IN,NAPPANEE,S MAIN ST,OD31C,0.2044475372
IN,FORT WAYNE,HIDDEN RIVER DR,WH07C,0.1388236718
IN,MISHAWAKA,RUNAWAY BAY CIR,MB04B,0.36593247
IN,MISHAWAKA,RUNAWAY BAY CIR,MB04B,0.36593247
IN,WATERLOO,S WAYNE ST,WE03C,0.06202952923
IN,,N 100 E,XK14C,0.01223526564
IN,FORT WAYNE,CLOVER LN,VH34C,0.3636512163
IN,ELKHART,10TH ST,OB08C,0.3619145589
IN,MISHAWAKA,W 6TH ST,MB17C,0.2230303764
IN,MISHAWAKA,W 6TH ST,MB17C,0.2230303764
IN,MERRILLVILLE,W 59TH PL,CD04C,0.2035035701
IN,,W MICHAEL PL,GB12C,0.02701198112
IN,,COUNTY HWY 20,NB15A,0.046593247
IN,,STATE ROAD 119,PC18C,0.01909112913
IN,FORT WAYNE,LARCH LN,VH13C,0.2363608859
IN,FORT WAYNE,W WASHINGTON CENTER RD,VH23B,0.2363608859
IN,FORT WAYNE,HOWELL ST,VI03A,0.2787123321
IN,FORT WAYNE,BROOKLYN AVE,VI15A,0.1312961394
IN,WALKERTON,US HWY 6,JD23D,0.0748638509
IN,WALKERTON,US HWY 6,JD23D,0.0748638509
IN,NAPPANEE,N MAIN ST,OD31A,0.2658174997
IN,PLYMOUTH,UNKNOWN,LE32D,0.2255718262
IN,,E GUMP RD,VG15D,0.03004961878
IN,VALPARAISO,ANDOVER DR,ED01C,0.130406632
IN,FORT WAYNE,BAY VIEW DR,WH32D,0.2326878858
IN,,S 800 E,JC16C,0.02286094639
IN,MICHIGAN CITY,LIBERTY TRL,GA27A,0.2322885151
IN,GOSHEN,WEYMOUTH BLVD,PC27B,0.04177659446
IN,,CHESTNUT LN,OB13A,0.128536851
IN,WATERLOO,S WAYNE ST,WE10A,0.04111097664
IN,DECATUR,US HIGHWAY 27 S,XL10C,0.1276654968
IN,DECATUR,US HIGHWAY 27 S,XL10C,0.1276654968
IN,,SHEFFIELD AVE,AD24C,0.07154786397
IN,FORT WAYNE,W JEFFERSON BLVD,VI10A,0.1954980031
IN,,HICKORY RD,MA16C,0.1261103715
IN,FORT WAYNE,MAPLECREST RD,WH15C,0.1905905845
IN,SCHERERVILLE,E 73RD AVE,BD13B,0.1256928476
IN,SCHERERVILLE,E 73RD AVE,BD13B,0.1256928476
IN,ELKHART,9TH ST,OB17A,0.3507200775
IN,ELKHART,W BLAINE AVE,OB08C,0.3507200775
IN,GARY,W 3RD AVE,CC05B,0.4581870991
IN,SOUTH BEND,ALLEY,LA34C,0.3654060269
IN,GOSHEN,ALLEY ALY,PC10C,0.4976461334
IN,ELKHART,W BEARDSLEY AVE,OB05A,0.3063959821
IN,,COUNTY LINE RD,JA27C,0.1216930897
IN,NAPPANEE,S LOCKE ST,ND36D,0.2044475372
IN,FORT WAYNE,RIDGEWOOD DR,VH25A,0.1205736415
IN,LIGONIER,TOWNLINE RD,RD28D,0.1201682198
IN,FORT WAYNE,FOX POINT TRL,WI31C,0.1199685344
IN,MISHAWAKA,N MAIN ST,MA33D,0.1190306184
IN,,E 450 N,QF20A,0.03281495825
IN,,US HIGHWAY 20,KA28D,0.01246520634
IN,,US HIGHWAY 20,KA28D,0.01246520634
IN,FORT WAYNE,LASALLE ST,VI12A,0.341740288
IN,PORTAGE,DOLPHIN DR,DC10C,0.1175541571
IN,FORT WAYNE,W DUPONT RD,VH02A,0.1173907782
IN,,E LINCOLNWAY,TH15C,0.004417281859
IN,,ASH RD,NB21B,0.03573762556
IN,CEDAR LAKE,CLINE AVE,BE23A,0.11661019
IN,,N 850 E,QF35B,0.00372745976
IN,HAMMOND,171ST ST,BC08C,0.3388841825
IN,BUTLER,LAKE SIDE AVE,XE11D,0.004495945782
IN,FORT WAYNE,ALEXANDER ST,WI18A,0.4834866271
IN,HUDSON,W STATE HWY 4,WC31C,0.006529105652
IN,HUDSON,W STATE HWY 4,WC31C,0.006529105652
IN,,COUNTY ROAD 400 E,JJ34A,0.001319133487
IN,,E BEECH AVE,SG12A,0.02698777684
IN,CROWN POINT,E CLARK ST,CE08B,0.2113941668
IN,FORT WAYNE,W 4TH ST,VI03A,0.4305700109
IN,ZANESVILLE,INDIANAPOLIS RD,UJ34C,0.004259954012
IN,WARSAW,MED PARK DR,PG09B,0.1075033281
IN,SOUTH BEND,MIAMI ST,LB13B,0.32785308
IN,,LANE 650B SNOW LK,WA28A,0.02069466296
IN,MILFORD,W SYRACUSE ST,PE08B,0.2058513857
IN,SOUTH BEND,WOODLAWN BLVD,LA35A,0.3253479366
IN,,W ENT RD,PF21C,0.005917947477
IN,,N 400 W,OF27B,0.005917947477
IN,SOUTH BEND,W NORTH SHORE DR,LA35D,0.1043325669
IN,WOODBURN,ASH ST,YH20D,0.01714268426
IN,SCHERERVILLE,W 85TH AVE,BD25A,0.1899370689
IN,FORT WAYNE,ADAMS ST,WI18B,0.101276776
IN,,COUNTY ROAD 20,NB14A,0.046593247
IN,GRIFFITH,W PINE ST,BC34A,0.1006414135
IN,,BRENDON HILLS DR,MA22A,0.1004840857
IN,MISHAWAKA,CLEVELAND RD,MA22C,0.1004840857
IN,MISHAWAKA,CLEVELAND RD,MA22C,0.1004840857
IN,SOUTH BEND,HEPLER ST,MA32D,0.4668703861
IN,FORT WAYNE,NELSON ST,VI10B,0.417378676
IN,FORT WAYNE,W WASHINGTON CENTER RD,VH16D,0.2146133366
IN,FORT WAYNE,OXFORD ST,VI13A,0.4643712937
IN,FORT WAYNE,BUCKHURST RUN,WH33A,0.1980939126
IN,,E SHAFER DR,HL05B,0.01197506959
IN,SOUTH BEND,PARK SOUTH BLVD,LB36B,0.0961757231
IN,SOUTH BEND,PARK SOUTH BLVD,LB36B,0.0961757231
IN,CROWN POINT,E GREENWOOD AVE,CE09C,0.1952438582
IN,FORT WAYNE,FIGEL AVE,VH26D,0.1205736415
IN,LIGONIER,W US HIGHWAY 6,RD27C,0.1201682198
IN,LIGONIER,W US HIGHWAY 6,RD27C,0.1201682198
IN,AVILLA,OLD BOG RD,UE34A,0.009367057969
IN,LONG BEACH,MOUNT CLAIR WAY,GA14B,0.09310177901
IN,LONG BEACH,MOUNT CLAIR WAY,GA14B,0.09310177901
IN,SCHERERVILLE,W 77TH AVE,BD16C,0.1915587559
IN,,TURF LN,UI15D,0.191056517
IN,,TIMBERMILL RUN,UI14A,0.191056517
IN,NAPPANEE,E CENTENNIAL ST,OD31A,0.2658174997
IN,,NORTHFIELD DR,OA17C,0.09014885635
IN,,W 300 S,GC17D,0.005827181411
IN,ELKHART,N MICHIGAN ST,OB05A,0.4523417645
IN,ST. JOHN,WICKER AVE,BD33C,0.08807333898
IN,SOUTH BEND,S MICHIGAN ST,LB12C,0.1867360523
IN,ELKHART,W SYCAMORE ST,OB05A,0.4601052886
IN,,FIRST ST,QG26C,0.00372745976
IN,ELKHART,MCNAUGHTON AVE,OA31C,0.04299285974
IN,,S US HWY 421,IP04B,0.002777441607
IN,FORT WAYNE,W FERGUSON RD,VJ09B,0.00273508411
IN,,US HWY 421,GG17B,0.002027108798
IN,,US HWY 6,WE06B,0.001712453104
IN,KOKOMO,WAUGH,NO30A,0.157067651
IN,,UNNAMED STREET,KJ31C,0.0007261285247
IN,HEBRON,W 725 S,DF11A,0.08355318891
IN,HEBRON,W 725 S,DF11A,0.08355318891
IN,,OHIO DR,NA34A,0.08348057606
IN,VALPARAISO,CAMPBELL ST,ED23D,0.2372382912
IN,KENDALLVILLE,W NORTH ST,UD29C,0.0291056517
IN,AUBURN,N MAIN ST,WE29A,0.08268788576
IN,ELKHART,KILBOURN ST,OB06D,0.4523417645
IN,LOGANSPORT,POLLARD ST,KL23D,0.02823429747
IN,MISHAWAKA,E BORLEY AVE,MB10B,0.1793961031
IN,CROWN POINT,STILLWATER PKWY,CE16B,0.05652910565
IN,CROWN POINT,STILLWATER PKWY,CE16B,0.05652910565
IN,SOUTH BEND,ALLEY,LB15B,0.08022509984
IN,SCHERERVILLE,W 85TH AVE,BD21D,0.07895437492
IN,ST. JOHN,W 85TH AVE,BD21C,0.07895437492
IN,ST. JOHN,W 85TH AVE,BD21C,0.07895437492
IN,SCHERERVILLE,W 85TH AVE,BD21D,0.07895437492
IN,FORT WAYNE,SMITH ST,VI13B,0.4643712937
IN,FORT WAYNE,OLD US HWY 30,VH21A,0.2146133366
IN,FORT WAYNE,OLD US HWY 30,VH21A,0.2146133366
IN,BLUFFTON,WATER ST,VM04A,0.2683892049
IN,,VERDANO TER,DE03D,0.01455282585
IN,ELKHART,PLEASANT PLAIN AVE,OB16D,0.2963148977
IN,,HYDE PARK DR,OA25D,0.07375045383
IN,,JAMES LAWRENCE PKWY,MA14C,0.1704889265
IN,MISHAWAKA,FOREST AVE,MB09C,0.4304308363
IN,INDIAN VILLAGE,DOUGLAS RD,MA30C,0.287141474
IN,SOUTH BEND,US HWY 31 BUS,LA36C,0.287141474
IN,LOWELL,MEADOWBROOK DR,BF27B,0.07164468111
IN,,N GOLDRING RD,GB24A,0.01778409779
IN,FORT WAYNE,LAKE AVE,WH31C,0.4274779136
IN,GOSHEN,COUNTY ROAD 45,PB31C,0.070016943
IN,GOSHEN,COUNTY ROAD 45,PB31C,0.070016943
IN,,LEO RD,WG31B,0.06998668764
IN,GARY,W 41ST AVE,CC28D,0.3782282464
IN,ELKHART,B AND O RAILROAD,OA28D,0.1668219775
IN,SOUTH BEND,EMERSON FOREST PKWY,LB22B,0.01628343217
IN,HAMMOND,ALLEY,BB30D,0.1389688975
IN,,TONKEL RD,WG31A,0.0679474767
IN,FORT WAYNE,WINDRUSH DR,VH33B,0.06749364638
IN,,PAINTED DESERT RUN,VH32A,0.06749364638
IN,FORT WAYNE,NUTTMAN AVE,VI15A,0.1312961394
IN,,HUNTING RIDGE TRL N,MA15B,0.1630763645
IN,DECATUR,INDUSTRIAL PARK,XL04A,0.06610795111
IN,DECATUR,INDUSTRIAL PARK,XL04A,0.06610795111
IN,KOKOMO,GOYER RD,NP08C,0.06482512405
IN,,BEAVER CREEK CT,UI28B,0.06423817016
IN,DYER,SAINT ANDREWS DR,BD06B,0.06415950623
IN,,875 N,JE01A,0.0355621445
IN,WATERLOO,COUNTY ROAD 37,WE10A,0.06202952923
IN,WATERLOO,COUNTY ROAD 37,WE10A,0.06202952923
IN,AUBURN,S JACKSON ST,WE32C,0.3109100811
IN,ELKHART,OLD FARM DR,OB20A,0.03312356287
IN,,COUNTY ROAD 24,NB24D,0.03311146073
IN,MISHAWAKA,WEBSTER ST,MB09A,0.2873532615
IN,,W HAMILTON RD N,UI17B,0.0600084715
IN,MERRILLVILLE,GRANT ST,CD26B,0.1543083626
IN,PORTAGE,CROCUS ST,DC11A,0.1541691879
IN,MUNSTER,SOUTH ST,AC24B,0.2381459518
IN,KOKOMO,DELPHOS,NP06C,0.2303642745
IN,,W 950 S,OH35A,0.002123925935
IN,BLUFFTON,W PERRY ST,VM04B,0.2683892049
IN,BLUFFTON,E ELM ST,VM04B,0.2683892049
IN,,E ARMSTRONG RD,QF17C,0.02543265158
IN,,BLUFFTON RD,VJ28D,0.00273508411
IN,GARRETT,E EDGERTON ST,VF03A,0.2818165315
IN,,W COUNTY LINE RD,KD30C,0.05330388479
IN,ELKHART,SUPERIOR ST,OB04B,0.2238835774
IN,,E 700 N,FC36A,0.009149219412
IN,,IRONWOOD RD,MA30D,0.1470591795
IN,SOUTH BEND,BOW CT,LA27A,0.4013917463
IN,LIGONIER,COLLEGE ST,RD27C,0.1285913107
IN,FORT WAYNE,EDSALL AVE,WI07D,0.1338375893
IN,FORT WAYNE,STELLHORN RD,WH21C,0.1851869781
IN,,S HAWTHORN ST,PA32A,0.02450078664
IN,KOKOMO,ALLEY,NO30C,0.157067651
IN,KOUTS,COYOTE TRL,FF07D,0.03612489411
IN,MISHAWAKA,N HOME ST,MB02A,0.02733268789
IN,FORT WAYNE,DALMAN AVE,VI14B,0.2588527169
IN,HAMMOND,CALUMET AVE,BB18C,0.0482028319
IN,GARRETT,FOREST PARK DR,VE35A,0.0122231635
IN,MIDDLEBURY,ORPHA DR,QB15C,0.03271209004
IN,ELKHART,SUGAR MAPLE LN,OA27C,0.04710758804
IN,FORT WAYNE,MARAL CT,VH01B,0.04701077091
IN,GOSHEN,GREENCROFT DR,PC22B,0.1240832627
IN,FORT WAYNE,WARSAW ST,VI24A,0.2237141474
IN,,S 1000 W,NH01B,0.01569042721
IN,WINONA LAKE,E SANDY DR,PG26B,0.01567832506
IN,HOBART,UNION ST,DC21A,0.0451107346
IN,HOBART,UNION ST,DC21A,0.0451107346
IN,CEDAR LAKE,MEADOWLARK LN,BE22B,0.04454798499
IN,,STATE ROAD 933,LA13C,0.1791722135
IN,WARSAW,E OLD ROAD 30,PG14A,0.04359191577
IN,WARSAW,E OLD ROAD 30,PG14A,0.04359191577
IN,ROSELAND,STATE ROAD 933,LA24C,0.1125559724
IN,ROSELAND,STATE ROAD 933,LA24C,0.1125559724
IN,FORT WAYNE,W PETTIT AVE,VI23B,0.3905905845
IN,FORT WAYNE,E MAPLEGROVE AVE,VI23B,0.3905905845
IN,,PIONEER ST,PC34D,0.04177659446
IN,,COTTAGE GROVE DR,QA25C,0.01099479608
IN,GARY,E 21ST AVE,CC14A,0.03876921215
IN,FORT WAYNE,EDGEWOOD AVE,VH26D,0.246333051
IN,GRABILL,ROTH RD,WG25B,0.03761345758
IN,GRABILL,MOOSIER ST,WG25A,0.03761345758
IN,,STURGIS PRAIRIE RD,TA30A,0.008193150188
IN,ROME CITY,COUNTY ROAD 400 E,TD14A,0.007981362701
IN,ROME CITY,COUNTY ROAD 400 E,TD14A,0.007981362701
IN,,W 700 N,PF06C,0.007648553794
IN,,W 700 N,PF06C,0.007648553794
IN,,N 50 W,ED02B,0.03633668159
IN,,N 50 W,ED02B,0.03633668159
IN,,HARRISON RD,NB17C,0.03573762556
IN,,SYLVAN MEADOWS DR,UI16C,0.03554399129
IN,,PHEASANT COVE DR N,NA09C,0.1296623502
IN,,CR 20 E,PF21C,0.005917947477
IN,,OSAGE DR,OB14B,0.128536851
IN,NAPPANEE,CHEYENNE ST,ND35A,0.00494977611
IN,,SYRACUSE-WEBSTER RD,QF03A,0.00477429505
IN,,SYRACUSE-WEBSTER RD,QF03A,0.00477429505
IN,,COUNTY ROAD 21,PC21A,0.01909112913
IN,GARY,WASHINGTON ST,CC33B,0.3782282464
IN,FREEMONT,E 550 N,XA28D,0.004284158296
IN,,UNKNOWN,OB19C,0.03311146073
IN,,UNKNOWN,OB19C,0.03311146073
IN,,FALL CREEK DR,MA20A,0.1261103715
IN,PORTAGE,KINGMAN AVE,DC26A,0.03180442938
IN,SOUTH BEND,MAPLE LANE AVE,MA32C,0.237819194
IN,SOUTH BEND,MAPLE LANE AVE,MA32C,0.237819194
IN,SOUTH BEND,N IRONWOOD DR,MA31D,0.237819194
IN,,COUNTY ROAD 600 N,UA24C,0.002190487716
IN,NAPPANEE,WREN ST,ND36A,0.0898463028
IN,MERRILLVILLE,DELAWARE ST,CD03C,0.09901972649
IN,MERRILLVILLE,E 84TH AVE,CD22C,0.03043688733
IN,GARY,W 20TH PL,CC09D,0.2361309452
IN,,HUMMINGBIRD DR,KB02D,0.029983057
IN,LAPORTE,REGENCY PKWY,HC02D,0.2358949534
IN,LOGANSPORT,22ND ST,LL30D,0.3730303764
IN,GOSHEN,COLLEGE AVE,PC13C,0.01457703013
IN,,W US HWY 6,GD02A,0.002626164831
IN,,WHITE HAWK DR,CD31C,0.1213844851
IN,FORT WAYNE,E WAYNE ST,VI01C,0.1605107104
IN,ELKHART,COUNTY ROAD 17,OB12B,0.02756262859
IN,ELKHART,COUNTY ROAD 17,OB12B,0.02756262859
IN,,DAY RD,MA35D,0.02733268789
IN,FORT WAYNE,HEATHERWIND DR,WH32D,0.2326878858
IN,MICHIGAN CITY,VAIL ST,GA28C,0.2322885151
IN,PERU,N GRANT ST,NL28D,0.3690729759
IN,HIGHLAND,GEORGETOWN DR,BC33A,0.1199080237
IN,PLYMOUTH,W MONROE ST,LF05B,0.3223284521
IN,MISHAWAKA,W EDISON RD,MA33D,0.1190306184
IN,SOUTH BEND,GRAPE RD,MB04A,0.36593247
IN,DYER,MAIN ST,AD01A,0.2287607407
IN,DYER,MAIN ST,AD01A,0.2287607407
IN,SCHERERVILLE,WOODHOLLOW DR,BD05B,0.2282645528
IN,MUNSTER,MAIN ST,BC31D,0.2282645528
IN,MICHIGAN CITY,ROYAL RD,GA26B,0.02349630885
IN,WARSAW,S COLFAX ST,PG16A,0.04762798015
IN,,DOMKE DR,ED36B,0.02324216386
IN,LOGANSPORT,ALLEY,KL25B,0.4006898221
IN,OSSIAN,HICKORY LN,VK16B,0.09759167373
IN,,COUNTY ROAD 18,PB16C,0.02114244221
IN,,COUNTY ROAD 18,PB16D,0.02114244221
IN,KENDALLVILLE,CLARK ST,UD33D,0.3614667796
IN,CHESTERTON,DICKINSON RD,FC07B,0.02075517367
IN,CHESTERTON,DICKINSON RD,FC07B,0.02075517367
IN,LIGONIER,N MAIN ST,RD22C,0.05318286337
IN,,W DIVISION RD,DD35C,0.01990197265
IN,,PINE TREE PL,NA27D,0.0195994191
IN,,N COUNTY LINE RD E,WF34C,0.01897615878
IN,COLUMBIA CITY,ALLEY ALY,SH02C,0.3127254024
IN,MERRILLVILLE,E 53RD AVE,CD03A,0.2220137964
IN,MERRILLVILLE,E 53RD AVE,CD03A,0.2220137964
IN,FORT WAYNE,WOODLYNN DR,WI29D,0.2216809875
IN,,SNAKE RD,HB19C,0.01778409779
IN,,SNAKE RD,HB19C,0.01778409779
IN,,W STATE ROAD 231,CE23C,0.01740288031
IN,,W STATE ROAD 231,CE23C,0.01740288031
IN,HAMMOND,ALLEY,BC09D,0.2307212877
IN,WOODBURN,BECKER RD,YH29B,0.01714268426
IN,WOODBURN,BECKER RD,YH29B,0.01714268426
IN,SOUTH BEND,W MARION ST,LB02D,0.3186494009
IN,,HAZELHURST DR,UI24B,0.01622897253
IN,ELKHART,ADAMS ST,OA33A,0.2189761588
IN,ELKHART,ADAMS ST,OA33A,0.2189761588
IN,ELKHART,N NAPPANEE ST,NA36D,0.07744765824
IN,MICHIGAN CITY,E COOLSPRING AVE,GB04A,0.264649643
IN,AVILLA,E ALBION ST,UE35A,0.01444995764
IN,AVILLA,LEY ST,UE27D,0.01444995764
IN,SOUTH BEND,CURTISS DR,LB04B,0.1048287547
IN,,E 1200 N-57,TC32D,0.01239864456
IN,GARRETT,N FRANKLIN ST,VE34C,0.0122231635
IN,WANATAH,W US HWY 30,GD32C,0.01205978458
IN,WANATAH,W US HWY 30,GD32C,0.01205978458
IN,ROANOKE,S MAIN ST,TJ23A,0.01148493283
IN,ROANOKE,S MAIN ST,TJ23A,0.01148493283
IN,ROANOKE,HIGH ST,TJ23A,0.01148493283
IN,LEO-CEDARVILLE,POPLAR CREEK PL,WG16D,0.01124288999
IN,GARRETT,E 1ST AVE,VF03C,0.2475977248
IN,WARSAW,BASS ST,PG17A,0.1718625197
IN,,US HIGHWAY 6,LD25C,0.0095485901
IN,,US HIGHWAY 6,LD25C,0.0095485901
IN,AVILLA,PEGGY LN,UE34A,0.009367057969
IN,,RUHI GARDEN DR,NP03B,0.009276291904
IN,,BASSWOOD RD,NB20A,0.008943482996
IN,,EMS B53 LN,QF28B,0.03281495825
IN,FORT WAYNE,HURD ST,VI12D,0.1391322764
IN,,W STATE HWY 727,WA35C,0.008707491226
IN,,N STATE ROAD 127,WA35C,0.008707491226
IN,FORT WAYNE,DALMAN AVE,VI13A,0.3074549195
IN,GOSHEN,BASHOR RD,PC05D,0.1690608738
IN,ANGOLA,BLUFFVIEW DR,WB36A,0.007854290209
IN,,COUNTY ROAD 38,QC29B,0.007618298439
IN,FORT WAYNE,GREYTHORN DR,WH35C,0.09878373472
IN,,HARTZELL RD,WJ02A,0.007007140264
IN,,HARTZELL RD,WJ02A,0.007007140264
IN,CROMWELL,UNNAMED STREET,RE16B,0.00675299528
IN,CROMWELL,UNNAMED STREET,RE16B,0.00675299528
IN,ROANOKE,CRESTWOOD DR,TJ15B,0.006613820646
IN,ROANOKE,CRESTWOOD DR,TJ15B,0.006613820646
IN,,RANGE RD,HA36D,0.006371777805
IN,,TIMBERLAKE TRL,UI11C,0.2075638388
IN,,WHITE CEDAR RD,UI10A,0.2075638388
IN,BERNE,MILL POND RD,XN05C,0.006268909597
IN,BERNE,MILL POND RD,XN05C,0.006268909597
IN,,S 280 W,EL27C,0.005978458187
IN,,N 575 W,EG30C,0.005966356045
IN,,MURRAY RD,IB06C,0.005675904635
IN,,COUNTY HWY 400 S,HC24D,0.00564564928
IN,,COUNTY HWY 400 S,HC24D,0.00564564928
IN,,W 395 S,VC07C,0.005633547138
IN,,LANE 105 TURKEY LK,VC07A,0.004986082537
IN,,LANE 105 TURKEY LK,VC07A,0.004986082537
IN,FLORA,S 3RD ST,JO10A,0.004750090766
IN,FLORA,S 3RD ST,JO10A,0.004750090766
IN,,CHICORY LN,NA17C,0.0949231514
IN,MILLERSBURG,STATE HWY 13,QC34D,0.02748396466
IN,KOKOMO,W SUPERIOR ST,MO35B,0.1806849812
IN,,TRAILS N,MA08D,0.09415466538
IN,,IRONWOOD RD,MA07D,0.09415466538
IN,,COUNTY ROAD 700 E,JH36D,0.002916616241
IN,,STATE HWY 25,NG33D,0.002813748033
IN,ROCHESTER,MONTICELLO RD,MI06B,0.002777441607
IN,,E US HWY 224,VL01B,0.002311509137
IN,,STATE HWY 110,MG36C,0.002196538787
IN,KOKOMO,MAIN ST,MO25D,0.299485659
IN,,E STATE ROAD 18,LN31A,0.001567227399
IN,,NEHR RD,QJ09D,0.001361490984
IN,,CR 600 RD N,CI01A,0.001258622776
IN,,CR 600 RD N,CI01A,0.001258622776
IN,MOROCCO,W STATE ROAD 114,BJ28A,0.001198112066
IN,MOROCCO,W STATE ROAD 114,BJ28A,0.001198112066
IN,LOGANSPORT,US HIGHWAY 24 W,KL26D,0.2009137117
IN,LOGANSPORT,US HIGHWAY 24 W,KL26D,0.2009137117
IN,,LANE 101A CROOKED LK,WB09D,0.02380491347
IN,,SHADY LN,OA17A,0.09014885635
IN,ANGOLA,BITTER SWEET CT,WB23A,0.08928355319
IN,,SABLE RIDGE DR,MA20A,0.1261103715
IN,,CLOVER CT,MN36C,0.007249183105
IN,LOWELL,W 173RD AVE,BF13D,0.1254750091
IN,LOWELL,W 173RD AVE,BF13D,0.1254750091
IN,,N STATE HWY 9,SB12D,0.008193150188
IN,SYRACUSE,E PEARL ST,QE06D,0.2298620356
IN,ROME CITY,KELLY ST,TD16C,0.01973254266
IN,ROME CITY,KELLY ST,TD16C,0.01973254266
IN,LAPORTE,WELLER AVE,HB35C,0.1573399492
IN,,E 123RD AVE,DE16D,0.1922243737
IN,,N LAKESHORE DR,DE09B,0.1922243737
IN,,E 123RD AVE,DE16D,0.1922243737
IN,,N LAKESHORE DR,DE09B,0.1922243737
IN,OSSIAN,N JEFFERSON ST,VK15A,0.09759167373
IN,PORTAGE,PORTAGE AVE,DC12B,0.1920125862
IN,KOKOMO,PINE CIR S,MP13D,0.1674210335
IN,PLYMOUTH,W LAPORTE ST,LF05C,0.08291177538
IN,ELKHART,MASON ST,OB08A,0.2366815926
IN,SCHERERVILLE,W LINCOLN HWY,BD14D,0.1899370689
IN,FORT WAYNE,W JEFFERSON BLVD,VI08B,0.08162289725
IN,BLUFFTON,S MORGAN ST,VM04A,0.3198112066
IN,WARSAW,E SPRINGHILL RD,PG04D,0.1075033281
IN,FORT WAYNE,MONROE ST,VI12A,0.1869417887
IN,,OLD MILL DR,OA36A,0.1855318891
IN,ELKHART,W BRISTOL ST,OA32A,0.184926782
IN,TOPEKA,INDIANA ST,RC36B,0.009542539029
IN,ELKHART,ILLINOIS ST,OB07C,0.1829843882
IN,GARY,ALLEY ALY,CC03A,0.3138145952
IN,KOKOMO,ALBANY DR,NP18C,0.07380491347
IN,HAMMOND,UNKNOWN,BB30C,0.3120476824
IN,WARSAW,S INDIANA ST,PG08C,0.2444753721
IN,ELKHART,N WILDWOOD AVE,OB06C,0.1806426237
IN,KOKOMO,VERSAILLES DR,MP10B,0.07310298923
IN,OCEOLA,LINCOLN WAY E,NB16B,0.1104380975
IN,OCEOLA,LINCOLN WAY E,NB16B,0.1104380975
IN,,N STATE ROAD 5,RA27B,0.005748517488
IN,FORT WAYNE,E WILDWOOD AVE,VI14B,0.3074549195
IN,SCHERERVILLE,W 81ST AVE,BD24D,0.3073096938
IN,KOKOMO,PARK RD,MP12C,0.1761345758
IN,VALPARAISO,LOCUST ST,ED24B,0.2601294929
IN,VALPARAISO,ERIE ST,ED24C,0.2601294929
IN,SOUTH BEND,HEPLER ST,MA32C,0.1726854653
IN,SOUTH BEND,HEPLER ST,MA32C,0.1726854653
IN,,E BROWN RD,QF20A,0.03281495825
IN,,EMS B59 LN,QF28B,0.03281495825
IN,MIDDLEBURY,DIRT LN,QB15C,0.03271209004
IN,,COUNTY ROAD 1150 E,JE01B,0.0355621445
IN,,ELLINGTON DR,MA14B,0.1704889265
IN,,JAMES LAWRENCE PKWY,MA14D,0.1704889265
IN,,300 RD S,MP14D,0.03395861067
IN,SCHERERVILLE,E 77TH AVE,BD22A,0.1688914438
IN,SCHERERVILLE,E 77TH AVE,BD22A,0.1688914438
IN,BLUFFTON,EASTMOOR DR,VL34C,0.03303884788
IN,LIGONIER,STATION ST,RD27A,0.1285913107
IN,KENDALLVILLE,HARLASH ST,UD29D,0.0291056517
IN,,BROOK BLVD,PF34D,0.02882730243
IN,MIDDLEBURY,JOAN DR,QB22A,0.02859736173
IN,ELKHART,BOARDWALK,OA28D,0.1668219775
IN,ELKHART,BOARDWALK,OA28D,0.1668219775
IN,,RIVULET RUN,VG30C,0.06060752753
IN,FORT WAYNE,LIBERTY DR,VI27C,0.1654241801
IN,FORT WAYNE,WAYNEWOOD DR,VI28D,0.1654241801
IN,FORT WAYNE,SUMMER CHASE RD,VG32C,0.164909839
IN,ANGOLA,S WAYNE ST,WB35B,0.2274053007
IN,GOSHEN,COLEBROOK DR,PC27C,0.04177659446
IN,OCEOLA,FRANKLIN ST,NB17A,0.163203437
IN,OCEOLA,FRANKLIN ST,NB17A,0.163203437
IN,FORT WAYNE,E PAULDING RD,VI24C,0.2488381944
IN,,FOXDALE LN,MA15C,0.1630763645
IN,,COUNTRY KNOLLS DR,MA10C,0.1630763645
IN,MICHIGAN CITY,MANHATTAN ST,GA29C,0.248547743
IN,,BARRYKNOLL WAY,MA09C,0.09415466538
IN,,US HWY 6,EC29B,0.2914377345
IN,LAGRANGE,N MOUNTAIN ST,TB19C,0.19497156
IN,,W SMALL RD,HB33C,0.02631610795
IN,FORT WAYNE,ALLEY,VI02D,0.1605470168
IN,VALPARAISO,THORN APPLE WAY,ED26A,0.05473798862
IN,LIGONIER,PONTIAC,RD27C,0.1201682198
IN,,COUNTY ROAD 14,PB04B,0.02114244221
IN,LAPORTE,WELLER AVE,HB34D,0.1573399492
IN,PORTAGE,EXETER AVE,DC27C,0.1568558635
IN,,MANDRAKE AVE,PB27A,0.01919399734
IN,CROWN POINT,SILVER HAWK DR,CD31B,0.1213844851
IN,WARSAW,ARGONNE RD,PG10C,0.1170882246
IN,,ANDERSON RD,NA16D,0.05094396708
IN,FORT WAYNE,GLENOAK PKWY,WH26C,0.15587559
IN,,BENWELL PL,UJ13A,0.00750937916
IN,MERRILLVILLE,LINCOLN ST,CD28A,0.1543083626
IN,MERRILLVILLE,POLO CLUB DR,CD20D,0.1543083626
IN,KOUTS,OAKDALE ST,FF07D,0.03612489411
IN,,EMS B3AR LN,QF27B,0.01638630038
IN,,EMS B9 LN,QF26A,0.01638630038
IN,,EMS B17 LN,QF26C,0.01638630038
IN,,M WAYLOR RD,QF27B,0.01638630038
IN,FORT WAYNE,RIEDMILLER AVE,VI10B,0.2813082416
IN,VALPARAISO,FORMULA DR,FD19A,0.2621626528
IN,,E 300 S,PG27C,0.01567832506
IN,,COUNTY ROAD 18,NB14D,0.046593247
IN,FORT WAYNE,INDEPENDENCE DR,VH28D,0.01736657388
IN,HAMMOND,HOHMAN AVE,AC13A,0.2780951228
IN,HAMMOND,HOHMAN AVE,AC13A,0.2780951228
IN,VALPARAISO,S 325 E,FD33A,0.02185646859
IN,VALPARAISO,S 325 E,FD33A,0.02185646859
IN,,LIMA RD,VG29A,0.0724192182
IN,,N 150 E,PF27D,0.02882730243
IN,LAPORTE,MONROE ST,IC06B,0.04471136391
IN,,E 1050 N,PE24A,0.01233208278
IN,,JOHNSON DR,FC31C,0.02075517367
IN,SOUTH BEND,S WALNUT ST,LB11C,0.2401791117
IN,,STATE ROAD 120,QA21D,0.01117027714
IN,FORT WAYNE,KENSINGTON BLVD,WI06A,0.04226673121
IN,DECATUR,MADISON ST,XL04B,0.0254084473
IN,,COUNTY ROAD 111,OC15B,0.009475977248
IN,GARRETT,E EDGEWATER DR N,VE34A,0.0122231635
IN,,COUNTY ROAD 4,QA23A,0.007575940942
IN,,YORK LN,QA22C,0.007575940942
IN,,HOLLY OAK RD,VG36D,0.03905966356
IN,,W 750 N,RA18B,0.006432288515
IN,FORT WAYNE,TANBARK LN,WH10C,0.141734237
IN,WARSAW,PRIVATE DR,PG08C,0.2444753721
IN,,S STATE ROAD 9,SH35B,0.00588164105
IN,,STATE HWY 127,WA26A,0.008707491226
IN,,COUNTY ROAD 22,NB23C,0.02098511437
IN,,PHEASANT RUN DR,GB07B,0.03695389084
IN,,UNNAMED STREET,WC15C,0.004822703619
IN,GOSHEN,COUNTY ROAD 28,PB31D,0.1729819678
IN,,S 150 E,TC20B,0.004592762919
IN,,S 065 E,TC18B,0.004592762919
IN,,S 065 E,TC18D,0.004592762919
IN,,UNKNOWN,OD20D,0.004459639356
IN,,LANE 201 TURKEY LK,VC18D,0.004338617935
IN,FREEMONT,PLEASANT ST,XA21C,0.004284158296
IN,SOUTH BEND,CLEVELAND RD,LA23C,0.2307031345
IN,SOUTH BEND,CLEVELAND RD,LA23C,0.2307031345
IN,SOUTH BEND,CLEVELAND RD,LA23C,0.2307031345
IN,GARY,W 40TH PL,CC28B,0.2727943846
IN,,JANATHON RD,WB01A,0.002686675542
IN,FORT WAYNE,E TILLMAN RD,WI28C,0.2216809875
IN,,COUNTY ROAD 4,OA13D,0.01080721288
IN,ELKHART,KELSEY AVE,OB16D,0.1370628101
IN,BLUFFTON,WESTFIELD DR,VL34C,0.03303884788
IN,FORT WAYNE,RIVER OAK DR,WH08A,0.03250030255
IN,FORT WAYNE,ARDMORE AVE,VI16C,0.06839525596
IN,UNIONDALE,UNNAMED STREET,UL01A,0.003279680503
IN,NEW HAVEN,SUMMIT ST,XI07A,0.06706402033
IN,,10TH ST,CG28A,0.002238896285
IN,MERRILLVILLE,HOSPITAL DR N,CD27A,0.03043688733
IN,,1050 RD W,LO29A,0.001772963815
IN,,US HWY 231,EH06A,0.007061599903
IN,,US HWY 231,EH06A,0.007061599903
IN,,EMMONS RD,MA19A,0.2590705555
IN,,CR 485 N,TA32A,0.003709306547
IN,FORT WAYNE,E BERRY ST,VI02D,0.1330751543
IN,SOUTH BEND,N GREENLAWN AVE,MB06D,0.2589253298
IN,,E 200 N,PF34D,0.02882730243
IN,DECATUR,S 1ST ST,XL03B,0.2654665376
IN,,COUNTY ROAD 13,OB23A,0.1748820041
IN,,DOWNEY ST,OA16C,0.06376013554
IN,,W HAMILTON RD S,UI29C,0.02755657751
IN,KOKOMO,GALVESTON RD,MO34C,0.1295171245
IN,ELKHART,JEANWOOD DR,OA34B,0.219417887
IN,ELKHART,JEANWOOD DR,OA34B,0.219417887
IN,,NORTHAMPTON DR,MP26A,0.02542660051
IN,DECATUR,N 13TH ST,XL03C,0.1276654968
IN,,W COUNTY LINE RD S,TI13B,0.0600084715
IN,,BRICK RD,MA17C,0.1261103715
IN,SCHERERVILLE,W 73RD AVE,BD13D,0.1256928476
IN,NORTH LIBERTY,WASHINGTON ST,KC28C,0.1254992134
IN,FORT WAYNE,UNKNOWN,VI10C,0.1312961394
IN,,OLD US HWY 27,WA14B,0.005978458187
IN,ELKHART,HAMMOND AVE,OB15C,0.1370628101
IN,CHESTERTON,PRIVATE RD,FC07C,0.02075517367
IN,FORT WAYNE,LIMA RD,VH26D,0.246333051
IN,NEW CARLISLE,US HIGHWAY 20,JA35A,0.1216930897
IN,NEW CARLISLE,US HIGHWAY 20,JA35A,0.1216930897
IN,,W DIVISION RD,ED33C,0.05537940215
IN,,W DIVISION RD,ED33C,0.05537940215
IN,,TERRACE BLVD,WB28A,0.0195570616
IN,CROWN POINT,N MAIN ST,CD32B,0.1213844851
IN,,MCKINLEY HWY,MB01D,0.04775505264
IN,KENDALLVILLE,N 1000 E,UD34D,0.1213118722
IN,KENDALLVILLE,PRODUCTION RD,UD35C,0.1213118722
IN,GOSHEN,JOHNSTON ST,PC04C,0.120609948
IN,HAMMOND,MICHIGAN ST,BC05A,0.1200653516
IN,,W 800 S,NH22D,0.002353866634
IN,WARSAW,N DETROIT ST,PG08C,0.2444753721
IN,FORT WAYNE,S ANTHONY BLVD,VI36B,0.1199685344
IN,,N STATE HWY 3,UB20B,0.002069466296
IN,MISHAWAKA,THRUSH ST,MA21D,0.05326152729
IN,ELKHART,ARBORCREST DR,OB10B,0.1192242527
IN,FORT WAYNE,LONGWOOD DR,VG35C,0.1186857074
IN,WINONA LAKE,AUDITORIUM BLVD,PG16D,0.2623683892
IN,VALPARAISO,CROSSCREEK RD,FD07A,0.1184678688
IN,VALPARAISO,CROSSCREEK RD,FD07A,0.1184678688
IN,VALPARAISO,SILHAVY RD,FD07B,0.1179837831
IN,VALPARAISO,SILHAVY RD,FD07B,0.1179837831
IN,BERNE,CLARK ST,XN05D,0.117971681
IN,BERNE,CLARK ST,XN05D,0.117971681
IN,FORT WAYNE,LONE EAGLE CT,VG33D,0.1173907782
IN,,W 100 N,DD36B,0.06307636452
IN,GARRETT,OAKLEAF DR,VF02A,0.01499455404
IN,WINFIELD,106TH AVE,DE05D,0.01467384727
IN,MUNSTER,WHITE OAK AVE,BC32C,0.2393198596
IN,,ARBOR POINTS DR,LA08D,0.01286457703
IN,,UNNAMED STREET,HA32D,0.0113034007
IN,MIDDLEBURY,SCOTT DR,QB10D,0.01099479608
IN,,ORCHARD PL PKWY,UD31B,0.009760377587
IN,,TREMONT LN,ED29C,0.06307636452
IN,FORT WAYNE,UNKNOWN,VH03B,0.1095727944
IN,CHESTERTON,SANDPIPER DR,FB31D,0.04382185647
IN,MICHIGAN CITY,SPRINGLAND AVE,GA28D,0.2322885151
IN,ANGOLA,BLUFFVIEW DR,WB35B,0.007854290209
IN,,CARRIAGE DR,KF12B,0.007255234176
IN,,EMS B42B LN,QF21A,0.03281495825
IN,HAMMOND,SUMMER ST,BC05D,0.1023538666
IN,DYER,KEILMAN ST,AD12C,0.2287607407
IN,DYER,SEMINRY DR,AD01A,0.2287607407
IN,DYER,213TH ST,BD07A,0.1058150793
IN,GARY,N HAMILTON ST,DB31D,0.111158175
IN,,E US HIGHWAY 224,VK33D,0.004078421881
IN,AKRON,SUNSET ST,NI24B,0.06689459034
IN,PORTAGE,JULIANNA AVE,EC18C,0.1040179112
IN,,US HWY 6,EC30B,0.1040179112
IN,,COUNTY HWY 700 S,ID06C,0.002753237323
IN,,STATE HWY 14,SI05C,0.002142079148
IN,FORT WAYNE,DUPREY DR,WH33D,0.2245612973
IN,,YOUNG ST,HE08B,0.001543023115
IN,,S US HWY 421,IO34A,0.001476461334
IN,AUBURN,LAFORGE LN,WE20A,0.08268788576
IN,WATERLOO,W UNION ST,WE03C,0.06202952923
IN,,W STATE ROAD 114,EJ25A,0.0007140263827
IN,MISHAWAKA,STATE ROAD 23,MA22C,0.1004840857
IN,MISHAWAKA,STATE ROAD 23,MA22C,0.1004840857
IN,VALPARAISO,UNION ST,FD30A,0.2220864093
IN,SOUTH BEND,N BENDIX DR,LB04B,0.2173907782
IN,FORT WAYNE,COVINGTON RD,VI16A,0.09554641171
IN,FORT WAYNE,CALAWAY DR,VG27A,0.09535277744
IN,GALVESTON,S PARK RD,MN32B,0.03027955948
IN,INDIAN VILLAGE,BRACKEN FERN DR,MA30A,0.0946084957
IN,FORT WAYNE,US HWY 30,VH21A,0.2146133366
IN,,W 750 N,RA16B,0.005748517488
IN,PORTAGE,STAGECOACH RD,DB35D,0.09123199806
IN,PORTAGE,STAGECOACH RD,DB35D,0.09123199806
IN,MISHAWAKA,FALLCREEK DR,MB23A,0.09469926177
IN,MUNSTER,COLUMBIA AVE,AC36D,0.1214510468
IN,VALPARAISO,MAUMEE DR,ED26C,0.05473798862
IN,,TREE TOP TRL,WG31D,0.08658477551
IN,,UNKNOWN,WH04A,0.08658477551
IN,FORT WAYNE,BRECONSHIRE DR,VI07B,0.2064443907
IN,,EMS LANE W 27,QF14D,0.01253176812
IN,SYRACUSE,W VALLEYVIEW DR,QE07B,0.01233208278
IN,ELKHART,COUNTY ROAD 108,NA36A,0.08462422849
IN,ELKHART,COUNTY ROAD 108,NA36A,0.08462422849
IN,ELKHART,LEHIGH DR,NA35C,0.08462422849
IN,GOSHEN,COUNTY ROAD 26,OB35B,0.070016943
IN,,E WILDWOOD DR,PG20D,0.04762798015
IN,,W 100 S,DE01C,0.01990197265
IN,,CHARLA LN,NA34C,0.08348057606
IN,,COUNTY ROAD 1,NA27D,0.08348057606
IN,,CHARLA LN,NA34C,0.08348057606
IN,PLYMOUTH,WESTGATE AVE,LF06D,0.08291177538
IN,AUBURN,BRYAN AVE,WE30A,0.08268788576
IN,,N VAN BUREN ST,XL33B,0.01867360523
IN,GARRETT,S TAYLOR RD,VF03B,0.1797470652
IN,,N STATE ROAD 9,SB13D,0.009070555488
IN,FORT WAYNE,RECKEWEG RD,VI08A,0.08162289725
IN,GOSHEN,REVERE DR,PC07B,0.2016579935
IN,FORT WAYNE,BUCKHURST RUN,WH33B,0.1980939126
IN,,COUNTY ROAD 40,PC35A,0.04177659446
IN,AVILLA,E 4TH ST,UE34D,0.01444995764
IN,FORT WAYNE,TRIER RD,WH29C,0.1968655452
IN,FORT WAYNE,VAN BUREN ST,VI11A,0.1954980031
IN,,HARRINGTON DR,MA16B,0.07532978337
IN,,N 450 E,QF07C,0.008429141958
IN,FORT WAYNE,EXECUTIVE BLVD,VH22C,0.07365968776
IN,PORTAGE,MONUMENT AVE,EC07A,0.1920125862
IN,FORT WAYNE,WINNSBORO PASS,VG32A,0.0724192182
IN,MICHIGAN CITY,E BARKER AVE,GA34A,0.1915224495
IN,NEW HAVEN,ENTRANCE RD,WI11C,0.1914256323
IN,PORTAGE,OLD PORTER RD,EC06D,0.07199564323
IN,,COUNTY LINE RD,JB03A,0.07184436645
IN,FORT WAYNE,STONY BROOK DR,WH16C,0.1905905845
IN,ELKHART,STATION CT,OB22A,0.07062810117
IN,ELKHART,STATION CT,OB22A,0.07062810117
IN,,COUNTY ROAD 400 RD W,MN35D,0.007249183105
IN,,COUNTY ROAD 400 RD W,MN35D,0.007249183105
IN,,DEER CLIFF RUN,UI02D,0.07004114728
IN,,E OLD ROAD 30,QG07C,0.006159990318
IN,MIDDLEBURY,STATE ROAD 13,QB15A,0.03271209004
IN,PORTAGE,SUNRISE AVE,DC13C,0.1472407116
IN,,LEVANNO DR,DE03B,0.01455282585
IN,GARY,W 15TH AVE,CC09C,0.1861309452
IN,ZANESVILLE,VAN HORN ST,UK04B,0.004526201138
IN,ELKHART,E SIMONTON ST,OA32D,0.184926782
IN,FORT WAYNE,TYLER AVE,VH34A,0.1443906571
IN,,W US HWY 6,HC35D,0.002753237323
IN,,W US HWY 6,HC35D,0.002753237323
IN,,COUNTY ROAD 650 W,GF36B,0.002589858405
IN,,COUNTY ROAD 650 W,GF36B,0.002589858405
IN,BLUFFTON,WILLOWBROOK TRL,VL27A,0.03303884788
IN,KOKOMO,SIBLEY DR,NP08C,0.06482512405
IN,,N GREENWOOD DR,PF29B,0.02882730243
IN,SOUTH BEND,WILSON AVE,MB08A,0.1822582597
IN,MILLERSBURG,E MAIN ST,QC34D,0.02748396466
IN,MILLERSBURG,ELM ST,QC34D,0.02748396466
IN,GOSHEN,W WILKINSON ST,PC09A,0.1582415588
IN,,W 600 RD N,MO04B,0.03027955948
IN,MISHAWAKA,CHESTNUT ST,MB10A,0.1793961031
IN,,N ROANOKE RD,TJ22D,0.01148493283
IN,GOSHEN,COUNTY ROAD 28,OB36D,0.06011739078
IN,GOSHEN,COUNTY ROAD 28,OB36D,0.06011739078
IN,,HONEY WILLOW BLVD,VG17B,0.05987534794
IN,,BURKE RD,LA24B,0.177598935
IN,,ALLEY,LA24B,0.177598935
IN,NAPPANEE,HARTMAN KNOLL CT,OD31A,0.0898463028
IN,MISHAWAKA,INDIAN RIDGE BLVD,MA27C,0.1764008229
IN,,E 113TH AVE,CE11B,0.05652910565
IN,PIERCETON,S STATE HWY 13,QG34A,0.02077937795
IN,PIERCETON,S STATE HWY 13,QG34A,0.02077937795
IN,GOSHEN,FERN DR,PC06A,0.1729819678
IN,,SYCAMORE HILLS DR,UI09B,0.054429384
IN,GOSHEN,BLACKPORT DR,PC10D,0.01888539271
IN,GOSHEN,BLACKPORT DR,PC10D,0.01888539271
IN,SOUTH BEND,OHIO ST,LB13A,0.1867360523
IN,,COVESIDE DR,MA14A,0.1704889265
IN,,COPPER PENNY DR,MA14C,0.1704889265
IN,,W 300 S,PG30C,0.01773568922
IN,,EMS B13 LN,QF26C,0.01638630038
IN,MENTONE,TUCKER ST,NH01A,0.01569042721
IN,AUBURN,LINCOLN ST,WE32C,0.06550889507
IN,NORTH WEBSTER,E 650 N,QF10A,0.05015127678
IN,NORTH WEBSTER,E 650 N,QF10A,0.05015127678
IN,FORT WAYNE,WILLOWWOOD DR,VG27C,0.16644076
IN,FORT WAYNE,AMHERST DR,VI34A,0.1660413893
IN,FORT WAYNE,EDSALL AVE,WI07B,0.1338375893
IN,FORT WAYNE,LOWER HUNTINGTON RD,VI28D,0.1654241801
IN,,UNKNOWN,OG05A,0.01269514704
IN,COLUMBIA CITY,E HANNA ST,SH11D,0.04789422728
IN,,EMS W17 LN,QF14B,0.01253176812
IN,,E BACKWATER RD,QF13A,0.01253176812
IN,,DURHAM WAY W,MA15A,0.1630763645
IN,,CANYON RIDGE DR,MA10C,0.1630763645
IN,,JOHNSON RD,LB35A,0.04660534915
IN,SOUTH BEND,BANEBERRY TRL,LB27D,0.04660534915
IN,,CHARLOTTE AVE,NB24B,0.046593247
IN,,LYNN DR,NP16A,0.01438339586
IN,NEW HAVEN,LONG RD,WH35B,0.04569163742
IN,,S 500 W,SC30B,0.009542539029
IN,LAPORTE,EVERGREEN DR,HC01B,0.04471136391
IN,FORT WAYNE,E WAYNE ST,VI01D,0.1605107104
IN,LAGRANGE,EAST DR,TB19A,0.009070555488
IN,,SNEAD AVE,FC05C,0.04382185647
IN,,SNEAD AVE,FC05C,0.04382185647
IN,,MONTERY DR,PA30A,0.04367663076
IN,,TRENTON LN,PA30B,0.04367663076
IN,,N 2ND ST,PF14B,0.008429141958
IN,WARSAW,IVYWOOD DR,PG10A,0.04359191577
IN,HAMMOND,ROOSEVELT DR,AB12B,0.04315018758
IN,WOLCOTTVILLE,PRIVATE DR,TD03A,0.007981362701
IN,,E CR 580 RD S,TC23D,0.007878494494
IN,,S STATE ROAD 9,TC27A,0.007878494494
IN,PORTAGE,US HIGHWAY 6,DC25B,0.1588406148
IN,,N 2ND ST,PF11D,0.007648553794
IN,LEESBURG,CHURCH ST,PF08B,0.007648553794
IN,,EMS T23 LN,PF12B,0.007648553794
IN,,PLEASANT LN,TB20C,0.007557787728
IN,LAGRANGE,LAKELAND DR,TB19D,0.007557787728
IN,,W HAWTHORN ST,PA32C,0.02450078664
IN,,VERDANO TER,DE03B,0.01455282585
IN,ANGOLA,MECHANIC ST,WB24C,0.04173423696
IN,ANGOLA,CLYDE AVE,WB25A,0.04173423696
IN,ANGOLA,MECHANIC ST,WB24C,0.04173423696
IN,SILVER LAKE,UNKNOWN,PI07B,0.006444390657
IN,SILVER LAKE,S JEFFERSON ST,PI08A,0.006444390657
IN,,JACKSON ST,QD06C,0.006329420307
IN,,JACKSON ST,QD06C,0.006329420307
IN,,LANE 140B LAKE GEORGE,WA14A,0.005978458187
IN,,SCOTCH PINE TRL,KB14B,0.04054217597
IN,,UNKNOWN,UC32D,0.005155512526
IN,WAKARUSA,WILDCAT DR,NC26D,0.02215902215
IN,,COUNTRY CT,OA19B,0.03968897495
IN,,S 150 E,TC20A,0.004592762919
IN,AUBURN,ELM ST,WE33C,0.1550405422
IN,AUBURN,IWO ST,WE32D,0.1550405422
IN,ALBION,WEBER RD,TE20A,0.02121505506
IN,MERRILLVILLE,W 86TH AVE,CD28A,0.1543083626
IN,,PRIVATE DR,TA33C,0.003709306547
IN,,N 205 E,TA33C,0.003709306547
IN,LIGONIER,N GERBER ST,RD21B,0.05318286337
IN,,S PHEASANT PL,OH33D,0.003497519061
IN,SOUTH BEND,COTSWOLD LN,MB31B,0.1537032555
IN,,HELENA DR,NA28D,0.03771632579
IN,,COUNTY ROAD 250 RD S,LP15A,0.00582113034
IN,BURKET,SOUTH ST,OH09B,0.002353866634
IN,BURKET,SOUTH ST,OH09B,0.002353866634
IN,,PEACH RIDGE RD,PC21C,0.01909112913
IN,NEW HAVEN,OAKWOOD DR,WI15B,0.03676025657
IN,NEW HAVEN,POINTE EAST,WI15B,0.03676025657
IN,MERRILLVILLE,E 83RD AVE,CD22D,0.03556819557
IN,COLUMBIA CITY,S OAK ST,SH10D,0.1506232603
IN,,N STATE ROAD 149,ED09A,0.03522933559
IN,,N STATE ROAD 149,ED09A,0.03522933559
IN,SOUTH BEND,LA MAR ST,MB29C,0.03499939489
IN,SOUTH BEND,LA MAR ST,MB29C,0.03499939489
IN,EAST CHICAGO,ACCESS RD,BB16A,0.03461817742
IN,CHESTERTON,N 250 E,FC17A,0.008465448384
IN,,PINE RD,LB06A,0.03958005567
IN,,PINE RD,LB06A,0.03958005567
IN,,LYNVALE DR,UI27C,0.1263100569
IN,,CRESTVIEW DR,OB19C,0.03311146073
IN,,CRESTVIEW DR,OB19C,0.03311146073
IN,,E 900 N,QJ16D,0.001361490984
IN,WATERLOO,N COLGROVE ST,WE03A,0.06202952923
IN,,CARMICHAEL DR,MA29C,0.1470591795
IN,PORTAGE,SWANSON RD,DC26C,0.03180442938
IN,KNOX,BINKLEY DR,IF27A,0.03070918553
IN,PLYMOUTH,UNNAMED STREET,LE32D,0.03060631732
IN,PLYMOUTH,JIM NEU DR,LE31D,0.03060631732
IN,MERRILLVILLE,FRONTAGE RD,CD27A,0.03043688733
IN,BLUFFTON,S WAYNE ST,VM09D,0.02941425632
IN,BLUFFTON,S WAYNE ST,VM09D,0.02941425632
IN,KENDALLVILLE,ANGLING RD,UD29D,0.0291056517
IN,KENDALLVILLE,ANGLING RD,UD29D,0.0291056517
IN,MIDDLEBURY,CLAIRE LN,QB17B,0.02859736173
IN,,WESTLAKES DR,UI15C,0.1423756505
IN,ELKHART,HOFFMAN DR,OB01D,0.02756262859
IN,,ROTHMAN RD,WH10D,0.141734237
IN,,LIBERTY MILLS RD,UI20D,0.02755657751
IN,,N 250 E,SG01C,0.02698777684
IN,,E 500 N,SG14B,0.02698777684
IN,WARSAW,W CRYSTAL LAKE RD,OG13B,0.05629311388
IN,,W 250 N,RB11B,0.008967687281
IN,,EMS T34 LN,PF01C,0.007648553794
IN,,SHERINGTON RD,UI21D,0.02504538303
IN,LAPORTE,ANDREW AVE,HC11A,0.1381217475
IN,LIGONIER,RIVER RD,RD21D,0.05318286337
IN,ELKHART,GARDEN BLVD,OB16D,0.1370628101
IN,ELKHART,COUNTY HWY 18,OB15A,0.1370628101
IN,ELKHART,MALCOLM DR,OB16D,0.1370628101
IN,CHESTERTON,WESTWOOD LN,EC09D,0.02319980637
IN,CHESTERTON,WESTWOOD LN,EC09D,0.02319980637
IN,,US HIGHWAY 20,LA30C,0.02191697931
IN,,DIXON RD W,MP14C,0.03395861067
IN,,LANE 270 WEST OTTER LK,VB29A,0.00384243011
IN,,N 850 E,QF26D,0.00372745976
IN,,COUNTY ROAD 1,NB27D,0.02098511437
IN,BERNE,S JEFFERSON ST,XN04A,0.05019363427
IN,BERNE,BROWN ST,XN04A,0.05019363427
IN,NORTH WEBSTER,E HIMES ST,QF15B,0.05015127678
IN,FORT WAYNE,FRANCIS ST,VI12A,0.1330751543
IN,,ADAMS RD,NA08C,0.0949231514
IN,ANGOLA,W HARCOURT RD,WB23A,0.0195570616
IN,,NOTESTINE RD,WG36D,0.01945419339
IN,GOSHEN,STATE ROAD 119,PC17C,0.01909112913
IN,GOSHEN,STATE ROAD 119,PC17C,0.01909112913
IN,,HURSHTOWN RD,WG11D,0.01897615878
IN,WARSAW,IRELAND DR,PG17D,0.04762798015
IN,,COUNTY ROAD 200 W,NM29A,0.0182621324
IN,,STATE HWY 116,VL20D,0.01760256565
IN,,JEFFERSON DR,CE21B,0.01740288031
IN,,E 400 N,QF23C,0.01638630038
IN,LAPAZ,HOOVER ST,LD27A,0.02219532857
IN,,COUNTY ROAD 18,PB18C,0.128536851
IN,COLUMBIA CITY,N STATE HWY 9,SH02B,0.01567227399
IN,COLUMBIA CITY,N STATE HWY 9,SH02B,0.01567227399
IN,COLUMBIA CITY,COUNTRY SIDE DR,SH02B,0.01567227399
IN,,STATE ROAD 19,OA17B,0.09014885635
IN,WINFIELD,RANDOLPH ST,DE16C,0.01467384727
IN,KENDALLVILLE,E NORTH ST,UD35B,0.01379644197
IN,KENDALLVILLE,E NORTH ST,UD35B,0.01379644197
IN,,SHEFFIELD WAY,UI27A,0.1263100569
IN,SCHERERVILLE,BELL ST,BD14B,0.1256928476
IN,SOUTH BEND,CLEVELAND ROAD EXT,LA21D,0.01286457703
IN,SOUTH BEND,GLENN OAK DR,LA21B,0.01286457703
IN,SOUTH BEND,FIELDGATE DR,LA21B,0.01286457703
IN,SOUTH BEND,FIELDGATE DR,LA21B,0.01286457703
IN,SOUTH BEND,GLENN OAK DR,LA21B,0.01286457703
IN,,CORNWALL RD,LL27A,0.01250756384
IN,,CORNWALL RD,LL27A,0.01250756384
IN,,PRIMROSE RD,KA14D,0.01246520634
IN,,N 200 E,XK24C,0.01223526564
IN,SHARPSVILLE,VINE ST,NQ04C,0.01223526564
IN,GARRETT,E RAILROAD ST,VE34C,0.0122231635
IN,,E SHAFER DR,HL05C,0.01197506959
IN,,DRAGOON TRL,NB30C,0.09264794869
IN,ALBION,W HAZEL ST,SE24B,0.009875347937
IN,,CLEVELAND RD,NA19C,0.009669611521
IN,TOPEKA,PLEASANT DR,SC30C,0.009542539029
IN,TOPEKA,S 700 W,RC25C,0.009542539029
IN,TOPEKA,S 700 W,RC25C,0.009542539029
IN,WINONA LAKE,E PIERCETON RD,PG25A,0.009185525838
IN,WINONA LAKE,E PIERCETON RD,PG25A,0.009185525838
IN,,LOWER HUNTINGTON RD,UI36C,0.009076606559
IN,SHIPSHEWANA,N STATE ROAD 5,RB15B,0.008967687281
IN,SHIPSHEWANA,N STATE ROAD 5,RB15B,0.008967687281
IN,,BEECH RD,NB29D,0.008943482996
IN,,LANE 100 LAKE JAMES,WA33D,0.008707491226
IN,,COUNTY LINE RD,GC06C,0.008465448384
IN,KOKOMO,NORTHWOOD DR,MO27D,0.007836136996
IN,,W COUNTY LINE RD N,UG30A,0.007515430231
IN,,LOWER HUNTINGTON RD,UJ02C,0.00750937916
IN,,COUNTY ROAD 350 N,UE16B,0.007400459881
IN,KENDALLVILLE,RED OAK DR,UE09B,0.007400459881
IN,,E LYNN VIEW DR,HK32B,0.007091855258
IN,,N COUNTRY LN,GB27B,0.007007140264
IN,,WAYNE TRCE,WJ03A,0.007007140264
IN,,WAYNE TRCE,WJ03A,0.007007140264
IN,,JUNIPER RD,LA24D,0.1188732906
IN,BRISTOL,W ELKHART ST,PA27B,0.03564080842
IN,ROANOKE,2ND ST,TJ14C,0.006613820646
IN,,RANGE RD,HB01B,0.006371777805
IN,,TOTO RD,IF34D,0.006178143531
IN,,TOTO RD,IF32D,0.006178143531
IN,BERNE,CLARK ST,XN05B,0.117971681
IN,BERNE,CLARK ST,XN05B,0.117971681
IN,,OAK TREE LN,PA07D,0.005851385695
IN,PORTAGE,SAND ST,DC15B,0.1175541571
IN,,E 600 N,IA32D,0.005675904635
IN,FORT WAYNE,W DUPONT RD,VH03B,0.1173907782
IN,,S US HWY 35,HC25B,0.00564564928
IN,,S US HWY 35,HC25B,0.00564564928
IN,WATERLOO,COBBLERS WAY,WE10A,0.005082899673
IN,WATERLOO,COBBLERS WAY,WE10A,0.005082899673
IN,,LANE 136 TURKEY LK,VC07D,0.004986082537
IN,ETNA GREEN,N STATE ROAD 19,NF27B,0.004901367542
IN,ETNA GREEN,N STATE ROAD 19,NF27B,0.004901367542
IN,CLEAR LAKE,LAKE DR,YA20B,0.004792448263
IN,,S 280 W,EL21B,0.00471378434
IN,,S 280 W,EL22C,0.00471378434
IN,,S 500 W,DE36D,0.004701682198
IN,ORLAND,N 900 W,VA21C,0.004562507564
IN,ORLAND,N 900 W,VA21C,0.004562507564
IN,,RANGE RD,HG01B,0.004489894711
IN,,N DEBORAH DR,XA27A,0.004284158296
IN,,E US HIGHWAY 224,VL06B,0.004078421881
IN,,E US HIGHWAY 224,VL06B,0.004078421881
IN,,S 600 E,TI35A,0.003981604744
IN,,N 925 E,JB27A,0.003703255476
IN,ELKHART,LEXINGTON PARK DR,NB02B,0.08462422849
IN,,500 RD E,NP26D,0.003648795837
IN,,LINCOLNWAY S,RE03D,0.003618540482
IN,,E COUNTY ROAD 1100 RD S,MN17C,0.003406752995
IN,,STATE HWY 110,KG33C,0.003279680503
IN,,E 1000 N,IA13B,0.003079995159
IN,,E 1000 N,IA13B,0.003079995159
IN,GOODLAND,IROQUIOS ST,CL26C,0.002892411957
IN,GOODLAND,IROQUIOS ST,CL26C,0.002892411957
IN,,N PRICE RD,PE19C,0.002759288394
IN,,N PRICE RD,PE19C,0.002759288394
IN,,YODER RD,VJ28C,0.00273508411
IN,FORT WAYNE,AMERICAN WAY,VI33D,0.00273508411
IN,,MONROEVILLE RD,XJ08C,0.002650369115
IN,HAMMOND,175TH ST,BC17B,0.1137661866
IN,,RILEY RD,ND05C,0.002148130219
IN,,E STATE HWY 120,UA29D,0.002069466296
IN,,COUNTY ROAD 800 E,JG09C,0.002069466296
IN,,THOMPSON ST,HE08D,0.001543023115
IN,,S 450 W,HE08A,0.001543023115
IN,,W 1000 N,KK06B,0.001355439913
IN,WOLCOTT,W US HIGHWAY 24,FL30C,0.0009379160111
IN,WOLCOTT,W US HIGHWAY 24,FL30C,0.0009379160111
IN,,SMITH DR,QE14B,0.02836136996
IN,LIGONIER,E MILLER ST,RD22C,0.02819193997
IN,OCEOLA,S BEECH RD,NB16A,0.1104380975
IN,,SMITH RD,NO18D,0.1092702408
IN,FORT WAYNE,PREMIERE DR,VI27D,0.09500181532
IN,WHEATFIELD,GROVE ST,EG25C,0.008392835532
IN,SCHERERVILLE,CARNOUSTIE LN,BD05A,0.1069163742
IN,,LANE 130 FOX LK,WB34A,0.02469442091
IN,SCHERERVILLE,STONEBRIDGE DR,BD08B,0.1068074549
IN,DYER,213TH ST,BD07B,0.1068074549
IN,WAKARUSA,PARK ST,NC36A,0.02437976522
IN,,INDEPENDANCE AVE,GC28A,0.1038847876
IN,,MARY DR,GC28A,0.1038847876
IN,,S 250 W,EE33D,0.004701682198
IN,,S 250 W,EE33D,0.004701682198
IN,,CRABAPPLE LN,FC20C,0.01656178144
IN,,CRABAPPLE LN,FC20C,0.01656178144
IN,PLYMOUTH,PIDCO DR,LE31D,0.03060631732
IN,,W 600 RD N,MN33D,0.03027955948
IN,HOBART,S DECATUR ST,CD01B,0.1017669127
IN,SYRACUSE,E PICKWICK RD,QE08D,0.01984751301
IN,ROME CITY,GRANT ST,TD16A,0.01973254266
IN,,2ND ST,QI22C,0.00279559482
IN,,EDISON RD,NB05B,0.1008774053
IN,,PEACH LN,PC21C,0.01909112913
IN,,RIO VERDE ST,PC21C,0.01909112913
IN,,CEDAR COVE DR,MA22A,0.1004840857
IN,ELKHART,MIDDLEBURY ST,OB02D,0.02756262859
IN,MERRILLVILLE,PENNSYLVANIA DR,CD03C,0.09901972649
IN,MISHAWAKA,JEFFERSON BLVD,NB07B,0.09730727339
IN,MENTONE,W MAPLE ST,NG34D,0.01569042721
IN,FORT WAYNE,SCEPTER CT,WH21C,0.09629674452
IN,,GARDEN LN,VI18C,0.09554641171
IN,,TIMBERLINE TRCE S,NA18D,0.0949231514
IN,,ANDERSON RD,NA18D,0.0949231514
IN,BUTLER,US HWY 6,XE02C,0.06444995764
IN,BUTLER,US HWY 6,XE02C,0.06444995764
IN,,RIDGEMOOR WAY,MA08D,0.09415466538
IN,,PENCROSS DR,MA08D,0.09415466538
IN,PERU,W FRANKLIN ST,NL34A,0.0210819315
IN,,SCHRAM RD,OG11A,0.01269514704
IN,,SCHRAM RD,OG11A,0.01269514704
IN,,EMS W19 LN,QF13A,0.01253176812
IN,TOPEKA,MICHIGAN ST,RC36B,0.009542539029
IN,TOPEKA,ALLEY,RC25D,0.009542539029
IN,ELKHART,INTERCHANGE DR,OA20B,0.09014885635
IN,ELKHART,NORTHPOINTE BLVD,OA20A,0.09014885635
IN,,CR 025 N,SB24D,0.009070555488
IN,,CR 025 RD N,SB24D,0.009070555488
IN,,CR 040 RD W,SB24D,0.009070555488
IN,,N 920 W,RB04D,0.008882972286
IN,ANGOLA,WOHLERT ST,WB23A,0.08928355319
IN,,3RD ST,TA30A,0.008193150188
IN,,5TH ST,TA30C,0.008193150188
IN,,E 700 S,TC26C,0.007878494494
IN,WOLCOTTVILLE,CEMETERY ST,TC33D,0.007878494494
IN,LEESBURG,N OLD STATE HWY 15,PF08B,0.007648553794
IN,LEESBURG,N OLD STATE HWY 15,PF08B,0.007648553794
IN,CROMWELL,E ORANGE ST,RE16C,0.00675299528
IN,,OLD LEO RD,WG31C,0.08658477551
IN,,N 700 W,OG07B,0.004187341159
IN,ELKHART,COUNTY ROAD 3,NA36C,0.08462422849
IN,,JEFFERSON BLVD,MB12B,0.04775505264
IN,,E 485 RD N,TA32A,0.003709306547
IN,NAPPANEE,MAPLE LN,OD30C,0.06291903667
IN,AUBURN,GREG ST,WE30C,0.08268788576
IN,AUBURN,CINDY ST,WE30C,0.08268788576
IN,AUBURN,SUSAN ST,WE30C,0.08268788576
IN,FORT WAYNE,ILLINOIS RD,VI04C,0.08162289725
IN,,GROVE ST,LB05A,0.0815079269
IN,FORT WAYNE,AIRPORT EXPY HWY,VI34C,0.08009197628
IN,,CR 035 RD W,SB24D,0.009070555488
IN,,OLD US 20,NB03D,0.07744765824
IN,WARSAW,S HARDING ST,PG18B,0.05629311388
IN,OSSIAN,ZURCHER LN,VK15A,0.05344911049
IN,KOKOMO,ALBRIGHT RD,NP18D,0.07380491347
IN,PORTER,UNKNOWN,EB26D,0.07313929566
IN,LOWELL,HOLTZ RD,CF19C,0.07219532857
IN,LAKEVILLE,UNKNOWN,LC34C,0.03544112308
IN,,WILLOW CREEK DR,WG31D,0.06998668764
IN,,POPP RD,WG30D,0.06998668764
IN,AUBURN,15TH ST,WE31A,0.06550889507
IN,,WINDY OAK DR,DE14B,0.01455282585
IN,,SNOWBERRY DR,UI28C,0.06423817016
IN,,LIBERTY MILLS RD,UI21C,0.06423817016
IN,FORT WAYNE,HARVESTER AVE,WI08C,0.05912501513
IN,BURNS HARBOR,MELTON RD,EC05A,0.06059542539
IN,BURNS HARBOR,MELTON RD,EC05A,0.06059542539
IN,,FOX MILL RUN,WH24A,0.06034128041
IN,,JONATHANS LNDG,UI07C,0.0600084715
IN,,DUESENBERG DR,VG17B,0.05987534794
IN,HUNTERTOWN,WILLOW RIDGE TRL,VG08C,0.05987534794
IN,FORT WAYNE,NEW HAVEN AVE,WI08D,0.05912501513
IN,,E 450 S,TC17B,0.004592762919
IN,,TANGLEWOOD TRL,EC35C,0.02319980637
IN,SOUTH BEND,S CARLISLE ST,LB15D,0.05842914196
IN,,100 RD N,OO28C,0.05769091129
IN,CROWN POINT,EDITH WAY,CE09D,0.05652910565
IN,WARSAW,W PRAIRIE ST,PG18B,0.05629311388
IN,,W 500 S,RH32D,0.02003509621
IN,MISHAWAKA,LEO ST,MA21D,0.05326152729
IN,,WOODY LN,QE24A,0.03315381823
IN,FORT WAYNE,E PONTIAC ST,WI08C,0.05912501513
IN,,SUNSHINE DR,ED05C,0.03522933559
IN,,FRANCISCAN DR,EC32A,0.04923756505
IN,FORT WAYNE,W LUDWIG RD,VH16B,0.04831780225
IN,,E YOLAND RD,QE14B,0.02836136996
IN,COLUMBIA CITY,E HANNA ST,SH12C,0.04789422728
IN,,RED FOX TRL,KA24C,0.01246520634
IN,,MEADOW GLEN DR,NB10D,0.046593247
IN,,VIRGINIA DR,NB10C,0.046593247
IN,DECATUR,E US HIGHWAY 224,XK35C,0.04587316955
IN,DECATUR,E US HIGHWAY 224,XK35C,0.04587316955
IN,DECATUR,E US HIGHWAY 224,XK35C,0.04587316955
IN,,COUNTY ROAD 112,PB02A,0.02114244221
IN,,FAIL RD,IB32A,0.04471136391
IN,,GOSHEN RD,VH17A,0.04331961757
IN,KENDALLVILLE,HAWTHORNE LN,UE09A,0.007400459881
IN,,NOTESTINE RD,WG32D,0.02243132034
IN,,W US HIGHWAY 30,DD22B,0.006934527411
IN,ANGOLA,N EASTON DR,WB24A,0.04173423696
IN,,S STATE ROAD 9,SH23A,0.00588164105
IN,MICHIGAN CITY,E US HIGHWAY 12,GA22C,0.03970712816
IN,ROME CITY,CENTRAL DR,TD16B,0.01973254266
IN,,UNION CHAPEL RD,VG25B,0.03905966356
IN,,NEW VISION DR,VG35B,0.03905966356
IN,,LOCUST RD,LC10B,0.03785550042
IN,,US HIGHWAY 27 S,XL27A,0.00255960305
IN,,EMS B5 LN,QF27B,0.01638630038
IN,,CADILLAC DR,UI24A,0.01622897253
IN,MERRILLVILLE,E 86TH PL,CD27B,0.03556819557
IN,,SIERRA MADRE,DE02B,0.01990197265
IN,,SIERRA MADRE,DE02B,0.01990197265
IN,,COUNTY ROAD 38,QC19C,0.01457703013
IN,ELKHART,FOREST CREEK DR,OB21A,0.03423090887
IN,BLUFFTON,MCARTHUR DR,VL34C,0.03303884788
IN,MIDDLEBURY,W CRYSTAL VALLEY DR,QB10A,0.03271209004
IN,PLYMOUTH,HILLSIDE DR,LF09D,0.03253055791
IN,PLYMOUTH,HILLSIDE DR,LF09D,0.03253055791
IN,,W 100 N,OG09A,0.01269514704
IN,GARY,CLAY ST,DC07C,0.03176812296
IN,GARY,CLAY ST,DC07C,0.03176812296
IN,,COUNTY ROAD 10,QA36D,0.01099479608
IN,MERRILLVILLE,VIRGINIA ST,CD22C,0.03043688733
IN,,COUNTY ROAD 59,XE28D,0.002069466296
IN,BLUFFTON,RIDGEWOOD LN,VM10B,0.02941425632
IN,,E DEERWOOD CT,PF28C,0.02882730243
IN,HUNTERTOWN,LIMA RD,VG19B,0.02853079995
IN,HUNTERTOWN,LIMA RD,VG19B,0.02853079995
IN,,GLEN LAKE DR,UI29B,0.02755657751
IN,,BRINDLE XING,UI31A,0.02755657751
IN,,COUNTY ROAD 10,PA35A,0.007878494494
IN,,S LIMA RD,UE15C,0.007400459881
IN,,DAY RD,MA36C,0.02650369115
IN,,SAGEWOOD DR,MA35D,0.02650369115
IN,ST. JOHN,OLCOTT AVE,BE05C,0.02612852475
IN,,E OLD ROAD 30,PG13B,0.006159990318
IN,,GLEN MOOR WAY,MP26D,0.02542660051
IN,,RUNKLE RD,PF21C,0.005917947477
IN,,TIMBERBROOK CIR,PA32A,0.02450078664
IN,,WINTERBURY PL,UJ13A,0.00750937916
IN,,LANE 101 MCCLISH LK,VC30C,0.004338617935
IN,PLYMOUTH,PIDCO DR,LE32C,0.03060631732
IN,MICHIGAN CITY,SPRINGLAND AVE,GA25A,0.02349630885
IN,,COUNTY ROAD 550 N,SA26A,0.003902940821
IN,,COUNTY ROAD 1,NC22D,0.003896889749
IN,,COUNTY ROAD 32,NC11C,0.003896889749
IN,,COUNTY ROAD 6,NA23C,0.02208035822
IN,VALPARAISO,COMEFORD RD,FD29C,0.02185646859
IN,VALPARAISO,BERTHOLET BLVD,FD32A,0.02185646859
IN,VALPARAISO,COMEFORD RD,FD29C,0.02185646859
IN,VALPARAISO,RAMP,FD29C,0.02185646859
IN,VALPARAISO,RAMP,FD29C,0.02185646859
IN,,S 100 W,PI09D,0.002123925935
IN,,CIMARRON DR,EE03A,0.004635120416
IN,,TOLSTOY TRL,EC24A,0.02075517367
IN,,E STATE ROAD 10,CH11C,0.02010165799
IN,ROME CITY,LIONS DR,TD16B,0.01973254266
IN,ANGOLA,GROWTH PKWY,WB14A,0.0195570616
IN,,COUNTY ROAD 300 W,OG25A,0.01773568922
IN,FORT WAYNE,INDEPENDENCE DR,VH28C,0.01736657388
IN,FREEMONT,UNNAMED STREET,XA21C,0.01729396103
IN,COLUMBIA CITY,US HWY 30 BUS,SH10A,0.01567227399
IN,,S THOMAS RD,VI05A,0.01552704829
IN,,WINCHESTER RD,VJ13A,0.0146254387
IN,AVILLA,S MAIN ST,UE34D,0.01444995764
IN,AVILLA,S MAIN ST,UE34D,0.01444995764
IN,,MEADOWOOD DR,EE07A,0.01990197265
IN,SOUTH BEND,CHERRY POINTE DR,LA21A,0.01286457703
IN,,DARDEN RD,KA23B,0.01246520634
IN,,PRIMROSE RD,KA23D,0.01246520634
IN,,E 720 S,TC32B,0.01239864456
IN,HUNTERTOWN,W SHOAFF RD,VG08C,0.01196296745
IN,ROANOKE,HILLSIDE AVE,TJ22B,0.01148493283
IN,,COUNTY ROAD 2,QA12C,0.01099479608
IN,,MICHIGAN RD,LE20B,0.0095485901
IN,,BROOKHAVEN DR,NO27C,0.008350478035
IN,ANGOLA,REDDING RD,WB35B,0.007854290209
IN,,HAWTHORNE RD,MC05B,0.007594094155
IN,MISHAWAKA,JACKSON RD,MB27C,0.007594094155
IN,,N COUNTY LINE ROAD EAST,VF34C,0.007479123805
IN,,LAKE WOOD DR,OO31A,0.007321795958
IN,,W 700 S,RC26C,0.007315744887
IN,,COUNTY ROAD 775 N,HK21B,0.007091855258
IN,,COUNTY ROAD 400 S,IG04D,0.006178143531
IN,,COUNTY ROAD 44,PD01D,0.006026866755
IN,,W US HWY 6,HC34D,0.00564564928
IN,,S STATE ROAD 3,UC05B,0.005149461455
IN,CLEAR LAKE,E 700 N,YA17D,0.004792448263
IN,,E STATE ROAD 4,JC18D,0.004707733269
IN,,E STATE ROAD 4,JC18A,0.004707733269
IN,,STANTON RD,LD18B,0.004235749728
IN,,STANTON RD,LD18B,0.004235749728
IN,NORTH MANCHESTER,GRIST RD,QJ04A,0.00279559482
IN,,E SINGER RD,QJ04C,0.00279559482
IN,,E 350 RD S,KO28D,0.002638266973
IN,,E MAIN ST,MJ15C,0.002214692
IN,,COUNTY HWY 100 E,GN26A,0.001470410263
IN,,S 600 E,FJ12D,0.0007140263827
IN,,W 300 N,DD13C,0.006934527411
IN,,N ROANOKE RD,TJ27D,0.01148493283
IN,,S STATE ROAD 15,PH32C,0.006444390657
IN,BLUFFTON,S MARION ST,VM04D,0.6037606525
IN,FORT WAYNE,TRAILS NORTH DR,VG34A,0.3142178254
IN,WARSAW,N MAPLE AVE,PG09C,0.5903036396
IN,BLUFFTON,W WILEY AVE,VM04C,0.6037606525
IN,SOUTH BEND,HILLCREST RD,LB01A,0.5778633279
IN,FORT WAYNE,WHETSTONE LN,WH27C,0.5231556581
IN,FORT WAYNE,BURNING TREE RD,VG27D,0.3142178254
IN,AUBURN,E 7TH ST,WE29D,0.3685256689
IN,KENDALLVILLE,DRAKE RD,UD32C,0.2112910964
IN,DECATUR,STRATTON WAY,XL02A,0.08660238982
IN,FORT WAYNE,W STATE BLVD,VH35C,1
IN,FORT WAYNE,ANDREW ST,VH35C,1
IN,FORT WAYNE,SHORT ST,VH35C,1
IN,FORT WAYNE,ARCHER AVE,VH35C,1
IN,FORT WAYNE,PUTNAM ST,VH35C,1
IN,FORT WAYNE,SHERMAN BLVD,VH35C,1
IN,FORT WAYNE,ALLEY ALY,VH35C,1
IN,FORT WAYNE,FLORENCE AVE,VH35C,1
IN,FORT WAYNE,GREENLAWN AVE,VH35C,1
IN,FORT WAYNE,BARTHOLD ST,VH35C,1
IN,FORT WAYNE,ALLEY,VH35C,1
IN,FORT WAYNE,KELLY DR,VH35C,1
IN,FORT WAYNE,GELLER ST,VH35C,1
IN,BLUFFTON,E TOWNLEY ST,VM04D,0.6037606525
IN,BLUFFTON,E ARNOLD ST,VM04D,0.6037606525
IN,BLUFFTON,ALLEY ALY,VM04D,0.6037606525
IN,BLUFFTON,W SILVER ST,VM04C,0.6037606525
IN,BLUFFTON,S MARION ST,VM04C,0.6037606525
IN,BLUFFTON,S MAIN ST,VM04D,0.6037606525
IN,BLUFFTON,E WILEY AVE,VM04D,0.6037606525
IN,BLUFFTON,E OHIO ST,VM04D,0.6037606525
IN,BLUFFTON,W TOWNLEY ST,VM04D,0.6037606525
IN,BLUFFTON,S WILLIAMS ST,VM04C,0.6037606525
IN,BLUFFTON,W TOWNLEY ST,VM04C,0.6037606525
IN,BLUFFTON,W WILEY AVE,VM04D,0.6037606525
IN,BLUFFTON,W SILVER ST,VM04D,0.6037606525
IN,BLUFFTON,UNKNOWN,VM04D,0.6037606525
IN,WARSAW,S MAPLE AVE,PG09C,0.5903036396
IN,WARSAW,S SHERMAN ST,PG09C,0.5903036396
IN,WARSAW,E JEFFERSON ST,PG09C,0.5903036396
IN,AUBURN,W 15TH ST,WE31B,0.5869565217
IN,WARSAW,E CENTER ST,PG09C,0.5903036396
IN,WARSAW,E CLARK ST,PG09C,0.5903036396
IN,WARSAW,S COURT ST,PG09C,0.5903036396
IN,WARSAW,N BRONSON ST,PG09C,0.5903036396
IN,WARSAW,N GRANT ST,PG09C,0.5903036396
IN,WARSAW,S BRONSON ST,PG09C,0.5903036396
IN,SOUTH BEND,N MICHIGAN ST,LB01A,0.5778633279
IN,SOUTH BEND,HOWARD ST,LB01A,0.5778633279
IN,SOUTH BEND,UNKNOWN,LB01A,0.5778633279
IN,SOUTH BEND,W POKAGON ST,LB01A,0.5778633279
IN,SOUTH BEND,PEASHWAY ST,LB01A,0.5778633279
IN,SOUTH BEND,OTSEGO ST,LB01A,0.5778633279
IN,SOUTH BEND,W ANGELA BLVD,LB01A,0.5778633279
IN,SOUTH BEND,E NORTH SHORE DR,LB01A,0.5778633279
IN,FORT WAYNE,WINDLASS CT,WH27C,0.5231556581
IN,FORT WAYNE,GEORGETOWN NORTH BLVD,WH34A,0.5231556581
IN,FORT WAYNE,NAQUAGA DR,WH27C,0.5231556581
IN,FORT WAYNE,CHICKASAW DR,WH27C,0.5231556581
IN,FORT WAYNE,BUSCHE DR,WH34A,0.5231556581
IN,FORT WAYNE,SIMCOE DR,WH34A,0.5231556581
IN,FORT WAYNE,KANATA CT,WH27C,0.5231556581
IN,FORT WAYNE,TONAWANDA DR,WH34A,0.5231556581
IN,FORT WAYNE,ANTEBELLUM DR,WH27C,0.5231556581
IN,FORT WAYNE,ARROWWOOD DR,WH34A,0.5231556581
IN,FORT WAYNE,FOREST VALLEY DR,WH34A,0.5231556581
IN,FORT WAYNE,SIMCOE CT,WH27C,0.5231556581
IN,FORT WAYNE,CORTLAND AVE,VH35C,0.5063286801
IN,FORT WAYNE,CASS ST,VH35C,0.5063286801
IN,FORT WAYNE,6TH ST,VH35C,0.4815965638
IN,FORT WAYNE,W JACOBS AVE,VH35C,0.4815965638
IN,BLUFFTON,WAYNE ST,VM04D,0.464324065
IN,BLUFFTON,MULBERRY ST,VM04D,0.464324065
IN,BLUFFTON,S SCOTT ST,VM04D,0.464324065
IN,BLUFFTON,S BENNETT ST,VM04D,0.464324065
IN,FORT WAYNE,ARGONIA DR,WH23C,0.4494391007
IN,FORT WAYNE,LAMPLIGHTER CT,WH23C,0.4494391007
IN,FORT WAYNE,BROOKSHIRE CIR,WH23C,0.4494391007
IN,FORT WAYNE,STELLHORN RD,WH23C,0.4494391007
IN,SOUTH BEND,CORBY BLVD,LB01A,0.4457835454
IN,FORT WAYNE,FORESTWOOD DR,WH34A,0.4474628161
IN,AUBURN,W 9TH ST,WE31B,0.4318581645
IN,ANGOLA,S WEST ST,WB26C,0.4293106994
IN,AUBURN,W 8TH ST,WE31B,0.4318581645
IN,ANGOLA,S DARLING ST,WB26C,0.4293106994
IN,ANGOLA,S ELIZABETH ST,WB26C,0.4293106994
IN,ANGOLA,W SOUTH ST,WB26C,0.4293106994
IN,ANGOLA,W PLEASANT ST,WB26C,0.4293106994
IN,ANGOLA,S WAYNE ST,WB26C,0.4293106994
IN,ANGOLA,S SUPERIOR ST,WB26C,0.4293106994
IN,ANGOLA,N ELIZABETH ST,WB26C,0.4293106994
IN,ANGOLA,N SUPERIOR ST,WB26C,0.4293106994
IN,WARSAW,E WINONA AVE,PG09C,0.4016084443
IN,WARSAW,E SMITH ST,PG09C,0.4016084443
IN,AUBURN,S CLEVELAND ST,WE32B,0.3685256689
IN,AUBURN,WILSON ST,WE32B,0.3685256689
IN,AUBURN,ALLEY ALY,WE32B,0.3685256689
IN,AUBURN,N BAXTER ST,WE29D,0.3685256689
IN,AUBURN,S MCCLELLAN ST,WE32B,0.3685256689
IN,AUBURN,CEDAR GLN,WE29D,0.3685256689
IN,AUBURN,E 15TH ST,WE32B,0.3685256689
IN,AUBURN,N CLEVELAND ST,WE29D,0.3685256689
IN,AUBURN,NIPSCO RIGHT OF WAY,WE32B,0.3685256689
IN,AUBURN,10TH ST,WE32B,0.3685256689
IN,AUBURN,CEDAN GLN,WE29D,0.3685256689
IN,AUBURN,N DIVISION ST,WE29D,0.3685256689
IN,AUBURN,ALLEY ALY,WE29D,0.3685256689
IN,FORT WAYNE,KNOLLRIDGE DR,WH34A,0.3500194201
IN,FORT WAYNE,MORNINGKNOLL DR,WH34A,0.3500194201
IN,FORT WAYNE,ORDWAY DR,WH34A,0.3500194201
IN,FORT WAYNE,HILLOCK CT,WH34A,0.3500194201
IN,FORT WAYNE,KNOLLWOOD CT,WH34A,0.3500194201
IN,FORT WAYNE,MOUNDED CT,WH34A,0.3500194201
IN,FORT WAYNE,LAKELAND LN,WH34A,0.3500194201
IN,FORT WAYNE,FOREST VIEW DR,WH34A,0.3500194201
IN,FORT WAYNE,POTOMAC DR,WH23C,0.3363682058
IN,FORT WAYNE,GOLDEN HARVEST DR,VG27D,0.3142178254
IN,FORT WAYNE,WEST AUTUMN LN,VG27D,0.3142178254
IN,FORT WAYNE,CHAPEL WOOD PL,VG27D,0.3142178254
IN,FORT WAYNE,AUTUNN BREEZE DR,VG27D,0.3142178254
IN,FORT WAYNE,GRAND RIVER DR,VG34A,0.3142178254
IN,FORT WAYNE,CARVERS BAY RUN,VG27D,0.3142178254
IN,FORT WAYNE,BURNING TREE CT,VG27D,0.3142178254
IN,FORT WAYNE,FALLEN LEAF CT,VG27D,0.3142178254
IN,FORT WAYNE,KRUSE LN,VG27D,0.3142178254
IN,FORT WAYNE,GREAT PINES CV,VG27D,0.3142178254
IN,FORT WAYNE,COLONY CT,VG34A,0.3142178254
IN,FORT WAYNE,JEWEL CT,VG34A,0.3142178254
IN,FORT WAYNE,MILL LAKE RD,VG34C,0.2728415088
IN,FORT WAYNE,WINDRIFT LN,VG34A,0.2728415088
IN,FORT WAYNE,WINGATE DR,VG34A,0.2728415088
IN,FORT WAYNE,PINE MILLS RD,VG34C,0.2728415088
IN,FORT WAYNE,W JEFFERSON BLVD,VI18A,0.2715049464
IN,FORT WAYNE,COLDWATER RD,VG34C,0.2728415088
IN,FORT WAYNE,BALD EAGLE DR,VG34A,0.2728415088
IN,FORT WAYNE,LAKE POINTE CV,VG34C,0.2728415088
IN,FORT WAYNE,MILL POINTE,VG34C,0.2728415088
IN,FORT WAYNE,CHANTERELLE ST,VG34C,0.2728415088
IN,FORT WAYNE,N STAR PL,VG34A,0.2728415088
IN,FORT WAYNE,MILL LAKE CV,VG34C,0.2728415088
IN,FORT WAYNE,GLEN EAGLE LN,VG34A,0.2728415088
IN,FORT WAYNE,PATRICIAN PL,VG34C,0.2728415088
IN,FORT WAYNE,LAKE POINTE DR,VG34C,0.2728415088
IN,FORT WAYNE,PINE MILLS RD,VG34A,0.2728415088
IN,FORT WAYNE,BRETON LN,VG34A,0.2728415088
IN,FORT WAYNE,KINGS XING,VG34A,0.2728415088
IN,FORT WAYNE,TRADERS CT,VG34C,0.2728415088
IN,FORT WAYNE,TRADERS XING,VG34C,0.2728415088
IN,FORT WAYNE,PINE MILLS CT,VG34C,0.2728415088
IN,FORT WAYNE,SHALIMAR DR,VG34A,0.2728415088
IN,FORT WAYNE,LANTERN LN,VG34A,0.2728415088
IN,FORT WAYNE,VALLEY O PINES PKWY,VG34C,0.2728415088
IN,SCHERERVILLE,76TH AVE,BD13C,0.2372912335
IN,SCHERERVILLE,HAMLIN ST,BD13C,0.2372912335
IN,SCHERERVILLE,77TH AVE,BD13C,0.2372912335
IN,SCHERERVILLE,74TH PL,BD13C,0.2372912335
IN,SCHERERVILLE,BURR ST,BD13C,0.2372912335
IN,SCHERERVILLE,S CALHOUN ST,BD13C,0.2372912335
IN,AUBURN,DEPOT ST,WE31B,0.2332929699
IN,AUBURN,S WEST ST,WE31B,0.2332929699
IN,PORTAGE,GLENWOOD ST,DC14C,0.2155178323
IN,PORTAGE,RUTH AVE,DC14C,0.2155178323
IN,MUNSTER,MARGO LN,AC36A,0.2147067559
IN,PORTAGE,MOREHOUSE CT,DC14C,0.2155178323
IN,PORTAGE,WHITTIER ST,DC14C,0.2155178323
IN,PORTAGE,WOODWARD ST,DC14C,0.2155178323
IN,PORTAGE,FERN ST,DC14C,0.2155178323
IN,PORTAGE,EMERSON ST,DC14C,0.2155178323
IN,PORTAGE,FORREST ST,DC14C,0.2155178323
IN,PORTAGE,SWANSON ST,DC14C,0.2155178323
IN,PORTAGE,INDEPENDENCE AVE,DC14C,0.2155178323
IN,MUNSTER,SUPERIOR AVE,AC36A,0.2147067559
IN,MUNSTER,GLASTONBURY ST,AC36A,0.2147067559
IN,MUNSTER,SALISBURY DR,AC36A,0.2147067559
IN,MUNSTER,PRIVATE DR,AC36A,0.2147067559
IN,WARSAW,GREY WOLF CT,PG04B,0.2029518609
IN,ST. JOHN,WICKER AVE,BD28A,0.1880440494
IN,ST. JOHN,US HIGHWAY 41,BD28A,0.1880440494
IN,FORT WAYNE,S BEND DR,VI18A,0.1803788069
IN,FORT WAYNE,RUBY CIR N,VI18A,0.1803788069
IN,FORT WAYNE,SAPPHIRE TRL,VI18A,0.1803788069
IN,FORT WAYNE,RICHLAND DR,VI18A,0.1803788069
IN,FORT WAYNE,SUBURBAN DR,VI18A,0.1803788069
IN,FORT WAYNE,NORTHRIDGE DR,VI18A,0.1803788069
IN,ANGOLA,JACKSON ST,WB26C,0.1685553702
IN,ANGOLA,RAILROAD ST,WB26C,0.1685553702
IN,FORT WAYNE,SHERATON DR,VH27B,0.1390596084
IN,FORT WAYNE,LOCH LOMOND DR,VH27B,0.1390596084
IN,FORT WAYNE,SYLVANIA PLZ,VH27B,0.1390596084
IN,FORT WAYNE,SHERMAN BLVD,VH27B,0.1390596084
IN,AUBURN,PHILLIP ST,WE31B,0.1236720053
IN,AUBURN,LAKESHORE DR,WE31B,0.1236720053
IN,AUBURN,UNKNOWN,WE31B,0.1236720053
IN,AUBURN,W 13TH ST,WE31B,0.1236720053
IN,AUBURN,DALLAS ST,WE31B,0.1236720053
IN,AUBURN,HAZEL ST,WE31B,0.1236720053
IN,AUBURN,GREENHAVEN TER,WE29D,0.09378784071
IN,AUBURN,HAWTHORNE PL,WE29D,0.09378784071
IN,AUBURN,COLUMBINE CIR,WE29D,0.09378784071
IN,AUBURN,DURYEA DR,WE29D,0.09378784071
IN,AUBURN,GREENBRIAR BLVD,WE29D,0.09378784071
IN,AUBURN,STONY DR,WE29D,0.09378784071
IN,AUBURN,BRENTWOOD CIR,WE29D,0.09378784071
IN,AUBURN,HAWTHORNE CT,WE29D,0.09378784071
IN,DECATUR,BERKSHIRE DR,XL02A,0.08660238982
IN,DECATUR,PORTER VIS,XL02A,0.08660238982
IN,DECATUR,HARVESTER LN,XL02A,0.08660238982
IN,ST. JOHN,FAIRWAY DR,BD28A,0.08410061916
IN,ST. JOHN,STONEGATE CT,BD28A,0.08410061916
IN,ST. JOHN,MUIRFIELD LN,BD28A,0.08410061916
IN,ANGOLA,CLYDE AVE,WB25C,0.07878864036
IN,NEW HAVEN,WAYNE HAVEN ST,WI10C,0.06939843268
IN,NEW HAVEN,TRAFALGAR DR,WI10C,0.06939843268
IN,NEW HAVEN,QUEMETCO CT,WI10C,0.06939843268
IN,BRISTOL,MAPLE ST,PA27D,0.06728506477
IN,BRISTOL,BLOOMINGDALE DR,PA27D,0.06728506477
IN,WINAMAC,S MONTICELLO ST,II13C,0.02279010258
IN,KENDALLVILLE,WOODLAND DR,UD32C,0.05494756563
IN,KENDALLVILLE,FALL CREEK AVE,UD32C,0.05494756563
IN,KENDALLVILLE,IRONWOOD DR,UD32C,0.05494756563
IN,KENDALLVILLE,GREENVIEW DR,UD32C,0.05494756563
IN,KENDALLVILLE,TERRAIN AVE,UD32C,0.05494756563
IN,BLUFFTON,DOROTHY DR,VM04C,0.048047705
IN,ANGOLA,UNIVERSITY AVE,WB26C,0.04661975371
IN,ANGOLA,OAK WOOD ST,WB26C,0.04661975371
IN,WINAMAC,ALLEY,II13C,0.02279010258
IN,WINAMAC,S MARKET ST,II13C,0.02279010258
IN,WINAMAC,E HUDDLESTON ST,II13C,0.02279010258
IN,WINAMAC,MICHIGAN ST,II13C,0.02279010258
IN,WINAMAC,E ERIE ST,II13C,0.02279010258
IN,WINAMAC,E ONTARIO ST,II13C,0.02279010258
IN,WINAMAC,COUNTY ROAD 100 S,II13C,0.02279010258
IN,WINAMAC,W HURON ST,II13C,0.02279010258
IN,WINAMAC,W WASHINGTON ST,II13C,0.02279010258
IN,KENDALLVILLE,HIGHPOINTE XING,UD32C,0.01842628344
IN,,ORCHARD LN,RB14C,0.01692979049
IN,,BERKSHIRE CT W,RB14C,0.01692979049
IN,FORT WAYNE,LANGFORD LN,VI18A,0.01713541548
IN,,BLUFFTON RD,VJ21D,0.005163471864
IN,,HAMILTON RD,VJ21D,0.005163471864
,,,,395.4526011